"Longitude (x)","Latitude (y)","Station Name","Climate ID","Date/Time (LST)","Year","Month","Day","Time (LST)","Temp (°C)","Temp Flag","Dew Point Temp (°C)","Dew Point Temp Flag","Rel Hum (%)","Rel Hum Flag","Precip. Amount (mm)","Precip. Amount Flag","Wind Dir (10s deg)","Wind Dir Flag","Wind Spd (km/h)","Wind Spd Flag","Visibility (km)","Visibility Flag","Stn Press (kPa)","Stn Press Flag","Hmdx","Hmdx Flag","Wind Chill","Wind Chill Flag","Weather"
"-79.33","42.97","WELLAND-PELHAM","6139449","2021-09-01 00:00","2021","09","01","00:00","17.1","","","M","","M","0.0","","36","","4","","","","99.01","","","","","","NA"
"-79.33","42.97","WELLAND-PELHAM","6139449","2021-09-01 01:00","2021","09","01","01:00","17.1","","","M","","M","0.0","","32","","1","","","","98.98","","","","","","NA"
"-79.33","42.97","WELLAND-PELHAM","6139449","2021-09-01 02:00","2021","09","01","02:00","17.5","","","M","","M","0.0","","2","","5","","","","98.95","","","","","","NA"
"-79.33","42.97","WELLAND-PELHAM","6139449","2021-09-01 03:00","2021","09","01","03:00","17.1","","","M","","M","0.0","","1","","3","","","","98.92","","","","","","NA"
"-79.33","42.97","WELLAND-PELHAM","6139449","2021-09-01 04:00","2021","09","01","04:00","17.8","","","M","","M","0.0","","3","","6","","","","98.92","","","","","","NA"
"-79.33","42.97","WELLAND-PELHAM","6139449","2021-09-01 05:00","2021","09","01","05:00","17.5","","","M","","M","0.0","","3","","6","","","","98.92","","","","","","NA"
"-79.33","42.97","WELLAND-PELHAM","6139449","2021-09-01 06:00","2021","09","01","06:00","17.8","","","M","","M","0.0","","2","","11","","","","98.96","","","","","","NA"
"-79.33","42.97","WELLAND-PELHAM","6139449","2021-09-01 07:00","2021","09","01","07:00","18.8","","","M","","M","0.0","","5","","14","","","","98.99","","","","","","NA"
"-79.33","42.97","WELLAND-PELHAM","6139449","2021-09-01 08:00","2021","09","01","08:00","19.4","","","M","","M","0.0","","6","","18","","","","99.02","","","","","","NA"
"-79.33","42.97","WELLAND-PELHAM","6139449","2021-09-01 09:00","2021","09","01","09:00","19.8","","","M","","M","0.0","","6","","20","","","","99.05","","","","","","NA"
"-79.33","42.97","WELLAND-PELHAM","6139449","2021-09-01 10:00","2021","09","01","10:00","20.6","","","M","","M","0.0","","6","","20","","","","99.09","","","","","","NA"
"-79.33","42.97","WELLAND-PELHAM","6139449","2021-09-01 11:00","2021","09","01","11:00","21.1","","","M","","M","0.0","","6","","21","","","","99.08","","","","","","NA"
"-79.33","42.97","WELLAND-PELHAM","6139449","2021-09-01 12:00","2021","09","01","12:00","21.6","","","M","","M","0.0","","6","","20","","","","99.06","","","","","","NA"
"-79.33","42.97","WELLAND-PELHAM","6139449","2021-09-01 13:00","2021","09","01","13:00","21.7","","","M","","M","0.0","","4","","22","","","","99.08","","","","","","NA"
"-79.33","42.97","WELLAND-PELHAM","6139449","2021-09-01 14:00","2021","09","01","14:00","22.4","","","M","","M","0.0","","3","","24","","","","99.09","","","","","","NA"
"-79.33","42.97","WELLAND-PELHAM","6139449","2021-09-01 15:00","2021","09","01","15:00","22.8","","","M","","M","0.0","","4","","19","","","","99.07","","","","","","NA"
"-79.33","42.97","WELLAND-PELHAM","6139449","2021-09-01 16:00","2021","09","01","16:00","21.7","","","M","","M","0.0","","3","","18","","","","99.08","","","","","","NA"
"-79.33","42.97","WELLAND-PELHAM","6139449","2021-09-01 17:00","2021","09","01","17:00","21.3","","","M","","M","0.0","","4","","16","","","","99.09","","","","","","NA"
"-79.33","42.97","WELLAND-PELHAM","6139449","2021-09-01 18:00","2021","09","01","18:00","20.4","","","M","","M","0.0","","4","","14","","","","99.13","","","","","","NA"
"-79.33","42.97","WELLAND-PELHAM","6139449","2021-09-01 19:00","2021","09","01","19:00","18.4","","","M","","M","0.0","","2","","7","","","","99.14","","","","","","NA"
"-79.33","42.97","WELLAND-PELHAM","6139449","2021-09-01 20:00","2021","09","01","20:00","15.1","","","M","","M","0.0","","34","","3","","","","99.20","","","","","","NA"
"-79.33","42.97","WELLAND-PELHAM","6139449","2021-09-01 21:00","2021","09","01","21:00","13.8","","","M","","M","0.0","","29","","6","","","","99.23","","","","","","NA"
"-79.33","42.97","WELLAND-PELHAM","6139449","2021-09-01 22:00","2021","09","01","22:00","13.0","","","M","","M","0.0","","30","","7","","","","99.22","","","","","","NA"
"-79.33","42.97","WELLAND-PELHAM","6139449","2021-09-01 23:00","2021","09","01","23:00","13.4","","","M","","M","0.0","","33","","8","","","","99.21","","","","","","NA"
"-79.33","42.97","WELLAND-PELHAM","6139449","2021-09-02 00:00","2021","09","02","00:00","17.2","","","M","","M","0.0","","35","","12","","","","99.25","","","","","","NA"
"-79.33","42.97","WELLAND-PELHAM","6139449","2021-09-02 01:00","2021","09","02","01:00","17.2","","","M","","M","0.0","","36","","10","","","","99.25","","","","","","NA"
"-79.33","42.97","WELLAND-PELHAM","6139449","2021-09-02 02:00","2021","09","02","02:00","16.5","","","M","","M","0.0","","1","","11","","","","99.29","","","","","","NA"
"-79.33","42.97","WELLAND-PELHAM","6139449","2021-09-02 03:00","2021","09","02","03:00","14.5","","","M","","M","0.0","","35","","6","","","","99.32","","","","","","NA"
"-79.33","42.97","WELLAND-PELHAM","6139449","2021-09-02 04:00","2021","09","02","04:00","11.3","","","M","","M","0.0","","33","","6","","","","99.36","","","","","","NA"
"-79.33","42.97","WELLAND-PELHAM","6139449","2021-09-02 05:00","2021","09","02","05:00","12.4","","","M","","M","0.0","","33","","4","","","","99.42","","","","","","NA"
"-79.33","42.97","WELLAND-PELHAM","6139449","2021-09-02 06:00","2021","09","02","06:00","10.7","","","M","","M","0.0","","28","","6","","","","99.51","","","","","","NA"
"-79.33","42.97","WELLAND-PELHAM","6139449","2021-09-02 07:00","2021","09","02","07:00","13.9","","","M","","M","0.0","","32","","5","","","","99.58","","","","","","NA"
"-79.33","42.97","WELLAND-PELHAM","6139449","2021-09-02 08:00","2021","09","02","08:00","17.5","","","M","","M","0.0","","1","","14","","","","99.62","","","","","","NA"
"-79.33","42.97","WELLAND-PELHAM","6139449","2021-09-02 09:00","2021","09","02","09:00","18.0","","","M","","M","0.0","","34","","19","","","","99.66","","","","","","NA"
"-79.33","42.97","WELLAND-PELHAM","6139449","2021-09-02 10:00","2021","09","02","10:00","18.8","","","M","","M","0.0","","35","","16","","","","99.68","","","","","","NA"
"-79.33","42.97","WELLAND-PELHAM","6139449","2021-09-02 11:00","2021","09","02","11:00","19.5","","","M","","M","0.0","","30","","23","","","","99.70","","","","","","NA"
"-79.33","42.97","WELLAND-PELHAM","6139449","2021-09-02 12:00","2021","09","02","12:00","20.4","","","M","","M","0.0","","34","","14","","","","99.65","","","","","","NA"
"-79.33","42.97","WELLAND-PELHAM","6139449","2021-09-02 13:00","2021","09","02","13:00","21.6","","","M","","M","0.0","","33","","16","","","","99.62","","","","","","NA"
"-79.33","42.97","WELLAND-PELHAM","6139449","2021-09-02 14:00","2021","09","02","14:00","21.9","","","M","","M","0.0","","32","","17","","","","99.60","","","","","","NA"
"-79.33","42.97","WELLAND-PELHAM","6139449","2021-09-02 15:00","2021","09","02","15:00","21.3","","","M","","M","0.0","","36","","14","","","","99.61","","","","","","NA"
"-79.33","42.97","WELLAND-PELHAM","6139449","2021-09-02 16:00","2021","09","02","16:00","20.7","","","M","","M","0.0","","1","","12","","","","99.62","","","","","","NA"
"-79.33","42.97","WELLAND-PELHAM","6139449","2021-09-02 17:00","2021","09","02","17:00","19.9","","","M","","M","0.0","","2","","16","","","","99.65","","","","","","NA"
"-79.33","42.97","WELLAND-PELHAM","6139449","2021-09-02 18:00","2021","09","02","18:00","18.6","","","M","","M","0.0","","2","","14","","","","99.71","","","","","","NA"
"-79.33","42.97","WELLAND-PELHAM","6139449","2021-09-02 19:00","2021","09","02","19:00","16.4","","","M","","M","0.0","","36","","10","","","","99.78","","","","","","NA"
"-79.33","42.97","WELLAND-PELHAM","6139449","2021-09-02 20:00","2021","09","02","20:00","15.6","","","M","","M","0.0","","35","","12","","","","99.84","","","","","","NA"
"-79.33","42.97","WELLAND-PELHAM","6139449","2021-09-02 21:00","2021","09","02","21:00","14.6","","","M","","M","0.0","","35","","7","","","","99.87","","","","","","NA"
"-79.33","42.97","WELLAND-PELHAM","6139449","2021-09-02 22:00","2021","09","02","22:00","13.2","","","M","","M","0.0","","33","","6","","","","99.87","","","","","","NA"
"-79.33","42.97","WELLAND-PELHAM","6139449","2021-09-02 23:00","2021","09","02","23:00","13.9","","","M","","M","0.0","","30","","7","","","","99.88","","","","","","NA"
"-79.33","42.97","WELLAND-PELHAM","6139449","2021-09-03 00:00","2021","09","03","00:00","14.6","","","M","","M","0.0","","31","","5","","","","99.87","","","","","","NA"
"-79.33","42.97","WELLAND-PELHAM","6139449","2021-09-03 01:00","2021","09","03","01:00","14.9","","","M","","M","0.0","","31","","4","","","","99.85","","","","","","NA"
"-79.33","42.97","WELLAND-PELHAM","6139449","2021-09-03 02:00","2021","09","03","02:00","15.1","","","M","","M","0.0","","27","","5","","","","99.87","","","","","","NA"
"-79.33","42.97","WELLAND-PELHAM","6139449","2021-09-03 03:00","2021","09","03","03:00","15.3","","","M","","M","0.0","","30","","2","","","","99.88","","","","","","NA"
"-79.33","42.97","WELLAND-PELHAM","6139449","2021-09-03 04:00","2021","09","03","04:00","15.2","","","M","","M","0.0","","","","0","","","","99.88","","","","","","NA"
"-79.33","42.97","WELLAND-PELHAM","6139449","2021-09-03 05:00","2021","09","03","05:00","13.5","","","M","","M","0.0","","28","","2","","","","99.90","","","","","","NA"
"-79.33","42.97","WELLAND-PELHAM","6139449","2021-09-03 06:00","2021","09","03","06:00","13.2","","","M","","M","0.0","","29","","7","","","","99.94","","","","","","NA"
"-79.33","42.97","WELLAND-PELHAM","6139449","2021-09-03 07:00","2021","09","03","07:00","14.8","","","M","","M","0.0","","29","","9","","","","99.99","","","","","","NA"
"-79.33","42.97","WELLAND-PELHAM","6139449","2021-09-03 08:00","2021","09","03","08:00","16.0","","","M","","M","0.0","","32","","7","","","","100.00","","","","","","NA"
"-79.33","42.97","WELLAND-PELHAM","6139449","2021-09-03 09:00","2021","09","03","09:00","18.3","","","M","","M","0.0","","34","","12","","","","100.02","","","","","","NA"
"-79.33","42.97","WELLAND-PELHAM","6139449","2021-09-03 10:00","2021","09","03","10:00","18.4","","","M","","M","0.0","","1","","12","","","","100.03","","","","","","NA"
"-79.33","42.97","WELLAND-PELHAM","6139449","2021-09-03 11:00","2021","09","03","11:00","19.3","","","M","","M","0.0","","34","","8","","","","100.02","","","","","","NA"
"-79.33","42.97","WELLAND-PELHAM","6139449","2021-09-03 12:00","2021","09","03","12:00","19.6","","","M","","M","0.0","","1","","9","","","","99.98","","","","","","NA"
"-79.33","42.97","WELLAND-PELHAM","6139449","2021-09-03 13:00","2021","09","03","13:00","20.1","","","M","","M","0.0","","1","","8","","","","99.95","","","","","","NA"
"-79.33","42.97","WELLAND-PELHAM","6139449","2021-09-03 14:00","2021","09","03","14:00","20.7","","","M","","M","0.0","","30","","7","","","","99.92","","","","","","NA"
"-79.33","42.97","WELLAND-PELHAM","6139449","2021-09-03 15:00","2021","09","03","15:00","20.9","","","M","","M","0.0","","36","","7","","","","99.87","","","","","","NA"
"-79.33","42.97","WELLAND-PELHAM","6139449","2021-09-03 16:00","2021","09","03","16:00","20.9","","","M","","M","0.0","","33","","5","","","","99.86","","","","","","NA"
"-79.33","42.97","WELLAND-PELHAM","6139449","2021-09-03 17:00","2021","09","03","17:00","20.0","","","M","","M","0.0","","24","","5","","","","99.86","","","","","","NA"
"-79.33","42.97","WELLAND-PELHAM","6139449","2021-09-03 18:00","2021","09","03","18:00","19.4","","","M","","M","0.0","","22","","5","","","","99.83","","","","","","NA"
"-79.33","42.97","WELLAND-PELHAM","6139449","2021-09-03 19:00","2021","09","03","19:00","17.8","","","M","","M","0.0","","21","","3","","","","99.81","","","","","","NA"
"-79.33","42.97","WELLAND-PELHAM","6139449","2021-09-03 20:00","2021","09","03","20:00","15.5","","","M","","M","0.0","","19","","2","","","","99.85","","","","","","NA"
"-79.33","42.97","WELLAND-PELHAM","6139449","2021-09-03 21:00","2021","09","03","21:00","15.0","","","M","","M","0.0","","","","0","","","","99.81","","","","","","NA"
"-79.33","42.97","WELLAND-PELHAM","6139449","2021-09-03 22:00","2021","09","03","22:00","15.3","","","M","","M","0.0","","34","","3","","","","99.85","","","","","","NA"
"-79.33","42.97","WELLAND-PELHAM","6139449","2021-09-03 23:00","2021","09","03","23:00","14.7","","","M","","M","0.0","","","","0","","","","99.80","","","","","","NA"
"-79.33","42.97","WELLAND-PELHAM","6139449","2021-09-04 00:00","2021","09","04","00:00","14.5","","","M","","M","0.0","","0","","1","","","","99.78","","","","","","NA"
"-79.33","42.97","WELLAND-PELHAM","6139449","2021-09-04 01:00","2021","09","04","01:00","13.8","","","M","","M","0.0","","7","","2","","","","99.76","","","","","","NA"
"-79.33","42.97","WELLAND-PELHAM","6139449","2021-09-04 02:00","2021","09","04","02:00","13.5","","","M","","M","0.0","","","","0","","","","99.74","","","","","","NA"
"-79.33","42.97","WELLAND-PELHAM","6139449","2021-09-04 03:00","2021","09","04","03:00","13.8","","","M","","M","0.0","","0","","1","","","","99.72","","","","","","NA"
"-79.33","42.97","WELLAND-PELHAM","6139449","2021-09-04 04:00","2021","09","04","04:00","13.9","","","M","","M","0.0","","","","0","","","","99.73","","","","","","NA"
"-79.33","42.97","WELLAND-PELHAM","6139449","2021-09-04 05:00","2021","09","04","05:00","13.8","","","M","","M","0.0","","","","0","","","","99.72","","","","","","NA"
"-79.33","42.97","WELLAND-PELHAM","6139449","2021-09-04 06:00","2021","09","04","06:00","12.8","","","M","","M","0.0","","32","","1","","","","99.73","","","","","","NA"
"-79.33","42.97","WELLAND-PELHAM","6139449","2021-09-04 07:00","2021","09","04","07:00","15.2","","","M","","M","0.0","","32","","1","","","","99.73","","","","","","NA"
"-79.33","42.97","WELLAND-PELHAM","6139449","2021-09-04 08:00","2021","09","04","08:00","17.7","","","M","","M","0.0","","","","0","","","","99.69","","","","","","NA"
"-79.33","42.97","WELLAND-PELHAM","6139449","2021-09-04 09:00","2021","09","04","09:00","20.5","","","M","","M","0.0","","18","","4","","","","99.67","","","","","","NA"
"-79.33","42.97","WELLAND-PELHAM","6139449","2021-09-04 10:00","2021","09","04","10:00","21.4","","","M","","M","0.0","","20","","5","","","","99.63","","","","","","NA"
"-79.33","42.97","WELLAND-PELHAM","6139449","2021-09-04 11:00","2021","09","04","11:00","22.6","","","M","","M","0.0","","20","","7","","","","99.55","","","","","","NA"
"-79.33","42.97","WELLAND-PELHAM","6139449","2021-09-04 12:00","2021","09","04","12:00","22.8","","","M","","M","0.0","","20","","9","","","","99.48","","","","","","NA"
"-79.33","42.97","WELLAND-PELHAM","6139449","2021-09-04 13:00","2021","09","04","13:00","23.0","","","M","","M","0.0","","18","","10","","","","99.40","","","","","","NA"
"-79.33","42.97","WELLAND-PELHAM","6139449","2021-09-04 14:00","2021","09","04","14:00","23.3","","","M","","M","0.0","","16","","10","","","","99.32","","","","","","NA"
"-79.33","42.97","WELLAND-PELHAM","6139449","2021-09-04 15:00","2021","09","04","15:00","23.8","","","M","","M","0.0","","21","","8","","","","99.26","","","","","","NA"
"-79.33","42.97","WELLAND-PELHAM","6139449","2021-09-04 16:00","2021","09","04","16:00","23.4","","","M","","M","0.0","","21","","7","","","","99.22","","","","","","NA"
"-79.33","42.97","WELLAND-PELHAM","6139449","2021-09-04 17:00","2021","09","04","17:00","22.5","","","M","","M","0.0","","23","","5","","","","99.17","","","","","","NA"
"-79.33","42.97","WELLAND-PELHAM","6139449","2021-09-04 18:00","2021","09","04","18:00","21.6","","","M","","M","0.0","","22","","2","","","","99.12","","","","","","NA"
"-79.33","42.97","WELLAND-PELHAM","6139449","2021-09-04 19:00","2021","09","04","19:00","20.7","","","M","","M","0.0","","21","","1","","","","99.08","","","","","","NA"
"-79.33","42.97","WELLAND-PELHAM","6139449","2021-09-04 20:00","2021","09","04","20:00","19.8","","","M","","M","0.0","","17","","1","","","","99.06","","","","","","NA"
"-79.33","42.97","WELLAND-PELHAM","6139449","2021-09-04 21:00","2021","09","04","21:00","19.2","","","M","","M","0.0","","14","","4","","","","98.98","","","","","","NA"
"-79.33","42.97","WELLAND-PELHAM","6139449","2021-09-04 22:00","2021","09","04","22:00","20.1","","","M","","M","0.0","","17","","5","","","","98.90","","","","","","NA"
"-79.33","42.97","WELLAND-PELHAM","6139449","2021-09-04 23:00","2021","09","04","23:00","20.6","","","M","","M","0.0","","18","","6","","","","98.86","","","","","","NA"
"-79.33","42.97","WELLAND-PELHAM","6139449","2021-09-05 00:00","2021","09","05","00:00","19.9","","","M","","M","0.3","","23","","8","","","","98.83","","","","","","NA"
"-79.33","42.97","WELLAND-PELHAM","6139449","2021-09-05 01:00","2021","09","05","01:00","19.2","","","M","","M","1.0","","23","","5","","","","98.79","","","","","","NA"
"-79.33","42.97","WELLAND-PELHAM","6139449","2021-09-05 02:00","2021","09","05","02:00","19.5","","","M","","M","0.8","","20","","12","","","","98.69","","","","","","NA"
"-79.33","42.97","WELLAND-PELHAM","6139449","2021-09-05 03:00","2021","09","05","03:00","19.6","","","M","","M","0.1","","20","","11","","","","98.63","","","","","","NA"
"-79.33","42.97","WELLAND-PELHAM","6139449","2021-09-05 04:00","2021","09","05","04:00","19.6","","","M","","M","0.1","","19","","13","","","","98.55","","","","","","NA"
"-79.33","42.97","WELLAND-PELHAM","6139449","2021-09-05 05:00","2021","09","05","05:00","19.7","","","M","","M","6.3","","26","","8","","","","98.53","","","","","","NA"
"-79.33","42.97","WELLAND-PELHAM","6139449","2021-09-05 06:00","2021","09","05","06:00","19.5","","","M","","M","0.0","","26","","8","","","","98.54","","","","","","NA"
"-79.33","42.97","WELLAND-PELHAM","6139449","2021-09-05 07:00","2021","09","05","07:00","19.3","","","M","","M","0.0","","27","","10","","","","98.60","","","","","","NA"
"-79.33","42.97","WELLAND-PELHAM","6139449","2021-09-05 08:00","2021","09","05","08:00","19.8","","","M","","M","0.0","","26","","7","","","","98.61","","","","","","NA"
"-79.33","42.97","WELLAND-PELHAM","6139449","2021-09-05 09:00","2021","09","05","09:00","20.0","","","M","","M","0.0","","27","","11","","","","98.65","","","","","","NA"
"-79.33","42.97","WELLAND-PELHAM","6139449","2021-09-05 10:00","2021","09","05","10:00","20.7","","","M","","M","0.0","","28","","14","","","","98.67","","","","","","NA"
"-79.33","42.97","WELLAND-PELHAM","6139449","2021-09-05 11:00","2021","09","05","11:00","21.8","","","M","","M","0.0","","28","","13","","","","98.67","","","","","","NA"
"-79.33","42.97","WELLAND-PELHAM","6139449","2021-09-05 12:00","2021","09","05","12:00","22.9","","","M","","M","0.0","","26","","14","","","","98.65","","","","","","NA"
"-79.33","42.97","WELLAND-PELHAM","6139449","2021-09-05 13:00","2021","09","05","13:00","23.4","","","M","","M","0.0","","29","","18","","","","98.63","","","","","","NA"
"-79.33","42.97","WELLAND-PELHAM","6139449","2021-09-05 14:00","2021","09","05","14:00","24.7","","","M","","M","0.0","","28","","21","","","","98.64","","","","","","NA"
"-79.33","42.97","WELLAND-PELHAM","6139449","2021-09-05 15:00","2021","09","05","15:00","24.9","","","M","","M","0.0","","27","","13","","","","98.61","","","","","","NA"
"-79.33","42.97","WELLAND-PELHAM","6139449","2021-09-05 16:00","2021","09","05","16:00","24.7","","","M","","M","0.0","","27","","15","","","","98.62","","","","","","NA"
"-79.33","42.97","WELLAND-PELHAM","6139449","2021-09-05 17:00","2021","09","05","17:00","24.0","","","M","","M","0.0","","27","","16","","","","98.65","","","","","","NA"
"-79.33","42.97","WELLAND-PELHAM","6139449","2021-09-05 18:00","2021","09","05","18:00","22.7","","","M","","M","0.0","","27","","10","","","","98.66","","","","","","NA"
"-79.33","42.97","WELLAND-PELHAM","6139449","2021-09-05 19:00","2021","09","05","19:00","20.4","","","M","","M","0.0","","23","","6","","","","98.68","","","","","","NA"
"-79.33","42.97","WELLAND-PELHAM","6139449","2021-09-05 20:00","2021","09","05","20:00","19.6","","","M","","M","0.0","","23","","4","","","","98.74","","","","","","NA"
"-79.33","42.97","WELLAND-PELHAM","6139449","2021-09-05 21:00","2021","09","05","21:00","19.6","","","M","","M","0.0","","23","","4","","","","98.74","","","","","","NA"
"-79.33","42.97","WELLAND-PELHAM","6139449","2021-09-05 22:00","2021","09","05","22:00","19.8","","","M","","M","0.0","","22","","5","","","","98.72","","","","","","NA"
"-79.33","42.97","WELLAND-PELHAM","6139449","2021-09-05 23:00","2021","09","05","23:00","20.8","","","M","","M","0.0","","22","","5","","","","98.70","","","","","","NA"
"-79.33","42.97","WELLAND-PELHAM","6139449","2021-09-06 00:00","2021","09","06","00:00","18.6","","","M","","M","0.0","","31","","12","","","","98.69","","","","","","NA"
"-79.33","42.97","WELLAND-PELHAM","6139449","2021-09-06 01:00","2021","09","06","01:00","18.2","","","M","","M","0.0","","23","","4","","","","98.71","","","","","","NA"
"-79.33","42.97","WELLAND-PELHAM","6139449","2021-09-06 02:00","2021","09","06","02:00","16.6","","","M","","M","0.0","","18","","2","","","","98.69","","","","","","NA"
"-79.33","42.97","WELLAND-PELHAM","6139449","2021-09-06 03:00","2021","09","06","03:00","14.6","","","M","","M","0.0","","29","","2","","","","98.70","","","","","","NA"
"-79.33","42.97","WELLAND-PELHAM","6139449","2021-09-06 04:00","2021","09","06","04:00","15.9","","","M","","M","0.0","","28","","11","","","","98.73","","","","","","NA"
"-79.33","42.97","WELLAND-PELHAM","6139449","2021-09-06 05:00","2021","09","06","05:00","15.9","","","M","","M","0.0","","28","","10","","","","98.77","","","","","","NA"
"-79.33","42.97","WELLAND-PELHAM","6139449","2021-09-06 06:00","2021","09","06","06:00","15.1","","","M","","M","0.1","","29","","10","","","","98.79","","","","","","NA"
"-79.33","42.97","WELLAND-PELHAM","6139449","2021-09-06 07:00","2021","09","06","07:00","16.6","","","M","","M","0.0","","27","","8","","","","98.84","","","","","","NA"
"-79.33","42.97","WELLAND-PELHAM","6139449","2021-09-06 08:00","2021","09","06","08:00","16.9","","","M","","M","0.0","","29","","14","","","","98.89","","","","","","NA"
"-79.33","42.97","WELLAND-PELHAM","6139449","2021-09-06 09:00","2021","09","06","09:00","18.8","","","M","","M","0.0","","30","","22","","","","98.92","","","","","","NA"
"-79.33","42.97","WELLAND-PELHAM","6139449","2021-09-06 10:00","2021","09","06","10:00","20.1","","","M","","M","0.0","","29","","21","","","","98.97","","","","","","NA"
"-79.33","42.97","WELLAND-PELHAM","6139449","2021-09-06 11:00","2021","09","06","11:00","21.0","","","M","","M","0.0","","28","","23","","","","99.00","","","","","","NA"
"-79.33","42.97","WELLAND-PELHAM","6139449","2021-09-06 12:00","2021","09","06","12:00","21.9","","","M","","M","0.0","","30","","23","","","","99.01","","","","","","NA"
"-79.33","42.97","WELLAND-PELHAM","6139449","2021-09-06 13:00","2021","09","06","13:00","22.4","","","M","","M","0.0","","28","","19","","","","99.02","","","","","","NA"
"-79.33","42.97","WELLAND-PELHAM","6139449","2021-09-06 14:00","2021","09","06","14:00","22.0","","","M","","M","0.0","","28","","18","","","","98.99","","","","","","NA"
"-79.33","42.97","WELLAND-PELHAM","6139449","2021-09-06 15:00","2021","09","06","15:00","21.2","","","M","","M","0.0","","28","","15","","","","98.96","","","","","","NA"
"-79.33","42.97","WELLAND-PELHAM","6139449","2021-09-06 16:00","2021","09","06","16:00","22.1","","","M","","M","0.0","","27","","17","","","","99.00","","","","","","NA"
"-79.33","42.97","WELLAND-PELHAM","6139449","2021-09-06 17:00","2021","09","06","17:00","21.2","","","M","","M","0.0","","28","","16","","","","99.04","","","","","","NA"
"-79.33","42.97","WELLAND-PELHAM","6139449","2021-09-06 18:00","2021","09","06","18:00","20.2","","","M","","M","0.0","","29","","12","","","","99.08","","","","","","NA"
"-79.33","42.97","WELLAND-PELHAM","6139449","2021-09-06 19:00","2021","09","06","19:00","17.5","","","M","","M","0.0","","27","","7","","","","99.11","","","","","","NA"
"-79.33","42.97","WELLAND-PELHAM","6139449","2021-09-06 20:00","2021","09","06","20:00","16.4","","","M","","M","0.0","","26","","6","","","","99.15","","","","","","NA"
"-79.33","42.97","WELLAND-PELHAM","6139449","2021-09-06 21:00","2021","09","06","21:00","14.6","","","M","","M","0.0","","30","","9","","","","99.22","","","","","","NA"
"-79.33","42.97","WELLAND-PELHAM","6139449","2021-09-06 22:00","2021","09","06","22:00","12.9","","","M","","M","0.0","","32","","2","","","","99.23","","","","","","NA"
"-79.33","42.97","WELLAND-PELHAM","6139449","2021-09-06 23:00","2021","09","06","23:00","12.2","","","M","","M","0.0","","24","","4","","","","99.26","","","","","","NA"
"-79.33","42.97","WELLAND-PELHAM","6139449","2021-09-07 00:00","2021","09","07","00:00","11.7","","","M","","M","0.0","","","","0","","","","99.29","","","","","","NA"
"-79.33","42.97","WELLAND-PELHAM","6139449","2021-09-07 01:00","2021","09","07","01:00","11.0","","","M","","M","0.0","","","","0","","","","99.29","","","","","","NA"
"-79.33","42.97","WELLAND-PELHAM","6139449","2021-09-07 02:00","2021","09","07","02:00","10.6","","","M","","M","0.0","","","","0","","","","99.26","","","","","","NA"
"-79.33","42.97","WELLAND-PELHAM","6139449","2021-09-07 03:00","2021","09","07","03:00","10.3","","","M","","M","0.0","","","","0","","","","99.24","","","","","","NA"
"-79.33","42.97","WELLAND-PELHAM","6139449","2021-09-07 04:00","2021","09","07","04:00","9.4","","","M","","M","0.0","","","","0","","","","99.25","","","","","","NA"
"-79.33","42.97","WELLAND-PELHAM","6139449","2021-09-07 05:00","2021","09","07","05:00","9.7","","","M","","M","0.0","","","","0","","","","99.27","","","","","","NA"
"-79.33","42.97","WELLAND-PELHAM","6139449","2021-09-07 06:00","2021","09","07","06:00","9.7","","","M","","M","0.0","","10","","1","","","","99.30","","","","","","NA"
"-79.33","42.97","WELLAND-PELHAM","6139449","2021-09-07 07:00","2021","09","07","07:00","13.2","","","M","","M","0.0","","0","","1","","","","99.29","","","","","","NA"
"-79.33","42.97","WELLAND-PELHAM","6139449","2021-09-07 08:00","2021","09","07","08:00","18.5","","","M","","M","0.0","","15","","2","","","","99.27","","","","","","NA"
"-79.33","42.97","WELLAND-PELHAM","6139449","2021-09-07 09:00","2021","09","07","09:00","21.2","","","M","","M","0.0","","18","","11","","","","99.29","","","","","","NA"
"-79.33","42.97","WELLAND-PELHAM","6139449","2021-09-07 10:00","2021","09","07","10:00","21.9","","","M","","M","0.0","","20","","11","","","","99.23","","","","","","NA"
"-79.33","42.97","WELLAND-PELHAM","6139449","2021-09-07 11:00","2021","09","07","11:00","22.5","","","M","","M","0.0","","19","","14","","","","99.19","","","","","","NA"
"-79.33","42.97","WELLAND-PELHAM","6139449","2021-09-07 12:00","2021","09","07","12:00","23.7","","","M","","M","0.0","","19","","15","","","","99.13","","","","","","NA"
"-79.33","42.97","WELLAND-PELHAM","6139449","2021-09-07 13:00","2021","09","07","13:00","24.0","","","M","","M","0.0","","19","","17","","","","99.03","","","","","","NA"
"-79.33","42.97","WELLAND-PELHAM","6139449","2021-09-07 14:00","2021","09","07","14:00","24.6","","","M","","M","0.0","","20","","12","","","","98.91","","","","","","NA"
"-79.33","42.97","WELLAND-PELHAM","6139449","2021-09-07 15:00","2021","09","07","15:00","25.4","","","M","","M","0.0","","20","","12","","","","98.83","","","","","","NA"
"-79.33","42.97","WELLAND-PELHAM","6139449","2021-09-07 16:00","2021","09","07","16:00","25.8","","","M","","M","0.0","","18","","12","","","","98.69","","","","","","NA"
"-79.33","42.97","WELLAND-PELHAM","6139449","2021-09-07 17:00","2021","09","07","17:00","24.7","","","M","","M","0.0","","18","","8","","","","98.69","","","","","","NA"
"-79.33","42.97","WELLAND-PELHAM","6139449","2021-09-07 18:00","2021","09","07","18:00","23.2","","","M","","M","0.0","","18","","6","","","","98.71","","","","","","NA"
"-79.33","42.97","WELLAND-PELHAM","6139449","2021-09-07 19:00","2021","09","07","19:00","23.0","","","M","","M","0.0","","19","","5","","","","98.68","","","","","","NA"
"-79.33","42.97","WELLAND-PELHAM","6139449","2021-09-07 20:00","2021","09","07","20:00","17.0","","","M","","M","1.2","","2","","15","","","","98.73","","","","","","NA"
"-79.33","42.97","WELLAND-PELHAM","6139449","2021-09-07 21:00","2021","09","07","21:00","17.1","","","M","","M","0.7","","9","","7","","","","98.73","","","","","","NA"
"-79.33","42.97","WELLAND-PELHAM","6139449","2021-09-07 22:00","2021","09","07","22:00","17.3","","","M","","M","0.0","","9","","8","","","","98.75","","","","","","NA"
"-79.33","42.97","WELLAND-PELHAM","6139449","2021-09-07 23:00","2021","09","07","23:00","17.5","","","M","","M","0.5","","11","","21","","","","98.56","","","","","","NA"
"-79.33","42.97","WELLAND-PELHAM","6139449","2021-09-08 00:00","2021","09","08","00:00","16.7","","","M","","M","7.5","","9","","12","","","","98.55","","","","","","NA"
"-79.33","42.97","WELLAND-PELHAM","6139449","2021-09-08 01:00","2021","09","08","01:00","17.2","","","M","","M","0.1","","12","","9","","","","98.44","","","","","","NA"
"-79.33","42.97","WELLAND-PELHAM","6139449","2021-09-08 02:00","2021","09","08","02:00","21.0","","","M","","M","0.0","","19","","10","","","","98.34","","","","","","NA"
"-79.33","42.97","WELLAND-PELHAM","6139449","2021-09-08 03:00","2021","09","08","03:00","22.7","","","M","","M","0.0","","21","","18","","","","98.29","","","","","","NA"
"-79.33","42.97","WELLAND-PELHAM","6139449","2021-09-08 04:00","2021","09","08","04:00","21.5","","","M","","M","0.0","","25","","17","","","","98.33","","","","","","NA"
"-79.33","42.97","WELLAND-PELHAM","6139449","2021-09-08 05:00","2021","09","08","05:00","17.6","","","M","","M","9.7","","29","","7","","","","98.40","","","","","","NA"
"-79.33","42.97","WELLAND-PELHAM","6139449","2021-09-08 06:00","2021","09","08","06:00","17.4","","","M","","M","7.5","","","","0","","","","98.32","","","","","","NA"
"-79.33","42.97","WELLAND-PELHAM","6139449","2021-09-08 07:00","2021","09","08","07:00","17.6","","","M","","M","1.2","","17","","4","","","","98.42","","","","","","NA"
"-79.33","42.97","WELLAND-PELHAM","6139449","2021-09-08 08:00","2021","09","08","08:00","18.0","","","M","","M","1.0","","23","","6","","","","98.46","","","","","","NA"
"-79.33","42.97","WELLAND-PELHAM","6139449","2021-09-08 09:00","2021","09","08","09:00","19.1","","","M","","M","0.0","","25","","6","","","","98.44","","","","","","NA"
"-79.33","42.97","WELLAND-PELHAM","6139449","2021-09-08 10:00","2021","09","08","10:00","21.3","","","M","","M","0.0","","26","","10","","","","98.47","","","","","","NA"
"-79.33","42.97","WELLAND-PELHAM","6139449","2021-09-08 11:00","2021","09","08","11:00","21.9","","","M","","M","0.0","","21","","14","","","","98.48","","","","","","NA"
"-79.33","42.97","WELLAND-PELHAM","6139449","2021-09-08 12:00","2021","09","08","12:00","23.0","","","M","","M","0.0","","20","","15","","","","98.48","","","","","","NA"
"-79.33","42.97","WELLAND-PELHAM","6139449","2021-09-08 13:00","2021","09","08","13:00","23.6","","","M","","M","0.0","","21","","13","","","","98.49","","","","","","NA"
"-79.33","42.97","WELLAND-PELHAM","6139449","2021-09-08 14:00","2021","09","08","14:00","23.5","","","M","","M","0.0","","21","","16","","","","98.45","","","","","","NA"
"-79.33","42.97","WELLAND-PELHAM","6139449","2021-09-08 15:00","2021","09","08","15:00","24.2","","","M","","M","0.0","","25","","16","","","","98.43","","","","","","NA"
"-79.33","42.97","WELLAND-PELHAM","6139449","2021-09-08 16:00","2021","09","08","16:00","23.6","","","M","","M","0.0","","26","","17","","","","98.47","","","","","","NA"
"-79.33","42.97","WELLAND-PELHAM","6139449","2021-09-08 17:00","2021","09","08","17:00","23.3","","","M","","M","0.0","","26","","14","","","","98.50","","","","","","NA"
"-79.33","42.97","WELLAND-PELHAM","6139449","2021-09-08 18:00","2021","09","08","18:00","22.0","","","M","","M","0.0","","24","","11","","","","98.55","","","","","","NA"
"-79.33","42.97","WELLAND-PELHAM","6139449","2021-09-08 19:00","2021","09","08","19:00","20.7","","","M","","M","0.0","","25","","8","","","","98.56","","","","","","NA"
"-79.33","42.97","WELLAND-PELHAM","6139449","2021-09-08 20:00","2021","09","08","20:00","20.0","","","M","","M","0.0","","25","","7","","","","98.60","","","","","","NA"
"-79.33","42.97","WELLAND-PELHAM","6139449","2021-09-08 21:00","2021","09","08","21:00","19.3","","","M","","M","0.0","","24","","4","","","","98.64","","","","","","NA"
"-79.33","42.97","WELLAND-PELHAM","6139449","2021-09-08 22:00","2021","09","08","22:00","18.7","","","M","","M","0.0","","24","","3","","","","98.60","","","","","","NA"
"-79.33","42.97","WELLAND-PELHAM","6139449","2021-09-08 23:00","2021","09","08","23:00","16.5","","","M","","M","0.0","","29","","8","","","","98.63","","","","","","NA"
"-79.33","42.97","WELLAND-PELHAM","6139449","2021-09-09 00:00","2021","09","09","00:00","15.5","","","M","","M","0.0","","24","","3","","","","98.65","","","","","","NA"
"-79.33","42.97","WELLAND-PELHAM","6139449","2021-09-09 01:00","2021","09","09","01:00","13.8","","","M","","M","0.0","","26","","4","","","","98.67","","","","","","NA"
"-79.33","42.97","WELLAND-PELHAM","6139449","2021-09-09 02:00","2021","09","09","02:00","13.6","","","M","","M","0.0","","26","","6","","","","98.70","","","","","","NA"
"-79.33","42.97","WELLAND-PELHAM","6139449","2021-09-09 03:00","2021","09","09","03:00","13.1","","","M","","M","0.0","","26","","4","","","","98.73","","","","","","NA"
"-79.33","42.97","WELLAND-PELHAM","6139449","2021-09-09 04:00","2021","09","09","04:00","13.5","","","M","","M","0.0","","21","","5","","","","98.78","","","","","","NA"
"-79.33","42.97","WELLAND-PELHAM","6139449","2021-09-09 05:00","2021","09","09","05:00","11.7","","","M","","M","0.0","","26","","3","","","","98.78","","","","","","NA"
"-79.33","42.97","WELLAND-PELHAM","6139449","2021-09-09 06:00","2021","09","09","06:00","11.4","","","M","","M","0.0","","29","","2","","","","98.82","","","","","","NA"
"-79.33","42.97","WELLAND-PELHAM","6139449","2021-09-09 07:00","2021","09","09","07:00","14.3","","","M","","M","0.0","","28","","7","","","","98.87","","","","","","NA"
"-79.33","42.97","WELLAND-PELHAM","6139449","2021-09-09 08:00","2021","09","09","08:00","16.2","","","M","","M","0.0","","29","","13","","","","98.87","","","","","","NA"
"-79.33","42.97","WELLAND-PELHAM","6139449","2021-09-09 09:00","2021","09","09","09:00","18.2","","","M","","M","0.0","","29","","16","","","","98.91","","","","","","NA"
"-79.33","42.97","WELLAND-PELHAM","6139449","2021-09-09 10:00","2021","09","09","10:00","19.0","","","M","","M","0.0","","27","","12","","","","98.94","","","","","","NA"
"-79.33","42.97","WELLAND-PELHAM","6139449","2021-09-09 11:00","2021","09","09","11:00","19.5","","","M","","M","0.0","","28","","16","","","","98.92","","","","","","NA"
"-79.33","42.97","WELLAND-PELHAM","6139449","2021-09-09 12:00","2021","09","09","12:00","20.2","","","M","","M","0.0","","28","","14","","","","98.90","","","","","","NA"
"-79.33","42.97","WELLAND-PELHAM","6139449","2021-09-09 13:00","2021","09","09","13:00","20.1","","","M","","M","0.0","","23","","13","","","","98.90","","","","","","NA"
"-79.33","42.97","WELLAND-PELHAM","6139449","2021-09-09 14:00","2021","09","09","14:00","19.7","","","M","","M","0.0","","23","","10","","","","98.89","","","","","","NA"
"-79.33","42.97","WELLAND-PELHAM","6139449","2021-09-09 15:00","2021","09","09","15:00","16.0","","","M","","M","7.7","","33","","2","","","","98.93","","","","","","NA"
"-79.33","42.97","WELLAND-PELHAM","6139449","2021-09-09 16:00","2021","09","09","16:00","15.6","","","M","","M","0.0","","19","","5","","","","98.98","","","","","","NA"
"-79.33","42.97","WELLAND-PELHAM","6139449","2021-09-09 17:00","2021","09","09","17:00","16.8","","","M","","M","0.0","","26","","7","","","","99.00","","","","","","NA"
"-79.33","42.97","WELLAND-PELHAM","6139449","2021-09-09 18:00","2021","09","09","18:00","16.7","","","M","","M","0.0","","28","","10","","","","99.05","","","","","","NA"
"-79.33","42.97","WELLAND-PELHAM","6139449","2021-09-09 19:00","2021","09","09","19:00","15.6","","","M","","M","0.5","","29","","11","","","","99.08","","","","","","NA"
"-79.33","42.97","WELLAND-PELHAM","6139449","2021-09-09 20:00","2021","09","09","20:00","14.5","","","M","","M","0.0","","29","","11","","","","99.11","","","","","","NA"
"-79.33","42.97","WELLAND-PELHAM","6139449","2021-09-09 21:00","2021","09","09","21:00","13.1","","","M","","M","0.0","","32","","7","","","","99.18","","","","","","NA"
"-79.33","42.97","WELLAND-PELHAM","6139449","2021-09-09 22:00","2021","09","09","22:00","11.7","","","M","","M","0.0","","31","","5","","","","99.25","","","","","","NA"
"-79.33","42.97","WELLAND-PELHAM","6139449","2021-09-09 23:00","2021","09","09","23:00","11.3","","","M","","M","0.0","","30","","5","","","","99.29","","","","","","NA"
"-79.33","42.97","WELLAND-PELHAM","6139449","2021-09-10 00:00","2021","09","10","00:00","10.7","","","M","","M","0.0","","30","","5","","","","99.31","","","","","","NA"
"-79.33","42.97","WELLAND-PELHAM","6139449","2021-09-10 01:00","2021","09","10","01:00","11.1","","","M","","M","0.0","","28","","5","","","","99.32","","","","","","NA"
"-79.33","42.97","WELLAND-PELHAM","6139449","2021-09-10 02:00","2021","09","10","02:00","10.9","","","M","","M","0.0","","29","","11","","","","99.34","","","","","","NA"
"-79.33","42.97","WELLAND-PELHAM","6139449","2021-09-10 03:00","2021","09","10","03:00","10.6","","","M","","M","0.0","","28","","6","","","","99.36","","","","","","NA"
"-79.33","42.97","WELLAND-PELHAM","6139449","2021-09-10 04:00","2021","09","10","04:00","9.6","","","M","","M","0.0","","27","","5","","","","99.39","","","","","","NA"
"-79.33","42.97","WELLAND-PELHAM","6139449","2021-09-10 05:00","2021","09","10","05:00","9.7","","","M","","M","0.0","","28","","4","","","","99.45","","","","","","NA"
"-79.33","42.97","WELLAND-PELHAM","6139449","2021-09-10 06:00","2021","09","10","06:00","10.2","","","M","","M","0.0","","28","","4","","","","99.53","","","","","","NA"
"-79.33","42.97","WELLAND-PELHAM","6139449","2021-09-10 07:00","2021","09","10","07:00","11.5","","","M","","M","0.0","","27","","5","","","","99.60","","","","","","NA"
"-79.33","42.97","WELLAND-PELHAM","6139449","2021-09-10 08:00","2021","09","10","08:00","13.8","","","M","","M","0.0","","29","","9","","","","99.61","","","","","","NA"
"-79.33","42.97","WELLAND-PELHAM","6139449","2021-09-10 09:00","2021","09","10","09:00","16.3","","","M","","M","0.0","","30","","10","","","","99.65","","","","","","NA"
"-79.33","42.97","WELLAND-PELHAM","6139449","2021-09-10 10:00","2021","09","10","10:00","18.3","","","M","","M","0.0","","30","","9","","","","99.67","","","","","","NA"
"-79.33","42.97","WELLAND-PELHAM","6139449","2021-09-10 11:00","2021","09","10","11:00","19.6","","","M","","M","0.0","","24","","7","","","","99.66","","","","","","NA"
"-79.33","42.97","WELLAND-PELHAM","6139449","2021-09-10 12:00","2021","09","10","12:00","20.4","","","M","","M","0.0","","30","","7","","","","99.66","","","","","","NA"
"-79.33","42.97","WELLAND-PELHAM","6139449","2021-09-10 13:00","2021","09","10","13:00","20.7","","","M","","M","0.0","","26","","12","","","","99.64","","","","","","NA"
"-79.33","42.97","WELLAND-PELHAM","6139449","2021-09-10 14:00","2021","09","10","14:00","21.6","","","M","","M","0.0","","30","","11","","","","99.61","","","","","","NA"
"-79.33","42.97","WELLAND-PELHAM","6139449","2021-09-10 15:00","2021","09","10","15:00","22.1","","","M","","M","0.0","","24","","9","","","","99.56","","","","","","NA"
"-79.33","42.97","WELLAND-PELHAM","6139449","2021-09-10 16:00","2021","09","10","16:00","19.9","","","M","","M","0.0","","22","","9","","","","99.56","","","","","","NA"
"-79.33","42.97","WELLAND-PELHAM","6139449","2021-09-10 17:00","2021","09","10","17:00","20.7","","","M","","M","0.0","","22","","12","","","","99.57","","","","","","NA"
"-79.33","42.97","WELLAND-PELHAM","6139449","2021-09-10 18:00","2021","09","10","18:00","19.7","","","M","","M","0.0","","24","","8","","","","99.57","","","","","","NA"
"-79.33","42.97","WELLAND-PELHAM","6139449","2021-09-10 19:00","2021","09","10","19:00","17.8","","","M","","M","0.0","","23","","4","","","","99.58","","","","","","NA"
"-79.33","42.97","WELLAND-PELHAM","6139449","2021-09-10 20:00","2021","09","10","20:00","14.9","","","M","","M","0.0","","25","","3","","","","99.64","","","","","","NA"
"-79.33","42.97","WELLAND-PELHAM","6139449","2021-09-10 21:00","2021","09","10","21:00","14.0","","","M","","M","0.0","","29","","6","","","","99.68","","","","","","NA"
"-79.33","42.97","WELLAND-PELHAM","6139449","2021-09-10 22:00","2021","09","10","22:00","12.7","","","M","","M","0.0","","27","","4","","","","99.72","","","","","","NA"
"-79.33","42.97","WELLAND-PELHAM","6139449","2021-09-10 23:00","2021","09","10","23:00","12.2","","","M","","M","0.0","","29","","1","","","","99.75","","","","","","NA"
"-79.33","42.97","WELLAND-PELHAM","6139449","2021-09-11 00:00","2021","09","11","00:00","11.6","","","M","","M","0.0","","","","0","","","","99.77","","","","","","NA"
"-79.33","42.97","WELLAND-PELHAM","6139449","2021-09-11 01:00","2021","09","11","01:00","10.9","","","M","","M","0.0","","","","0","","","","99.76","","","","","","NA"
"-79.33","42.97","WELLAND-PELHAM","6139449","2021-09-11 02:00","2021","09","11","02:00","10.9","","","M","","M","0.0","","0","","1","","","","99.75","","","","","","NA"
"-79.33","42.97","WELLAND-PELHAM","6139449","2021-09-11 03:00","2021","09","11","03:00","11.0","","","M","","M","0.0","","","","0","","","","99.72","","","","","","NA"
"-79.33","42.97","WELLAND-PELHAM","6139449","2021-09-11 04:00","2021","09","11","04:00","11.4","","","M","","M","0.0","","","","0","","","","99.73","","","","","","NA"
"-79.33","42.97","WELLAND-PELHAM","6139449","2021-09-11 05:00","2021","09","11","05:00","12.4","","","M","","M","0.0","","","","0","","","","99.74","","","","","","NA"
"-79.33","42.97","WELLAND-PELHAM","6139449","2021-09-11 06:00","2021","09","11","06:00","14.5","","","M","","M","0.0","","18","","3","","","","99.78","","","","","","NA"
"-79.33","42.97","WELLAND-PELHAM","6139449","2021-09-11 07:00","2021","09","11","07:00","18.4","","","M","","M","0.0","","21","","7","","","","99.78","","","","","","NA"
"-79.33","42.97","WELLAND-PELHAM","6139449","2021-09-11 08:00","2021","09","11","08:00","20.3","","","M","","M","0.0","","21","","11","","","","99.76","","","","","","NA"
"-79.33","42.97","WELLAND-PELHAM","6139449","2021-09-11 09:00","2021","09","11","09:00","21.3","","","M","","M","0.0","","22","","14","","","","99.76","","","","","","NA"
"-79.33","42.97","WELLAND-PELHAM","6139449","2021-09-11 10:00","2021","09","11","10:00","22.1","","","M","","M","0.0","","23","","13","","","","99.74","","","","","","NA"
"-79.33","42.97","WELLAND-PELHAM","6139449","2021-09-11 11:00","2021","09","11","11:00","22.4","","","M","","M","0.0","","23","","16","","","","99.71","","","","","","NA"
"-79.33","42.97","WELLAND-PELHAM","6139449","2021-09-11 12:00","2021","09","11","12:00","23.2","","","M","","M","0.0","","21","","16","","","","99.64","","","","","","NA"
"-79.33","42.97","WELLAND-PELHAM","6139449","2021-09-11 13:00","2021","09","11","13:00","23.2","","","M","","M","0.0","","21","","21","","","","99.63","","","","","","NA"
"-79.33","42.97","WELLAND-PELHAM","6139449","2021-09-11 14:00","2021","09","11","14:00","23.6","","","M","","M","0.0","","22","","21","","","","99.55","","","","","","NA"
"-79.33","42.97","WELLAND-PELHAM","6139449","2021-09-11 15:00","2021","09","11","15:00","23.8","","","M","","M","0.0","","22","","20","","","","99.46","","","","","","NA"
"-79.33","42.97","WELLAND-PELHAM","6139449","2021-09-11 16:00","2021","09","11","16:00","23.7","","","M","","M","0.0","","21","","16","","","","99.38","","","","","","NA"
"-79.33","42.97","WELLAND-PELHAM","6139449","2021-09-11 17:00","2021","09","11","17:00","23.1","","","M","","M","0.0","","21","","13","","","","99.33","","","","","","NA"
"-79.33","42.97","WELLAND-PELHAM","6139449","2021-09-11 18:00","2021","09","11","18:00","22.8","","","M","","M","0.0","","20","","16","","","","99.28","","","","","","NA"
"-79.33","42.97","WELLAND-PELHAM","6139449","2021-09-11 19:00","2021","09","11","19:00","22.5","","","M","","M","0.0","","20","","16","","","","99.25","","","","","","NA"
"-79.33","42.97","WELLAND-PELHAM","6139449","2021-09-11 20:00","2021","09","11","20:00","22.0","","","M","","M","0.0","","20","","15","","","","99.28","","","","","","NA"
"-79.33","42.97","WELLAND-PELHAM","6139449","2021-09-11 21:00","2021","09","11","21:00","22.1","","","M","","M","0.0","","20","","18","","","","99.28","","","","","","NA"
"-79.33","42.97","WELLAND-PELHAM","6139449","2021-09-11 22:00","2021","09","11","22:00","22.4","","","M","","M","0.0","","21","","17","","","","99.30","","","","","","NA"
"-79.33","42.97","WELLAND-PELHAM","6139449","2021-09-11 23:00","2021","09","11","23:00","22.3","","","M","","M","0.0","","22","","18","","","","99.28","","","","","","NA"
"-79.33","42.97","WELLAND-PELHAM","6139449","2021-09-12 00:00","2021","09","12","00:00","22.3","","","M","","M","0.0","","23","","19","","","","99.27","","","","","","NA"
"-79.33","42.97","WELLAND-PELHAM","6139449","2021-09-12 01:00","2021","09","12","01:00","22.1","","","M","","M","0.0","","23","","17","","","","99.27","","","","","","NA"
"-79.33","42.97","WELLAND-PELHAM","6139449","2021-09-12 02:00","2021","09","12","02:00","22.0","","","M","","M","0.0","","23","","18","","","","99.23","","","","","","NA"
"-79.33","42.97","WELLAND-PELHAM","6139449","2021-09-12 03:00","2021","09","12","03:00","21.9","","","M","","M","0.0","","24","","17","","","","99.22","","","","","","NA"
"-79.33","42.97","WELLAND-PELHAM","6139449","2021-09-12 04:00","2021","09","12","04:00","21.7","","","M","","M","0.0","","25","","13","","","","99.24","","","","","","NA"
"-79.33","42.97","WELLAND-PELHAM","6139449","2021-09-12 05:00","2021","09","12","05:00","21.8","","","M","","M","0.0","","25","","15","","","","99.30","","","","","","NA"
"-79.33","42.97","WELLAND-PELHAM","6139449","2021-09-12 06:00","2021","09","12","06:00","21.7","","","M","","M","0.0","","24","","14","","","","99.35","","","","","","NA"
"-79.33","42.97","WELLAND-PELHAM","6139449","2021-09-12 07:00","2021","09","12","07:00","21.8","","","M","","M","0.0","","24","","13","","","","99.39","","","","","","NA"
"-79.33","42.97","WELLAND-PELHAM","6139449","2021-09-12 08:00","2021","09","12","08:00","22.2","","","M","","M","0.0","","23","","11","","","","99.38","","","","","","NA"
"-79.33","42.97","WELLAND-PELHAM","6139449","2021-09-12 09:00","2021","09","12","09:00","22.3","","","M","","M","0.0","","24","","15","","","","99.43","","","","","","NA"
"-79.33","42.97","WELLAND-PELHAM","6139449","2021-09-12 10:00","2021","09","12","10:00","22.6","","","M","","M","0.0","","23","","12","","","","99.41","","","","","","NA"
"-79.33","42.97","WELLAND-PELHAM","6139449","2021-09-12 11:00","2021","09","12","11:00","23.0","","","M","","M","0.0","","25","","11","","","","99.45","","","","","","NA"
"-79.33","42.97","WELLAND-PELHAM","6139449","2021-09-12 12:00","2021","09","12","12:00","22.2","","","M","","M","0.1","","25","","12","","","","99.45","","","","","","NA"
"-79.33","42.97","WELLAND-PELHAM","6139449","2021-09-12 13:00","2021","09","12","13:00","22.6","","","M","","M","0.0","","23","","11","","","","99.42","","","","","","NA"
"-79.33","42.97","WELLAND-PELHAM","6139449","2021-09-12 14:00","2021","09","12","14:00","21.9","","","M","","M","0.0","","24","","10","","","","99.42","","","","","","NA"
"-79.33","42.97","WELLAND-PELHAM","6139449","2021-09-12 15:00","2021","09","12","15:00","21.5","","","M","","M","1.4","","24","","5","","","","99.37","","","","","","NA"
"-79.33","42.97","WELLAND-PELHAM","6139449","2021-09-12 16:00","2021","09","12","16:00","21.7","","","M","","M","0.0","","25","","7","","","","99.32","","","","","","NA"
"-79.33","42.97","WELLAND-PELHAM","6139449","2021-09-12 17:00","2021","09","12","17:00","21.6","","","M","","M","0.0","","33","","4","","","","99.33","","","","","","NA"
"-79.33","42.97","WELLAND-PELHAM","6139449","2021-09-12 18:00","2021","09","12","18:00","21.2","","","M","","M","0.0","","35","","3","","","","99.40","","","","","","NA"
"-79.33","42.97","WELLAND-PELHAM","6139449","2021-09-12 19:00","2021","09","12","19:00","20.6","","","M","","M","0.0","","34","","10","","","","99.49","","","","","","NA"
"-79.33","42.97","WELLAND-PELHAM","6139449","2021-09-12 20:00","2021","09","12","20:00","19.4","","","M","","M","0.0","","17","","4","","","","99.43","","","","","","NA"
"-79.33","42.97","WELLAND-PELHAM","6139449","2021-09-12 21:00","2021","09","12","21:00","19.6","","","M","","M","0.0","","25","","5","","","","99.49","","","","","","NA"
"-79.33","42.97","WELLAND-PELHAM","6139449","2021-09-12 22:00","2021","09","12","22:00","19.5","","","M","","M","0.0","","25","","1","","","","99.48","","","","","","NA"
"-79.33","42.97","WELLAND-PELHAM","6139449","2021-09-12 23:00","2021","09","12","23:00","19.4","","","M","","M","10.5","","29","","16","","","","99.75","","","","","","NA"
"-79.33","42.97","WELLAND-PELHAM","6139449","2021-09-13 00:00","2021","09","13","00:00","17.3","","","M","","M","20.1","","28","","21","","","","99.66","","","","","","NA"
"-79.33","42.97","WELLAND-PELHAM","6139449","2021-09-13 01:00","2021","09","13","01:00","16.7","","","M","","M","0.0","","30","","6","","","","99.66","","","","","","NA"
"-79.33","42.97","WELLAND-PELHAM","6139449","2021-09-13 02:00","2021","09","13","02:00","16.4","","","M","","M","0.0","","30","","1","","","","99.67","","","","","","NA"
"-79.33","42.97","WELLAND-PELHAM","6139449","2021-09-13 03:00","2021","09","13","03:00","15.0","","","M","","M","0.0","","26","","1","","","","99.67","","","","","","NA"
"-79.33","42.97","WELLAND-PELHAM","6139449","2021-09-13 04:00","2021","09","13","04:00","14.5","","","M","","M","0.0","","26","","3","","","","99.70","","","","","","NA"
"-79.33","42.97","WELLAND-PELHAM","6139449","2021-09-13 05:00","2021","09","13","05:00","13.7","","","M","","M","0.0","","32","","4","","","","99.76","","","","","","NA"
"-79.33","42.97","WELLAND-PELHAM","6139449","2021-09-13 06:00","2021","09","13","06:00","13.2","","","M","","M","0.0","","33","","3","","","","99.81","","","","","","NA"
"-79.33","42.97","WELLAND-PELHAM","6139449","2021-09-13 07:00","2021","09","13","07:00","14.0","","","M","","M","0.0","","30","","6","","","","99.88","","","","","","NA"
"-79.33","42.97","WELLAND-PELHAM","6139449","2021-09-13 08:00","2021","09","13","08:00","17.0","","","M","","M","0.0","","32","","4","","","","99.89","","","","","","NA"
"-79.33","42.97","WELLAND-PELHAM","6139449","2021-09-13 09:00","2021","09","13","09:00","18.5","","","M","","M","0.0","","35","","5","","","","99.92","","","","","","NA"
"-79.33","42.97","WELLAND-PELHAM","6139449","2021-09-13 10:00","2021","09","13","10:00","19.1","","","M","","M","0.0","","31","","6","","","","100.00","","","","","","NA"
"-79.33","42.97","WELLAND-PELHAM","6139449","2021-09-13 11:00","2021","09","13","11:00","20.1","","","M","","M","0.0","","10","","5","","","","99.80","","","","","","NA"
"-79.33","42.97","WELLAND-PELHAM","6139449","2021-09-13 12:00","2021","09","13","12:00","20.6","","","M","","M","0.0","","28","","2","","","","99.81","","","","","","NA"
"-79.33","42.97","WELLAND-PELHAM","6139449","2021-09-13 13:00","2021","09","13","13:00","21.7","","","M","","M","0.0","","21","","7","","","","99.79","","","","","","NA"
"-79.33","42.97","WELLAND-PELHAM","6139449","2021-09-13 14:00","2021","09","13","14:00","22.5","","","M","","M","0.0","","28","","10","","","","99.79","","","","","","NA"
"-79.33","42.97","WELLAND-PELHAM","6139449","2021-09-13 15:00","2021","09","13","15:00","22.3","","","M","","M","0.0","","28","","9","","","","99.82","","","","","","NA"
"-79.33","42.97","WELLAND-PELHAM","6139449","2021-09-13 16:00","2021","09","13","16:00","20.9","","","M","","M","0.0","","28","","16","","","","99.95","","","","","","NA"
"-79.33","42.97","WELLAND-PELHAM","6139449","2021-09-13 17:00","2021","09","13","17:00","17.5","","","M","","M","2.0","","15","","19","","","","99.37","","","","","","NA"
"-79.33","42.97","WELLAND-PELHAM","6139449","2021-09-13 18:00","2021","09","13","18:00","17.0","","","M","","M","0.0","","27","","5","","","","99.63","","","","","","NA"
"-79.33","42.97","WELLAND-PELHAM","6139449","2021-09-13 19:00","2021","09","13","19:00","16.4","","","M","","M","0.0","","28","","5","","","","99.69","","","","","","NA"
"-79.33","42.97","WELLAND-PELHAM","6139449","2021-09-13 20:00","2021","09","13","20:00","16.6","","","M","","M","0.0","","29","","4","","","","99.80","","","","","","NA"
"-79.33","42.97","WELLAND-PELHAM","6139449","2021-09-13 21:00","2021","09","13","21:00","16.0","","","M","","M","23.7","","3","","7","","","","99.74","","","","","","NA"
"-79.33","42.97","WELLAND-PELHAM","6139449","2021-09-13 22:00","2021","09","13","22:00","16.3","","","M","","M","8.6","","0","","1","","","","99.76","","","","","","NA"
"-79.33","42.97","WELLAND-PELHAM","6139449","2021-09-13 23:00","2021","09","13","23:00","16.5","","","M","","M","0.2","","14","","4","","","","99.71","","","","","","NA"
"-79.33","42.97","WELLAND-PELHAM","6139449","2021-09-14 00:00","2021","09","14","00:00","16.3","","","M","","M","4.2","","17","","8","","","","99.63","","","","","","NA"
"-79.33","42.97","WELLAND-PELHAM","6139449","2021-09-14 01:00","2021","09","14","01:00","16.4","","","M","","M","3.9","","11","","5","","","","99.61","","","","","","NA"
"-79.33","42.97","WELLAND-PELHAM","6139449","2021-09-14 02:00","2021","09","14","02:00","16.4","","","M","","M","0.0","","11","","5","","","","99.56","","","","","","NA"
"-79.33","42.97","WELLAND-PELHAM","6139449","2021-09-14 03:00","2021","09","14","03:00","16.5","","","M","","M","0.0","","7","","5","","","","99.52","","","","","","NA"
"-79.33","42.97","WELLAND-PELHAM","6139449","2021-09-14 04:00","2021","09","14","04:00","16.6","","","M","","M","0.0","","12","","5","","","","99.45","","","","","","NA"
"-79.33","42.97","WELLAND-PELHAM","6139449","2021-09-14 05:00","2021","09","14","05:00","16.1","","","M","","M","0.0","","8","","6","","","","99.43","","","","","","NA"
"-79.33","42.97","WELLAND-PELHAM","6139449","2021-09-14 06:00","2021","09","14","06:00","15.4","","","M","","M","0.0","","9","","5","","","","99.44","","","","","","NA"
"-79.33","42.97","WELLAND-PELHAM","6139449","2021-09-14 07:00","2021","09","14","07:00","16.2","","","M","","M","0.0","","8","","2","","","","99.44","","","","","","NA"
"-79.33","42.97","WELLAND-PELHAM","6139449","2021-09-14 08:00","2021","09","14","08:00","18.3","","","M","","M","0.0","","12","","4","","","","99.40","","","","","","NA"
"-79.33","42.97","WELLAND-PELHAM","6139449","2021-09-14 09:00","2021","09","14","09:00","22.5","","","M","","M","0.0","","19","","8","","","","99.37","","","","","","NA"
"-79.33","42.97","WELLAND-PELHAM","6139449","2021-09-14 10:00","2021","09","14","10:00","24.1","","","M","","M","0.0","","21","","12","","","","99.33","","","","","","NA"
"-79.33","42.97","WELLAND-PELHAM","6139449","2021-09-14 11:00","2021","09","14","11:00","25.0","","","M","","M","0.0","","21","","13","","","","99.23","","","","","","NA"
"-79.33","42.97","WELLAND-PELHAM","6139449","2021-09-14 12:00","2021","09","14","12:00","25.5","","","M","","M","0.0","","23","","15","","","","99.19","","","","","","NA"
"-79.33","42.97","WELLAND-PELHAM","6139449","2021-09-14 13:00","2021","09","14","13:00","26.1","","","M","","M","0.0","","24","","18","","","","99.14","","","","","","NA"
"-79.33","42.97","WELLAND-PELHAM","6139449","2021-09-14 14:00","2021","09","14","14:00","26.2","","","M","","M","0.0","","22","","12","","","","99.04","","","","","","NA"
"-79.33","42.97","WELLAND-PELHAM","6139449","2021-09-14 15:00","2021","09","14","15:00","27.4","","","M","","M","0.0","","22","","15","","","","98.96","","","","","","NA"
"-79.33","42.97","WELLAND-PELHAM","6139449","2021-09-14 16:00","2021","09","14","16:00","26.2","","","M","","M","0.0","","21","","11","","","","98.88","","","","","","NA"
"-79.33","42.97","WELLAND-PELHAM","6139449","2021-09-14 17:00","2021","09","14","17:00","26.3","","","M","","M","0.0","","20","","13","","","","98.82","","","","","","NA"
"-79.33","42.97","WELLAND-PELHAM","6139449","2021-09-14 18:00","2021","09","14","18:00","25.5","","","M","","M","0.0","","20","","11","","","","98.80","","","","","","NA"
"-79.33","42.97","WELLAND-PELHAM","6139449","2021-09-14 19:00","2021","09","14","19:00","25.5","","","M","","M","0.0","","19","","13","","","","98.78","","","","","","NA"
"-79.33","42.97","WELLAND-PELHAM","6139449","2021-09-14 20:00","2021","09","14","20:00","24.9","","","M","","M","0.0","","19","","15","","","","98.75","","","","","","NA"
"-79.33","42.97","WELLAND-PELHAM","6139449","2021-09-14 21:00","2021","09","14","21:00","25.1","","","M","","M","0.0","","19","","21","","","","98.69","","","","","","NA"
"-79.33","42.97","WELLAND-PELHAM","6139449","2021-09-14 22:00","2021","09","14","22:00","24.8","","","M","","M","0.0","","20","","18","","","","98.70","","","","","","NA"
"-79.33","42.97","WELLAND-PELHAM","6139449","2021-09-14 23:00","2021","09","14","23:00","25.2","","","M","","M","0.0","","20","","20","","","","98.70","","","","","","NA"
"-79.33","42.97","WELLAND-PELHAM","6139449","2021-09-15 00:00","2021","09","15","00:00","19.8","","","M","","M","3.3","","24","","14","","","","98.84","","","","","","NA"
"-79.33","42.97","WELLAND-PELHAM","6139449","2021-09-15 01:00","2021","09","15","01:00","19.3","","","M","","M","2.2","","21","","5","","","","98.83","","","","","","NA"
"-79.33","42.97","WELLAND-PELHAM","6139449","2021-09-15 02:00","2021","09","15","02:00","19.7","","","M","","M","0.8","","21","","9","","","","98.94","","","","","","NA"
"-79.33","42.97","WELLAND-PELHAM","6139449","2021-09-15 03:00","2021","09","15","03:00","20.2","","","M","","M","2.0","","22","","8","","","","98.91","","","","","","NA"
"-79.33","42.97","WELLAND-PELHAM","6139449","2021-09-15 04:00","2021","09","15","04:00","20.1","","","M","","M","3.9","","28","","10","","","","98.84","","","","","","NA"
"-79.33","42.97","WELLAND-PELHAM","6139449","2021-09-15 05:00","2021","09","15","05:00","19.4","","","M","","M","0.0","","22","","5","","","","98.94","","","","","","NA"
"-79.33","42.97","WELLAND-PELHAM","6139449","2021-09-15 06:00","2021","09","15","06:00","19.0","","","M","","M","0.0","","34","","5","","","","98.98","","","","","","NA"
"-79.33","42.97","WELLAND-PELHAM","6139449","2021-09-15 07:00","2021","09","15","07:00","18.2","","","M","","M","0.0","","33","","10","","","","99.08","","","","","","NA"
"-79.33","42.97","WELLAND-PELHAM","6139449","2021-09-15 08:00","2021","09","15","08:00","17.9","","","M","","M","0.0","","33","","5","","","","99.15","","","","","","NA"
"-79.33","42.97","WELLAND-PELHAM","6139449","2021-09-15 09:00","2021","09","15","09:00","18.5","","","M","","M","0.0","","35","","13","","","","99.20","","","","","","NA"
"-79.33","42.97","WELLAND-PELHAM","6139449","2021-09-15 10:00","2021","09","15","10:00","19.1","","","M","","M","0.0","","34","","11","","","","99.27","","","","","","NA"
"-79.33","42.97","WELLAND-PELHAM","6139449","2021-09-15 11:00","2021","09","15","11:00","19.3","","","M","","M","0.0","","36","","9","","","","99.32","","","","","","NA"
"-79.33","42.97","WELLAND-PELHAM","6139449","2021-09-15 12:00","2021","09","15","12:00","20.6","","","M","","M","0.0","","35","","12","","","","99.34","","","","","","NA"
"-79.33","42.97","WELLAND-PELHAM","6139449","2021-09-15 13:00","2021","09","15","13:00","21.5","","","M","","M","0.0","","1","","11","","","","99.33","","","","","","NA"
"-79.33","42.97","WELLAND-PELHAM","6139449","2021-09-15 14:00","2021","09","15","14:00","21.2","","","M","","M","0.0","","36","","11","","","","99.35","","","","","","NA"
"-79.33","42.97","WELLAND-PELHAM","6139449","2021-09-15 15:00","2021","09","15","15:00","21.0","","","M","","M","0.0","","34","","7","","","","99.38","","","","","","NA"
"-79.33","42.97","WELLAND-PELHAM","6139449","2021-09-15 16:00","2021","09","15","16:00","21.0","","","M","","M","0.0","","4","","6","","","","99.41","","","","","","NA"
"-79.33","42.97","WELLAND-PELHAM","6139449","2021-09-15 17:00","2021","09","15","17:00","20.5","","","M","","M","0.0","","4","","5","","","","99.44","","","","","","NA"
"-79.33","42.97","WELLAND-PELHAM","6139449","2021-09-15 18:00","2021","09","15","18:00","19.4","","","M","","M","0.0","","23","","5","","","","99.54","","","","","","NA"
"-79.33","42.97","WELLAND-PELHAM","6139449","2021-09-15 19:00","2021","09","15","19:00","17.9","","","M","","M","0.0","","17","","2","","","","99.60","","","","","","NA"
"-79.33","42.97","WELLAND-PELHAM","6139449","2021-09-15 20:00","2021","09","15","20:00","16.3","","","M","","M","0.0","","8","","1","","","","99.70","","","","","","NA"
"-79.33","42.97","WELLAND-PELHAM","6139449","2021-09-15 21:00","2021","09","15","21:00","15.4","","","M","","M","0.0","","","","0","","","","99.77","","","","","","NA"
"-79.33","42.97","WELLAND-PELHAM","6139449","2021-09-15 22:00","2021","09","15","22:00","15.0","","","M","","M","0.0","","","","0","","","","99.81","","","","","","NA"
"-79.33","42.97","WELLAND-PELHAM","6139449","2021-09-15 23:00","2021","09","15","23:00","14.1","","","M","","M","0.0","","0","","1","","","","99.85","","","","","","NA"
"-79.33","42.97","WELLAND-PELHAM","6139449","2021-09-16 00:00","2021","09","16","00:00","13.4","","","M","","M","0.0","","11","","3","","","","99.88","","","","","","NA"
"-79.33","42.97","WELLAND-PELHAM","6139449","2021-09-16 01:00","2021","09","16","01:00","12.5","","","M","","M","0.0","","8","","4","","","","99.88","","","","","","NA"
"-79.33","42.97","WELLAND-PELHAM","6139449","2021-09-16 02:00","2021","09","16","02:00","12.5","","","M","","M","0.0","","6","","3","","","","99.92","","","","","","NA"
"-79.33","42.97","WELLAND-PELHAM","6139449","2021-09-16 03:00","2021","09","16","03:00","13.2","","","M","","M","0.0","","","","0","","","","99.94","","","","","","NA"
"-79.33","42.97","WELLAND-PELHAM","6139449","2021-09-16 04:00","2021","09","16","04:00","12.4","","","M","","M","0.0","","0","","1","","","","99.99","","","","","","NA"
"-79.33","42.97","WELLAND-PELHAM","6139449","2021-09-16 05:00","2021","09","16","05:00","12.2","","","M","","M","0.0","","36","","3","","","","100.06","","","","","","NA"
"-79.33","42.97","WELLAND-PELHAM","6139449","2021-09-16 06:00","2021","09","16","06:00","11.7","","","M","","M","0.0","","0","","1","","","","100.11","","","","","","NA"
"-79.33","42.97","WELLAND-PELHAM","6139449","2021-09-16 07:00","2021","09","16","07:00","14.3","","","M","","M","0.0","","7","","3","","","","100.18","","","","","","NA"
"-79.33","42.97","WELLAND-PELHAM","6139449","2021-09-16 08:00","2021","09","16","08:00","17.6","","","M","","M","0.0","","8","","6","","","","100.19","","","","","","NA"
"-79.33","42.97","WELLAND-PELHAM","6139449","2021-09-16 09:00","2021","09","16","09:00","19.7","","","M","","M","0.0","","11","","8","","","","100.23","","","","","","NA"
"-79.33","42.97","WELLAND-PELHAM","6139449","2021-09-16 10:00","2021","09","16","10:00","20.9","","","M","","M","0.0","","10","","13","","","","100.24","","","","","","NA"
"-79.33","42.97","WELLAND-PELHAM","6139449","2021-09-16 11:00","2021","09","16","11:00","21.9","","","M","","M","0.0","","11","","11","","","","100.22","","","","","","NA"
"-79.33","42.97","WELLAND-PELHAM","6139449","2021-09-16 12:00","2021","09","16","12:00","22.6","","","M","","M","0.0","","10","","11","","","","100.19","","","","","","NA"
"-79.33","42.97","WELLAND-PELHAM","6139449","2021-09-16 13:00","2021","09","16","13:00","23.6","","","M","","M","0.0","","8","","10","","","","100.16","","","","","","NA"
"-79.33","42.97","WELLAND-PELHAM","6139449","2021-09-16 14:00","2021","09","16","14:00","23.8","","","M","","M","0.0","","4","","12","","","","100.12","","","","","","NA"
"-79.33","42.97","WELLAND-PELHAM","6139449","2021-09-16 15:00","2021","09","16","15:00","23.8","","","M","","M","0.0","","7","","11","","","","100.08","","","","","","NA"
"-79.33","42.97","WELLAND-PELHAM","6139449","2021-09-16 16:00","2021","09","16","16:00","23.8","","","M","","M","0.0","","6","","9","","","","100.08","","","","","","NA"
"-79.33","42.97","WELLAND-PELHAM","6139449","2021-09-16 17:00","2021","09","16","17:00","22.5","","","M","","M","0.0","","4","","13","","","","100.06","","","","","","NA"
"-79.33","42.97","WELLAND-PELHAM","6139449","2021-09-16 18:00","2021","09","16","18:00","20.9","","","M","","M","0.0","","3","","9","","","","100.05","","","","","","NA"
"-79.33","42.97","WELLAND-PELHAM","6139449","2021-09-16 19:00","2021","09","16","19:00","18.1","","","M","","M","0.0","","5","","7","","","","100.06","","","","","","NA"
"-79.33","42.97","WELLAND-PELHAM","6139449","2021-09-16 20:00","2021","09","16","20:00","17.2","","","M","","M","0.0","","7","","7","","","","100.12","","","","","","NA"
"-79.33","42.97","WELLAND-PELHAM","6139449","2021-09-16 21:00","2021","09","16","21:00","16.7","","","M","","M","0.0","","8","","9","","","","100.13","","","","","","NA"
"-79.33","42.97","WELLAND-PELHAM","6139449","2021-09-16 22:00","2021","09","16","22:00","16.0","","","M","","M","0.0","","10","","3","","","","100.10","","","","","","NA"
"-79.33","42.97","WELLAND-PELHAM","6139449","2021-09-16 23:00","2021","09","16","23:00","15.1","","","M","","M","0.0","","9","","4","","","","100.07","","","","","","NA"
"-79.33","42.97","WELLAND-PELHAM","6139449","2021-09-17 00:00","2021","09","17","00:00","14.7","","","M","","M","0.0","","10","","2","","","","100.03","","","","","","NA"
"-79.33","42.97","WELLAND-PELHAM","6139449","2021-09-17 01:00","2021","09","17","01:00","14.3","","","M","","M","0.0","","12","","4","","","","99.99","","","","","","NA"
"-79.33","42.97","WELLAND-PELHAM","6139449","2021-09-17 02:00","2021","09","17","02:00","14.4","","","M","","M","0.0","","8","","2","","","","100.00","","","","","","NA"
"-79.33","42.97","WELLAND-PELHAM","6139449","2021-09-17 03:00","2021","09","17","03:00","13.8","","","M","","M","0.0","","10","","2","","","","100.03","","","","","","NA"
"-79.33","42.97","WELLAND-PELHAM","6139449","2021-09-17 04:00","2021","09","17","04:00","13.9","","","M","","M","0.0","","2","","2","","","","100.07","","","","","","NA"
"-79.33","42.97","WELLAND-PELHAM","6139449","2021-09-17 05:00","2021","09","17","05:00","13.7","","","M","","M","0.0","","8","","3","","","","100.08","","","","","","NA"
"-79.33","42.97","WELLAND-PELHAM","6139449","2021-09-17 06:00","2021","09","17","06:00","13.9","","","M","","M","0.0","","10","","3","","","","100.08","","","","","","NA"
"-79.33","42.97","WELLAND-PELHAM","6139449","2021-09-17 07:00","2021","09","17","07:00","16.8","","","M","","M","0.0","","9","","3","","","","100.07","","","","","","NA"
"-79.33","42.97","WELLAND-PELHAM","6139449","2021-09-17 08:00","2021","09","17","08:00","21.4","","","M","","M","0.0","","16","","6","","","","100.06","","","","","","NA"
"-79.33","42.97","WELLAND-PELHAM","6139449","2021-09-17 09:00","2021","09","17","09:00","22.6","","","M","","M","0.0","","20","","11","","","","100.07","","","","","","NA"
"-79.33","42.97","WELLAND-PELHAM","6139449","2021-09-17 10:00","2021","09","17","10:00","23.4","","","M","","M","0.0","","20","","13","","","","100.11","","","","","","NA"
"-79.33","42.97","WELLAND-PELHAM","6139449","2021-09-17 11:00","2021","09","17","11:00","24.0","","","M","","M","0.0","","21","","10","","","","100.11","","","","","","NA"
"-79.33","42.97","WELLAND-PELHAM","6139449","2021-09-17 12:00","2021","09","17","12:00","24.9","","","M","","M","0.0","","19","","10","","","","100.08","","","","","","NA"
"-79.33","42.97","WELLAND-PELHAM","6139449","2021-09-17 13:00","2021","09","17","13:00","25.9","","","M","","M","0.0","","19","","12","","","","100.00","","","","","","NA"
"-79.33","42.97","WELLAND-PELHAM","6139449","2021-09-17 14:00","2021","09","17","14:00","26.0","","","M","","M","0.0","","19","","13","","","","99.90","","","","","","NA"
"-79.33","42.97","WELLAND-PELHAM","6139449","2021-09-17 15:00","2021","09","17","15:00","26.5","","","M","","M","0.0","","21","","9","","","","99.86","","","","","","NA"
"-79.33","42.97","WELLAND-PELHAM","6139449","2021-09-17 16:00","2021","09","17","16:00","26.6","","","M","","M","0.0","","19","","8","","","","99.80","","","","","","NA"
"-79.33","42.97","WELLAND-PELHAM","6139449","2021-09-17 17:00","2021","09","17","17:00","26.6","","","M","","M","0.0","","26","","5","","","","99.79","","","","","","NA"
"-79.33","42.97","WELLAND-PELHAM","6139449","2021-09-17 18:00","2021","09","17","18:00","24.7","","","M","","M","0.0","","20","","4","","","","99.76","","","","","","NA"
"-79.33","42.97","WELLAND-PELHAM","6139449","2021-09-17 19:00","2021","09","17","19:00","22.2","","","M","","M","0.0","","17","","4","","","","99.76","","","","","","NA"
"-79.33","42.97","WELLAND-PELHAM","6139449","2021-09-17 20:00","2021","09","17","20:00","20.6","","","M","","M","0.0","","16","","5","","","","99.78","","","","","","NA"
"-79.33","42.97","WELLAND-PELHAM","6139449","2021-09-17 21:00","2021","09","17","21:00","20.5","","","M","","M","0.0","","19","","5","","","","99.77","","","","","","NA"
"-79.33","42.97","WELLAND-PELHAM","6139449","2021-09-17 22:00","2021","09","17","22:00","19.7","","","M","","M","0.0","","26","","4","","","","99.74","","","","","","NA"
"-79.33","42.97","WELLAND-PELHAM","6139449","2021-09-17 23:00","2021","09","17","23:00","18.5","","","M","","M","0.0","","","","0","","","","99.77","","","","","","NA"
"-79.33","42.97","WELLAND-PELHAM","6139449","2021-09-18 00:00","2021","09","18","00:00","18.5","","","M","","M","0.0","","","","0","","","","99.76","","","","","","NA"
"-79.33","42.97","WELLAND-PELHAM","6139449","2021-09-18 01:00","2021","09","18","01:00","18.2","","","M","","M","0.0","","","","0","","","","99.75","","","","","","NA"
"-79.33","42.97","WELLAND-PELHAM","6139449","2021-09-18 02:00","2021","09","18","02:00","16.9","","","M","","M","0.0","","","","0","","","","99.72","","","","","","NA"
"-79.33","42.97","WELLAND-PELHAM","6139449","2021-09-18 03:00","2021","09","18","03:00","16.6","","","M","","M","0.0","","33","","2","","","","99.74","","","","","","NA"
"-79.33","42.97","WELLAND-PELHAM","6139449","2021-09-18 04:00","2021","09","18","04:00","16.9","","","M","","M","0.0","","27","","5","","","","99.80","","","","","","NA"
"-79.33","42.97","WELLAND-PELHAM","6139449","2021-09-18 05:00","2021","09","18","05:00","16.8","","","M","","M","0.0","","29","","4","","","","99.83","","","","","","NA"
"-79.33","42.97","WELLAND-PELHAM","6139449","2021-09-18 06:00","2021","09","18","06:00","18.0","","","M","","M","0.0","","32","","7","","","","99.93","","","","","","NA"
"-79.33","42.97","WELLAND-PELHAM","6139449","2021-09-18 07:00","2021","09","18","07:00","18.4","","","M","","M","0.0","","34","","6","","","","99.95","","","","","","NA"
"-79.33","42.97","WELLAND-PELHAM","6139449","2021-09-18 08:00","2021","09","18","08:00","18.5","","","M","","M","0.0","","35","","9","","","","99.97","","","","","","NA"
"-79.33","42.97","WELLAND-PELHAM","6139449","2021-09-18 09:00","2021","09","18","09:00","19.5","","","M","","M","0.0","","36","","12","","","","100.01","","","","","","NA"
"-79.33","42.97","WELLAND-PELHAM","6139449","2021-09-18 10:00","2021","09","18","10:00","21.0","","","M","","M","0.0","","1","","12","","","","100.06","","","","","","NA"
"-79.33","42.97","WELLAND-PELHAM","6139449","2021-09-18 11:00","2021","09","18","11:00","21.0","","","M","","M","0.0","","1","","10","","","","100.05","","","","","","NA"
"-79.33","42.97","WELLAND-PELHAM","6139449","2021-09-18 12:00","2021","09","18","12:00","21.8","","","M","","M","0.0","","36","","11","","","","100.07","","","","","","NA"
"-79.33","42.97","WELLAND-PELHAM","6139449","2021-09-18 13:00","2021","09","18","13:00","22.3","","","M","","M","0.0","","36","","9","","","","100.03","","","","","","NA"
"-79.33","42.97","WELLAND-PELHAM","6139449","2021-09-18 14:00","2021","09","18","14:00","22.9","","","M","","M","0.0","","3","","9","","","","99.97","","","","","","NA"
"-79.33","42.97","WELLAND-PELHAM","6139449","2021-09-18 15:00","2021","09","18","15:00","22.8","","","M","","M","0.0","","35","","13","","","","99.97","","","","","","NA"
"-79.33","42.97","WELLAND-PELHAM","6139449","2021-09-18 16:00","2021","09","18","16:00","23.0","","","M","","M","0.0","","36","","14","","","","99.94","","","","","","NA"
"-79.33","42.97","WELLAND-PELHAM","6139449","2021-09-18 17:00","2021","09","18","17:00","22.4","","","M","","M","0.0","","2","","9","","","","99.95","","","","","","NA"
"-79.33","42.97","WELLAND-PELHAM","6139449","2021-09-18 18:00","2021","09","18","18:00","20.7","","","M","","M","0.0","","36","","6","","","","99.95","","","","","","NA"
"-79.33","42.97","WELLAND-PELHAM","6139449","2021-09-18 19:00","2021","09","18","19:00","16.8","","","M","","M","0.0","","35","","4","","","","100.01","","","","","","NA"
"-79.33","42.97","WELLAND-PELHAM","6139449","2021-09-18 20:00","2021","09","18","20:00","15.4","","","M","","M","0.0","","36","","6","","","","100.09","","","","","","NA"
"-79.33","42.97","WELLAND-PELHAM","6139449","2021-09-18 21:00","2021","09","18","21:00","15.5","","","M","","M","0.0","","35","","5","","","","100.13","","","","","","NA"
"-79.33","42.97","WELLAND-PELHAM","6139449","2021-09-18 22:00","2021","09","18","22:00","13.5","","","M","","M","0.0","","34","","5","","","","100.15","","","","","","NA"
"-79.33","42.97","WELLAND-PELHAM","6139449","2021-09-18 23:00","2021","09","18","23:00","13.1","","","M","","M","0.0","","34","","5","","","","100.19","","","","","","NA"
"-79.33","42.97","WELLAND-PELHAM","6139449","2021-09-19 00:00","2021","09","19","00:00","12.0","","","M","","M","0.0","","34","","6","","","","100.18","","","","","","NA"
"-79.33","42.97","WELLAND-PELHAM","6139449","2021-09-19 01:00","2021","09","19","01:00","10.5","","","M","","M","0.0","","34","","4","","","","100.18","","","","","","NA"
"-79.33","42.97","WELLAND-PELHAM","6139449","2021-09-19 02:00","2021","09","19","02:00","10.8","","","M","","M","0.0","","31","","5","","","","100.18","","","","","","NA"
"-79.33","42.97","WELLAND-PELHAM","6139449","2021-09-19 03:00","2021","09","19","03:00","10.3","","","M","","M","0.0","","27","","3","","","","100.16","","","","","","NA"
"-79.33","42.97","WELLAND-PELHAM","6139449","2021-09-19 04:00","2021","09","19","04:00","9.6","","","M","","M","0.0","","28","","3","","","","100.18","","","","","","NA"
"-79.33","42.97","WELLAND-PELHAM","6139449","2021-09-19 05:00","2021","09","19","05:00","9.8","","","M","","M","0.0","","28","","4","","","","100.23","","","","","","NA"
"-79.33","42.97","WELLAND-PELHAM","6139449","2021-09-19 06:00","2021","09","19","06:00","9.8","","","M","","M","0.0","","0","","1","","","","100.27","","","","","","NA"
"-79.33","42.97","WELLAND-PELHAM","6139449","2021-09-19 07:00","2021","09","19","07:00","11.6","","","M","","M","0.0","","35","","3","","","","100.31","","","","","","NA"
"-79.33","42.97","WELLAND-PELHAM","6139449","2021-09-19 08:00","2021","09","19","08:00","16.7","","","M","","M","0.0","","5","","2","","","","100.34","","","","","","NA"
"-79.33","42.97","WELLAND-PELHAM","6139449","2021-09-19 09:00","2021","09","19","09:00","18.7","","","M","","M","0.0","","8","","11","","","","100.36","","","","","","NA"
"-79.33","42.97","WELLAND-PELHAM","6139449","2021-09-19 10:00","2021","09","19","10:00","20.1","","","M","","M","0.0","","11","","8","","","","100.37","","","","","","NA"
"-79.33","42.97","WELLAND-PELHAM","6139449","2021-09-19 11:00","2021","09","19","11:00","20.2","","","M","","M","0.0","","7","","10","","","","100.34","","","","","","NA"
"-79.33","42.97","WELLAND-PELHAM","6139449","2021-09-19 12:00","2021","09","19","12:00","21.1","","","M","","M","0.0","","9","","9","","","","100.33","","","","","","NA"
"-79.33","42.97","WELLAND-PELHAM","6139449","2021-09-19 13:00","2021","09","19","13:00","21.5","","","M","","M","0.0","","5","","8","","","","100.25","","","","","","NA"
"-79.33","42.97","WELLAND-PELHAM","6139449","2021-09-19 14:00","2021","09","19","14:00","22.6","","","M","","M","0.0","","6","","6","","","","100.17","","","","","","NA"
"-79.33","42.97","WELLAND-PELHAM","6139449","2021-09-19 15:00","2021","09","19","15:00","22.5","","","M","","M","0.0","","7","","7","","","","100.14","","","","","","NA"
"-79.33","42.97","WELLAND-PELHAM","6139449","2021-09-19 16:00","2021","09","19","16:00","23.2","","","M","","M","0.0","","11","","3","","","","100.11","","","","","","NA"
"-79.33","42.97","WELLAND-PELHAM","6139449","2021-09-19 17:00","2021","09","19","17:00","22.5","","","M","","M","0.0","","24","","2","","","","100.09","","","","","","NA"
"-79.33","42.97","WELLAND-PELHAM","6139449","2021-09-19 18:00","2021","09","19","18:00","19.1","","","M","","M","0.0","","2","","9","","","","100.09","","","","","","NA"
"-79.33","42.97","WELLAND-PELHAM","6139449","2021-09-19 19:00","2021","09","19","19:00","16.8","","","M","","M","0.0","","4","","7","","","","100.10","","","","","","NA"
"-79.33","42.97","WELLAND-PELHAM","6139449","2021-09-19 20:00","2021","09","19","20:00","14.8","","","M","","M","0.0","","7","","7","","","","100.12","","","","","","NA"
"-79.33","42.97","WELLAND-PELHAM","6139449","2021-09-19 21:00","2021","09","19","21:00","14.8","","","M","","M","0.0","","8","","9","","","","100.14","","","","","","NA"
"-79.33","42.97","WELLAND-PELHAM","6139449","2021-09-19 22:00","2021","09","19","22:00","14.1","","","M","","M","0.0","","7","","8","","","","100.13","","","","","","NA"
"-79.33","42.97","WELLAND-PELHAM","6139449","2021-09-19 23:00","2021","09","19","23:00","13.4","","","M","","M","0.0","","9","","4","","","","100.12","","","","","","NA"
"-79.33","42.97","WELLAND-PELHAM","6139449","2021-09-20 00:00","2021","09","20","00:00","12.6","","","M","","M","0.0","","10","","2","","","","100.15","","","","","","NA"
"-79.33","42.97","WELLAND-PELHAM","6139449","2021-09-20 01:00","2021","09","20","01:00","11.4","","","M","","M","0.0","","9","","4","","","","100.12","","","","","","NA"
"-79.33","42.97","WELLAND-PELHAM","6139449","2021-09-20 02:00","2021","09","20","02:00","11.7","","","M","","M","0.0","","10","","4","","","","100.09","","","","","","NA"
"-79.33","42.97","WELLAND-PELHAM","6139449","2021-09-20 03:00","2021","09","20","03:00","11.5","","","M","","M","0.0","","8","","4","","","","100.05","","","","","","NA"
"-79.33","42.97","WELLAND-PELHAM","6139449","2021-09-20 04:00","2021","09","20","04:00","11.2","","","M","","M","0.0","","11","","3","","","","100.06","","","","","","NA"
"-79.33","42.97","WELLAND-PELHAM","6139449","2021-09-20 05:00","2021","09","20","05:00","10.5","","","M","","M","0.0","","8","","5","","","","100.04","","","","","","NA"
"-79.33","42.97","WELLAND-PELHAM","6139449","2021-09-20 06:00","2021","09","20","06:00","10.5","","","M","","M","0.0","","8","","3","","","","100.08","","","","","","NA"
"-79.33","42.97","WELLAND-PELHAM","6139449","2021-09-20 07:00","2021","09","20","07:00","12.4","","","M","","M","0.0","","7","","4","","","","100.09","","","","","","NA"
"-79.33","42.97","WELLAND-PELHAM","6139449","2021-09-20 08:00","2021","09","20","08:00","17.4","","","M","","M","0.0","","9","","5","","","","100.08","","","","","","NA"
"-79.33","42.97","WELLAND-PELHAM","6139449","2021-09-20 09:00","2021","09","20","09:00","20.6","","","M","","M","0.0","","14","","9","","","","100.10","","","","","","NA"
"-79.33","42.97","WELLAND-PELHAM","6139449","2021-09-20 10:00","2021","09","20","10:00","21.4","","","M","","M","0.0","","13","","8","","","","100.10","","","","","","NA"
"-79.33","42.97","WELLAND-PELHAM","6139449","2021-09-20 11:00","2021","09","20","11:00","21.5","","","M","","M","0.0","","15","","7","","","","100.10","","","","","","NA"
"-79.33","42.97","WELLAND-PELHAM","6139449","2021-09-20 12:00","2021","09","20","12:00","23.5","","","M","","M","0.0","","15","","5","","","","100.06","","","","","","NA"
"-79.33","42.97","WELLAND-PELHAM","6139449","2021-09-20 13:00","2021","09","20","13:00","24.1","","","M","","M","0.0","","16","","8","","","","100.02","","","","","","NA"
"-79.33","42.97","WELLAND-PELHAM","6139449","2021-09-20 14:00","2021","09","20","14:00","25.1","","","M","","M","0.0","","13","","8","","","","99.98","","","","","","NA"
"-79.33","42.97","WELLAND-PELHAM","6139449","2021-09-20 15:00","2021","09","20","15:00","25.9","","","M","","M","0.0","","16","","5","","","","99.95","","","","","","NA"
"-79.33","42.97","WELLAND-PELHAM","6139449","2021-09-20 16:00","2021","09","20","16:00","26.4","","","M","","M","0.0","","15","","5","","","","99.93","","","","","","NA"
"-79.33","42.97","WELLAND-PELHAM","6139449","2021-09-20 17:00","2021","09","20","17:00","26.2","","","M","","M","0.0","","12","","5","","","","99.90","","","","","","NA"
"-79.33","42.97","WELLAND-PELHAM","6139449","2021-09-20 18:00","2021","09","20","18:00","23.3","","","M","","M","0.0","","10","","3","","","","99.87","","","","","","NA"
"-79.33","42.97","WELLAND-PELHAM","6139449","2021-09-20 19:00","2021","09","20","19:00","22.7","","","M","","M","0.0","","13","","5","","","","99.86","","","","","","NA"
"-79.33","42.97","WELLAND-PELHAM","6139449","2021-09-20 20:00","2021","09","20","20:00","23.9","","","M","","M","0.0","","16","","12","","","","99.88","","","","","","NA"
"-79.33","42.97","WELLAND-PELHAM","6139449","2021-09-20 21:00","2021","09","20","21:00","22.7","","","M","","M","0.0","","16","","15","","","","99.88","","","","","","NA"
"-79.33","42.97","WELLAND-PELHAM","6139449","2021-09-20 22:00","2021","09","20","22:00","22.0","","","M","","M","0.0","","16","","13","","","","99.88","","","","","","NA"
"-79.33","42.97","WELLAND-PELHAM","6139449","2021-09-20 23:00","2021","09","20","23:00","21.8","","","M","","M","0.0","","17","","14","","","","99.88","","","","","","NA"
"-79.33","42.97","WELLAND-PELHAM","6139449","2021-09-21 00:00","2021","09","21","00:00","21.5","","","M","","M","0.0","","16","","12","","","","99.86","","","","","","NA"
"-79.33","42.97","WELLAND-PELHAM","6139449","2021-09-21 01:00","2021","09","21","01:00","21.3","","","M","","M","0.0","","17","","12","","","","99.89","","","","","","NA"
"-79.33","42.97","WELLAND-PELHAM","6139449","2021-09-21 02:00","2021","09","21","02:00","21.5","","","M","","M","0.0","","18","","15","","","","99.92","","","","","","NA"
"-79.33","42.97","WELLAND-PELHAM","6139449","2021-09-21 03:00","2021","09","21","03:00","21.2","","","M","","M","0.0","","18","","14","","","","99.93","","","","","","NA"
"-79.33","42.97","WELLAND-PELHAM","6139449","2021-09-21 04:00","2021","09","21","04:00","21.1","","","M","","M","0.0","","18","","16","","","","99.92","","","","","","NA"
"-79.33","42.97","WELLAND-PELHAM","6139449","2021-09-21 05:00","2021","09","21","05:00","20.3","","","M","","M","0.0","","18","","13","","","","99.95","","","","","","NA"
"-79.33","42.97","WELLAND-PELHAM","6139449","2021-09-21 06:00","2021","09","21","06:00","20.0","","","M","","M","0.0","","18","","12","","","","99.95","","","","","","NA"
"-79.33","42.97","WELLAND-PELHAM","6139449","2021-09-21 07:00","2021","09","21","07:00","20.3","","","M","","M","0.0","","18","","18","","","","99.95","","","","","","NA"
"-79.33","42.97","WELLAND-PELHAM","6139449","2021-09-21 08:00","2021","09","21","08:00","20.3","","","M","","M","0.0","","17","","18","","","","99.94","","","","","","NA"
"-79.33","42.97","WELLAND-PELHAM","6139449","2021-09-21 09:00","2021","09","21","09:00","20.7","","","M","","M","0.0","","17","","21","","","","99.94","","","","","","NA"
"-79.33","42.97","WELLAND-PELHAM","6139449","2021-09-21 10:00","2021","09","21","10:00","21.6","","","M","","M","0.0","","18","","16","","","","99.94","","","","","","NA"
"-79.33","42.97","WELLAND-PELHAM","6139449","2021-09-21 11:00","2021","09","21","11:00","22.5","","","M","","M","0.0","","18","","22","","","","99.90","","","","","","NA"
"-79.33","42.97","WELLAND-PELHAM","6139449","2021-09-21 12:00","2021","09","21","12:00","23.2","","","M","","M","0.0","","18","","22","","","","99.90","","","","","","NA"
"-79.33","42.97","WELLAND-PELHAM","6139449","2021-09-21 13:00","2021","09","21","13:00","24.0","","","M","","M","0.0","","19","","19","","","","99.89","","","","","","NA"
"-79.33","42.97","WELLAND-PELHAM","6139449","2021-09-21 14:00","2021","09","21","14:00","23.6","","","M","","M","0.0","","18","","16","","","","99.84","","","","","","NA"
"-79.33","42.97","WELLAND-PELHAM","6139449","2021-09-21 15:00","2021","09","21","15:00","23.3","","","M","","M","0.0","","19","","11","","","","99.82","","","","","","NA"
"-79.33","42.97","WELLAND-PELHAM","6139449","2021-09-21 16:00","2021","09","21","16:00","22.6","","","M","","M","0.0","","20","","11","","","","99.81","","","","","","NA"
"-79.33","42.97","WELLAND-PELHAM","6139449","2021-09-21 17:00","2021","09","21","17:00","21.3","","","M","","M","0.2","","17","","5","","","","99.79","","","","","","NA"
"-79.33","42.97","WELLAND-PELHAM","6139449","2021-09-21 18:00","2021","09","21","18:00","20.7","","","M","","M","0.0","","17","","9","","","","99.78","","","","","","NA"
"-79.33","42.97","WELLAND-PELHAM","6139449","2021-09-21 19:00","2021","09","21","19:00","20.3","","","M","","M","0.0","","18","","5","","","","99.77","","","","","","NA"
"-79.33","42.97","WELLAND-PELHAM","6139449","2021-09-21 20:00","2021","09","21","20:00","20.3","","","M","","M","0.0","","17","","6","","","","99.75","","","","","","NA"
"-79.33","42.97","WELLAND-PELHAM","6139449","2021-09-21 21:00","2021","09","21","21:00","20.2","","","M","","M","0.0","","17","","9","","","","99.72","","","","","","NA"
"-79.33","42.97","WELLAND-PELHAM","6139449","2021-09-21 22:00","2021","09","21","22:00","20.3","","","M","","M","0.0","","19","","12","","","","99.69","","","","","","NA"
"-79.33","42.97","WELLAND-PELHAM","6139449","2021-09-21 23:00","2021","09","21","23:00","19.7","","","M","","M","0.3","","18","","14","","","","99.66","","","","","","NA"
"-79.33","42.97","WELLAND-PELHAM","6139449","2021-09-22 00:00","2021","09","22","00:00","20.5","","","M","","M","0.0","","17","","16","","","","99.55","","","","","","NA"
"-79.33","42.97","WELLAND-PELHAM","6139449","2021-09-22 01:00","2021","09","22","01:00","20.3","","","M","","M","0.0","","18","","13","","","","99.46","","","","","","NA"
"-79.33","42.97","WELLAND-PELHAM","6139449","2021-09-22 02:00","2021","09","22","02:00","20.1","","","M","","M","0.0","","16","","11","","","","99.40","","","","","","NA"
"-79.33","42.97","WELLAND-PELHAM","6139449","2021-09-22 03:00","2021","09","22","03:00","20.5","","","M","","M","0.0","","17","","14","","","","99.35","","","","","","NA"
"-79.33","42.97","WELLAND-PELHAM","6139449","2021-09-22 04:00","2021","09","22","04:00","20.0","","","M","","M","0.0","","17","","10","","","","99.30","","","","","","NA"
"-79.33","42.97","WELLAND-PELHAM","6139449","2021-09-22 05:00","2021","09","22","05:00","19.2","","","M","","M","0.3","","17","","13","","","","99.26","","","","","","NA"
"-79.33","42.97","WELLAND-PELHAM","6139449","2021-09-22 06:00","2021","09","22","06:00","19.1","","","M","","M","2.9","","15","","9","","","","99.23","","","","","","NA"
"-79.33","42.97","WELLAND-PELHAM","6139449","2021-09-22 07:00","2021","09","22","07:00","19.3","","","M","","M","0.3","","15","","9","","","","99.19","","","","","","NA"
"-79.33","42.97","WELLAND-PELHAM","6139449","2021-09-22 08:00","2021","09","22","08:00","19.4","","","M","","M","1.0","","17","","8","","","","99.15","","","","","","NA"
"-79.33","42.97","WELLAND-PELHAM","6139449","2021-09-22 09:00","2021","09","22","09:00","19.9","","","M","","M","1.0","","16","","9","","","","99.08","","","","","","NA"
"-79.33","42.97","WELLAND-PELHAM","6139449","2021-09-22 10:00","2021","09","22","10:00","20.6","","","M","","M","0.6","","15","","8","","","","99.03","","","","","","NA"
"-79.33","42.97","WELLAND-PELHAM","6139449","2021-09-22 11:00","2021","09","22","11:00","21.0","","","M","","M","0.0","","16","","7","","","","98.97","","","","","","NA"
"-79.33","42.97","WELLAND-PELHAM","6139449","2021-09-22 12:00","2021","09","22","12:00","21.0","","","M","","M","0.1","","13","","8","","","","98.87","","","","","","NA"
"-79.33","42.97","WELLAND-PELHAM","6139449","2021-09-22 13:00","2021","09","22","13:00","21.2","","","M","","M","1.1","","17","","3","","","","98.79","","","","","","NA"
"-79.33","42.97","WELLAND-PELHAM","6139449","2021-09-22 14:00","2021","09","22","14:00","21.3","","","M","","M","0.2","","4","","6","","","","98.69","","","","","","NA"
"-79.33","42.97","WELLAND-PELHAM","6139449","2021-09-22 15:00","2021","09","22","15:00","19.7","","","M","","M","0.0","","34","","9","","","","98.63","","","","","","NA"
"-79.33","42.97","WELLAND-PELHAM","6139449","2021-09-22 16:00","2021","09","22","16:00","17.8","","","M","","M","0.0","","35","","16","","","","98.59","","","","","","NA"
"-79.33","42.97","WELLAND-PELHAM","6139449","2021-09-22 17:00","2021","09","22","17:00","17.3","","","M","","M","0.0","","35","","11","","","","98.51","","","","","","NA"
"-79.33","42.97","WELLAND-PELHAM","6139449","2021-09-22 18:00","2021","09","22","18:00","17.0","","","M","","M","0.0","","36","","8","","","","98.50","","","","","","NA"
"-79.33","42.97","WELLAND-PELHAM","6139449","2021-09-22 19:00","2021","09","22","19:00","17.2","","","M","","M","6.3","","34","","9","","","","98.47","","","","","","NA"
"-79.33","42.97","WELLAND-PELHAM","6139449","2021-09-22 20:00","2021","09","22","20:00","17.7","","","M","","M","6.1","","1","","7","","","","98.42","","","","","","NA"
"-79.33","42.97","WELLAND-PELHAM","6139449","2021-09-22 21:00","2021","09","22","21:00","18.0","","","M","","M","3.7","","8","","8","","","","98.38","","","","","","NA"
"-79.33","42.97","WELLAND-PELHAM","6139449","2021-09-22 22:00","2021","09","22","22:00","15.6","","","M","","M","7.4","","32","","18","","","","98.43","","","","","","NA"
"-79.33","42.97","WELLAND-PELHAM","6139449","2021-09-22 23:00","2021","09","22","23:00","15.5","","","M","","M","3.8","","31","","6","","","","98.49","","","","","","NA"
"-79.33","42.97","WELLAND-PELHAM","6139449","2021-09-23 00:00","2021","09","23","00:00","15.0","","","M","","M","0.3","","33","","6","","","","98.50","","","","","","NA"
"-79.33","42.97","WELLAND-PELHAM","6139449","2021-09-23 01:00","2021","09","23","01:00","15.0","","","M","","M","0.2","","0","","1","","","","98.53","","","","","","NA"
"-79.33","42.97","WELLAND-PELHAM","6139449","2021-09-23 02:00","2021","09","23","02:00","15.1","","","M","","M","0.5","","6","","5","","","","98.54","","","","","","NA"
"-79.33","42.97","WELLAND-PELHAM","6139449","2021-09-23 03:00","2021","09","23","03:00","15.5","","","M","","M","0.0","","3","","4","","","","98.49","","","","","","NA"
"-79.33","42.97","WELLAND-PELHAM","6139449","2021-09-23 04:00","2021","09","23","04:00","17.2","","","M","","M","0.0","","17","","13","","","","98.54","","","","","","NA"
"-79.33","42.97","WELLAND-PELHAM","6139449","2021-09-23 05:00","2021","09","23","05:00","17.0","","","M","","M","0.0","","16","","10","","","","98.63","","","","","","NA"
"-79.33","42.97","WELLAND-PELHAM","6139449","2021-09-23 06:00","2021","09","23","06:00","16.3","","","M","","M","0.2","","14","","7","","","","98.59","","","","","","NA"
"-79.33","42.97","WELLAND-PELHAM","6139449","2021-09-23 07:00","2021","09","23","07:00","16.5","","","M","","M","0.0","","0","","1","","","","98.63","","","","","","NA"
"-79.33","42.97","WELLAND-PELHAM","6139449","2021-09-23 08:00","2021","09","23","08:00","15.7","","","M","","M","0.0","","22","","6","","","","98.68","","","","","","NA"
"-79.33","42.97","WELLAND-PELHAM","6139449","2021-09-23 09:00","2021","09","23","09:00","17.0","","","M","","M","0.0","","21","","8","","","","98.66","","","","","","NA"
"-79.33","42.97","WELLAND-PELHAM","6139449","2021-09-23 10:00","2021","09","23","10:00","17.0","","","M","","M","0.0","","21","","11","","","","98.70","","","","","","NA"
"-79.33","42.97","WELLAND-PELHAM","6139449","2021-09-23 11:00","2021","09","23","11:00","17.1","","","M","","M","0.0","","21","","14","","","","98.72","","","","","","NA"
"-79.33","42.97","WELLAND-PELHAM","6139449","2021-09-23 12:00","2021","09","23","12:00","17.5","","","M","","M","0.0","","21","","20","","","","98.74","","","","","","NA"
"-79.33","42.97","WELLAND-PELHAM","6139449","2021-09-23 13:00","2021","09","23","13:00","17.0","","","M","","M","0.0","","19","","20","","","","98.76","","","","","","NA"
"-79.33","42.97","WELLAND-PELHAM","6139449","2021-09-23 14:00","2021","09","23","14:00","16.5","","","M","","M","0.0","","21","","14","","","","98.78","","","","","","NA"
"-79.33","42.97","WELLAND-PELHAM","6139449","2021-09-23 15:00","2021","09","23","15:00","16.7","","","M","","M","0.0","","20","","16","","","","98.77","","","","","","NA"
"-79.33","42.97","WELLAND-PELHAM","6139449","2021-09-23 16:00","2021","09","23","16:00","16.3","","","M","","M","0.0","","19","","16","","","","98.79","","","","","","NA"
"-79.33","42.97","WELLAND-PELHAM","6139449","2021-09-23 17:00","2021","09","23","17:00","15.1","","","M","","M","0.0","","21","","15","","","","98.86","","","","","","NA"
"-79.33","42.97","WELLAND-PELHAM","6139449","2021-09-23 18:00","2021","09","23","18:00","14.8","","","M","","M","0.0","","19","","15","","","","98.92","","","","","","NA"
"-79.33","42.97","WELLAND-PELHAM","6139449","2021-09-23 19:00","2021","09","23","19:00","14.9","","","M","","M","0.0","","20","","15","","","","98.95","","","","","","NA"
"-79.33","42.97","WELLAND-PELHAM","6139449","2021-09-23 20:00","2021","09","23","20:00","14.6","","","M","","M","0.0","","20","","18","","","","98.97","","","","","","NA"
"-79.33","42.97","WELLAND-PELHAM","6139449","2021-09-23 21:00","2021","09","23","21:00","14.4","","","M","","M","0.0","","19","","17","","","","98.96","","","","","","NA"
"-79.33","42.97","WELLAND-PELHAM","6139449","2021-09-23 22:00","2021","09","23","22:00","14.1","","","M","","M","0.0","","19","","19","","","","98.94","","","","","","NA"
"-79.33","42.97","WELLAND-PELHAM","6139449","2021-09-23 23:00","2021","09","23","23:00","13.9","","","M","","M","0.0","","19","","19","","","","98.92","","","","","","NA"
"-79.33","42.97","WELLAND-PELHAM","6139449","2021-09-24 00:00","2021","09","24","00:00","14.5","","","M","","M","0.0","","20","","21","","","","98.89","","","","","","NA"
"-79.33","42.97","WELLAND-PELHAM","6139449","2021-09-24 01:00","2021","09","24","01:00","14.7","","","M","","M","0.0","","20","","19","","","","98.89","","","","","","NA"
"-79.33","42.97","WELLAND-PELHAM","6139449","2021-09-24 02:00","2021","09","24","02:00","14.8","","","M","","M","0.0","","20","","14","","","","98.89","","","","","","NA"
"-79.33","42.97","WELLAND-PELHAM","6139449","2021-09-24 03:00","2021","09","24","03:00","13.0","","","M","","M","0.3","","22","","16","","","","98.95","","","","","","NA"
"-79.33","42.97","WELLAND-PELHAM","6139449","2021-09-24 04:00","2021","09","24","04:00","12.9","","","M","","M","0.9","","21","","17","","","","98.97","","","","","","NA"
"-79.33","42.97","WELLAND-PELHAM","6139449","2021-09-24 05:00","2021","09","24","05:00","12.7","","","M","","M","1.7","","22","","14","","","","99.04","","","","","","NA"
"-79.33","42.97","WELLAND-PELHAM","6139449","2021-09-24 06:00","2021","09","24","06:00","11.8","","","M","","M","2.8","","24","","6","","","","99.10","","","","","","NA"
"-79.33","42.97","WELLAND-PELHAM","6139449","2021-09-24 07:00","2021","09","24","07:00","11.7","","","M","","M","0.0","","24","","5","","","","99.15","","","","","","NA"
"-79.33","42.97","WELLAND-PELHAM","6139449","2021-09-24 08:00","2021","09","24","08:00","11.9","","","M","","M","0.0","","26","","14","","","","99.22","","","","","","NA"
"-79.33","42.97","WELLAND-PELHAM","6139449","2021-09-24 09:00","2021","09","24","09:00","13.5","","","M","","M","0.0","","26","","21","","","","99.29","","","","","","NA"
"-79.33","42.97","WELLAND-PELHAM","6139449","2021-09-24 10:00","2021","09","24","10:00","15.1","","","M","","M","0.0","","26","","23","","","","99.27","","","","","","NA"
"-79.33","42.97","WELLAND-PELHAM","6139449","2021-09-24 11:00","2021","09","24","11:00","15.6","","","M","","M","0.0","","25","","12","","","","99.27","","","","","","NA"
"-79.33","42.97","WELLAND-PELHAM","6139449","2021-09-24 12:00","2021","09","24","12:00","15.3","","","M","","M","0.0","","24","","10","","","","99.26","","","","","","NA"
"-79.33","42.97","WELLAND-PELHAM","6139449","2021-09-24 13:00","2021","09","24","13:00","18.5","","","M","","M","0.0","","24","","20","","","","99.25","","","","","","NA"
"-79.33","42.97","WELLAND-PELHAM","6139449","2021-09-24 14:00","2021","09","24","14:00","18.7","","","M","","M","0.0","","25","","20","","","","99.31","","","","","","NA"
"-79.33","42.97","WELLAND-PELHAM","6139449","2021-09-24 15:00","2021","09","24","15:00","18.6","","","M","","M","0.0","","24","","19","","","","99.36","","","","","","NA"
"-79.33","42.97","WELLAND-PELHAM","6139449","2021-09-24 16:00","2021","09","24","16:00","18.4","","","M","","M","0.0","","23","","16","","","","99.37","","","","","","NA"
"-79.33","42.97","WELLAND-PELHAM","6139449","2021-09-24 17:00","2021","09","24","17:00","18.1","","","M","","M","0.0","","25","","12","","","","99.43","","","","","","NA"
"-79.33","42.97","WELLAND-PELHAM","6139449","2021-09-24 18:00","2021","09","24","18:00","16.6","","","M","","M","0.0","","24","","6","","","","99.45","","","","","","NA"
"-79.33","42.97","WELLAND-PELHAM","6139449","2021-09-24 19:00","2021","09","24","19:00","14.8","","","M","","M","0.0","","22","","3","","","","99.49","","","","","","NA"
"-79.33","42.97","WELLAND-PELHAM","6139449","2021-09-24 20:00","2021","09","24","20:00","13.1","","","M","","M","0.0","","24","","4","","","","99.53","","","","","","NA"
"-79.33","42.97","WELLAND-PELHAM","6139449","2021-09-24 21:00","2021","09","24","21:00","10.8","","","M","","M","0.0","","21","","1","","","","99.53","","","","","","NA"
"-79.33","42.97","WELLAND-PELHAM","6139449","2021-09-24 22:00","2021","09","24","22:00","10.2","","","M","","M","0.0","","10","","1","","","","99.52","","","","","","NA"
"-79.33","42.97","WELLAND-PELHAM","6139449","2021-09-24 23:00","2021","09","24","23:00","9.2","","","M","","M","0.0","","13","","2","","","","99.51","","","","","","NA"
"-79.33","42.97","WELLAND-PELHAM","6139449","2021-09-25 00:00","2021","09","25","00:00","9.8","","","M","","M","0.0","","9","","2","","","","99.48","","","","","","NA"
"-79.33","42.97","WELLAND-PELHAM","6139449","2021-09-25 01:00","2021","09","25","01:00","9.6","","","M","","M","0.0","","8","","3","","","","99.43","","","","","","NA"
"-79.33","42.97","WELLAND-PELHAM","6139449","2021-09-25 02:00","2021","09","25","02:00","9.2","","","M","","M","0.0","","18","","3","","","","99.41","","","","","","NA"
"-79.33","42.97","WELLAND-PELHAM","6139449","2021-09-25 03:00","2021","09","25","03:00","12.8","","","M","","M","0.0","","17","","5","","","","99.37","","","","","","NA"
"-79.33","42.97","WELLAND-PELHAM","6139449","2021-09-25 04:00","2021","09","25","04:00","14.2","","","M","","M","0.0","","17","","5","","","","99.35","","","","","","NA"
"-79.33","42.97","WELLAND-PELHAM","6139449","2021-09-25 05:00","2021","09","25","05:00","15.3","","","M","","M","0.0","","19","","4","","","","99.34","","","","","","NA"
"-79.33","42.97","WELLAND-PELHAM","6139449","2021-09-25 06:00","2021","09","25","06:00","14.0","","","M","","M","0.0","","16","","4","","","","99.34","","","","","","NA"
"-79.33","42.97","WELLAND-PELHAM","6139449","2021-09-25 07:00","2021","09","25","07:00","14.7","","","M","","M","0.0","","17","","6","","","","99.31","","","","","","NA"
"-79.33","42.97","WELLAND-PELHAM","6139449","2021-09-25 08:00","2021","09","25","08:00","17.5","","","M","","M","0.0","","18","","10","","","","99.31","","","","","","NA"
"-79.33","42.97","WELLAND-PELHAM","6139449","2021-09-25 09:00","2021","09","25","09:00","18.0","","","M","","M","0.0","","19","","14","","","","99.32","","","","","","NA"
"-79.33","42.97","WELLAND-PELHAM","6139449","2021-09-25 10:00","2021","09","25","10:00","18.7","","","M","","M","0.0","","19","","18","","","","99.30","","","","","","NA"
"-79.33","42.97","WELLAND-PELHAM","6139449","2021-09-25 11:00","2021","09","25","11:00","19.3","","","M","","M","0.0","","19","","19","","","","99.24","","","","","","NA"
"-79.33","42.97","WELLAND-PELHAM","6139449","2021-09-25 12:00","2021","09","25","12:00","19.7","","","M","","M","0.0","","21","","19","","","","99.19","","","","","","NA"
"-79.33","42.97","WELLAND-PELHAM","6139449","2021-09-25 13:00","2021","09","25","13:00","20.4","","","M","","M","0.0","","19","","19","","","","99.08","","","","","","NA"
"-79.33","42.97","WELLAND-PELHAM","6139449","2021-09-25 14:00","2021","09","25","14:00","19.8","","","M","","M","0.0","","23","","17","","","","99.03","","","","","","NA"
"-79.33","42.97","WELLAND-PELHAM","6139449","2021-09-25 15:00","2021","09","25","15:00","17.4","","","M","","M","0.0","","26","","21","","","","99.10","","","","","","NA"
"-79.33","42.97","WELLAND-PELHAM","6139449","2021-09-25 16:00","2021","09","25","16:00","14.5","","","M","","M","1.0","","27","","14","","","","99.14","","","","","","NA"
"-79.33","42.97","WELLAND-PELHAM","6139449","2021-09-25 17:00","2021","09","25","17:00","15.2","","","M","","M","0.0","","26","","8","","","","99.16","","","","","","NA"
"-79.33","42.97","WELLAND-PELHAM","6139449","2021-09-25 18:00","2021","09","25","18:00","14.5","","","M","","M","0.0","","24","","5","","","","99.21","","","","","","NA"
"-79.33","42.97","WELLAND-PELHAM","6139449","2021-09-25 19:00","2021","09","25","19:00","13.6","","","M","","M","0.0","","23","","3","","","","99.25","","","","","","NA"
"-79.33","42.97","WELLAND-PELHAM","6139449","2021-09-25 20:00","2021","09","25","20:00","11.7","","","M","","M","0.0","","0","","1","","","","99.30","","","","","","NA"
"-79.33","42.97","WELLAND-PELHAM","6139449","2021-09-25 21:00","2021","09","25","21:00","10.9","","","M","","M","0.0","","29","","7","","","","99.33","","","","","","NA"
"-79.33","42.97","WELLAND-PELHAM","6139449","2021-09-25 22:00","2021","09","25","22:00","11.2","","","M","","M","0.0","","24","","6","","","","99.34","","","","","","NA"
"-79.33","42.97","WELLAND-PELHAM","6139449","2021-09-25 23:00","2021","09","25","23:00","9.4","","","M","","M","0.0","","17","","2","","","","99.34","","","","","","NA"
"-79.33","42.97","WELLAND-PELHAM","6139449","2021-09-26 00:00","2021","09","26","00:00","8.3","","","M","","M","0.0","","18","","3","","","","99.32","","","","","","NA"
"-79.33","42.97","WELLAND-PELHAM","6139449","2021-09-26 01:00","2021","09","26","01:00","7.7","","","M","","M","0.0","","","","0","","","","99.30","","","","","","NA"
"-79.33","42.97","WELLAND-PELHAM","6139449","2021-09-26 02:00","2021","09","26","02:00","7.6","","","M","","M","0.0","","29","","1","","","","99.27","","","","","","NA"
"-79.33","42.97","WELLAND-PELHAM","6139449","2021-09-26 03:00","2021","09","26","03:00","7.7","","","M","","M","0.0","","","","0","","","","99.26","","","","","","NA"
"-79.33","42.97","WELLAND-PELHAM","6139449","2021-09-26 04:00","2021","09","26","04:00","6.9","","","M","","M","0.0","","0","","1","","","","99.24","","","","","","NA"
"-79.33","42.97","WELLAND-PELHAM","6139449","2021-09-26 05:00","2021","09","26","05:00","6.4","","","M","","M","0.0","","","","0","","","","99.26","","","","","","NA"
"-79.33","42.97","WELLAND-PELHAM","6139449","2021-09-26 06:00","2021","09","26","06:00","6.4","","","M","","M","0.0","","0","","1","","","","99.24","","","","","","NA"
"-79.33","42.97","WELLAND-PELHAM","6139449","2021-09-26 07:00","2021","09","26","07:00","7.2","","","M","","M","0.0","","","","0","","","","99.25","","","","","","NA"
"-79.33","42.97","WELLAND-PELHAM","6139449","2021-09-26 08:00","2021","09","26","08:00","13.8","","","M","","M","0.0","","27","","10","","","","99.24","","","","","","NA"
"-79.33","42.97","WELLAND-PELHAM","6139449","2021-09-26 09:00","2021","09","26","09:00","15.0","","","M","","M","0.0","","28","","19","","","","99.28","","","","","","NA"
"-79.33","42.97","WELLAND-PELHAM","6139449","2021-09-26 10:00","2021","09","26","10:00","17.1","","","M","","M","0.0","","27","","16","","","","99.28","","","","","","NA"
"-79.33","42.97","WELLAND-PELHAM","6139449","2021-09-26 11:00","2021","09","26","11:00","18.8","","","M","","M","0.0","","28","","22","","","","99.25","","","","","","NA"
"-79.33","42.97","WELLAND-PELHAM","6139449","2021-09-26 12:00","2021","09","26","12:00","19.3","","","M","","M","0.0","","27","","22","","","","99.24","","","","","","NA"
"-79.33","42.97","WELLAND-PELHAM","6139449","2021-09-26 13:00","2021","09","26","13:00","19.2","","","M","","M","0.0","","26","","16","","","","99.19","","","","","","NA"
"-79.33","42.97","WELLAND-PELHAM","6139449","2021-09-26 14:00","2021","09","26","14:00","20.0","","","M","","M","0.0","","27","","18","","","","99.17","","","","","","NA"
"-79.33","42.97","WELLAND-PELHAM","6139449","2021-09-26 15:00","2021","09","26","15:00","19.2","","","M","","M","0.0","","26","","13","","","","99.13","","","","","","NA"
"-79.33","42.97","WELLAND-PELHAM","6139449","2021-09-26 16:00","2021","09","26","16:00","18.8","","","M","","M","0.0","","23","","13","","","","99.14","","","","","","NA"
"-79.33","42.97","WELLAND-PELHAM","6139449","2021-09-26 17:00","2021","09","26","17:00","18.3","","","M","","M","0.0","","25","","13","","","","99.13","","","","","","NA"
"-79.33","42.97","WELLAND-PELHAM","6139449","2021-09-26 18:00","2021","09","26","18:00","17.6","","","M","","M","0.0","","25","","8","","","","99.13","","","","","","NA"
"-79.33","42.97","WELLAND-PELHAM","6139449","2021-09-26 19:00","2021","09","26","19:00","15.9","","","M","","M","0.0","","24","","5","","","","99.16","","","","","","NA"
"-79.33","42.97","WELLAND-PELHAM","6139449","2021-09-26 20:00","2021","09","26","20:00","14.5","","","M","","M","0.0","","16","","3","","","","99.13","","","","","","NA"
"-79.33","42.97","WELLAND-PELHAM","6139449","2021-09-26 21:00","2021","09","26","21:00","14.0","","","M","","M","0.0","","14","","3","","","","99.06","","","","","","NA"
"-79.33","42.97","WELLAND-PELHAM","6139449","2021-09-26 22:00","2021","09","26","22:00","14.6","","","M","","M","0.0","","13","","2","","","","99.04","","","","","","NA"
"-79.33","42.97","WELLAND-PELHAM","6139449","2021-09-26 23:00","2021","09","26","23:00","17.6","","","M","","M","0.0","","22","","4","","","","99.06","","","","","","NA"
"-79.33","42.97","WELLAND-PELHAM","6139449","2021-09-27 00:00","2021","09","27","00:00","17.9","","","M","","M","0.0","","26","","7","","","","99.10","","","","","","NA"
"-79.33","42.97","WELLAND-PELHAM","6139449","2021-09-27 01:00","2021","09","27","01:00","16.2","","","M","","M","0.0","","25","","2","","","","99.09","","","","","","NA"
"-79.33","42.97","WELLAND-PELHAM","6139449","2021-09-27 02:00","2021","09","27","02:00","16.3","","","M","","M","0.0","","18","","5","","","","99.07","","","","","","NA"
"-79.33","42.97","WELLAND-PELHAM","6139449","2021-09-27 03:00","2021","09","27","03:00","17.7","","","M","","M","0.0","","25","","12","","","","99.07","","","","","","NA"
"-79.33","42.97","WELLAND-PELHAM","6139449","2021-09-27 04:00","2021","09","27","04:00","18.1","","","M","","M","0.3","","22","","8","","","","98.97","","","","","","NA"
"-79.33","42.97","WELLAND-PELHAM","6139449","2021-09-27 05:00","2021","09","27","05:00","18.8","","","M","","M","0.0","","22","","16","","","","98.93","","","","","","NA"
"-79.33","42.97","WELLAND-PELHAM","6139449","2021-09-27 06:00","2021","09","27","06:00","18.7","","","M","","M","0.0","","22","","16","","","","98.90","","","","","","NA"
"-79.33","42.97","WELLAND-PELHAM","6139449","2021-09-27 07:00","2021","09","27","07:00","18.7","","","M","","M","0.0","","22","","16","","","","98.88","","","","","","NA"
"-79.33","42.97","WELLAND-PELHAM","6139449","2021-09-27 08:00","2021","09","27","08:00","19.4","","","M","","M","0.0","","23","","15","","","","98.86","","","","","","NA"
"-79.33","42.97","WELLAND-PELHAM","6139449","2021-09-27 09:00","2021","09","27","09:00","19.9","","","M","","M","0.0","","23","","18","","","","98.85","","","","","","NA"
"-79.33","42.97","WELLAND-PELHAM","6139449","2021-09-27 10:00","2021","09","27","10:00","20.4","","","M","","M","0.0","","24","","19","","","","98.82","","","","","","NA"
"-79.33","42.97","WELLAND-PELHAM","6139449","2021-09-27 11:00","2021","09","27","11:00","20.8","","","M","","M","0.0","","23","","20","","","","98.77","","","","","","NA"
"-79.33","42.97","WELLAND-PELHAM","6139449","2021-09-27 12:00","2021","09","27","12:00","21.1","","","M","","M","0.0","","24","","19","","","","98.74","","","","","","NA"
"-79.33","42.97","WELLAND-PELHAM","6139449","2021-09-27 13:00","2021","09","27","13:00","21.4","","","M","","M","0.0","","24","","19","","","","98.71","","","","","","NA"
"-79.33","42.97","WELLAND-PELHAM","6139449","2021-09-27 14:00","2021","09","27","14:00","22.0","","","M","","M","0.0","","25","","22","","","","98.69","","","","","","NA"
"-79.33","42.97","WELLAND-PELHAM","6139449","2021-09-27 15:00","2021","09","27","15:00","21.8","","","M","","M","0.0","","25","","20","","","","98.68","","","","","","NA"
"-79.33","42.97","WELLAND-PELHAM","6139449","2021-09-27 16:00","2021","09","27","16:00","22.3","","","M","","M","0.0","","26","","21","","","","98.66","","","","","","NA"
"-79.33","42.97","WELLAND-PELHAM","6139449","2021-09-27 17:00","2021","09","27","17:00","22.3","","","M","","M","0.0","","25","","9","","","","98.65","","","","","","NA"
"-79.33","42.97","WELLAND-PELHAM","6139449","2021-09-27 18:00","2021","09","27","18:00","20.7","","","M","","M","0.0","","26","","5","","","","98.68","","","","","","NA"
"-79.33","42.97","WELLAND-PELHAM","6139449","2021-09-27 19:00","2021","09","27","19:00","17.8","","","M","","M","0.0","","","","0","","","","98.74","","","","","","NA"
"-79.33","42.97","WELLAND-PELHAM","6139449","2021-09-27 20:00","2021","09","27","20:00","16.3","","","M","","M","0.0","","32","","5","","","","98.80","","","","","","NA"
"-79.33","42.97","WELLAND-PELHAM","6139449","2021-09-27 21:00","2021","09","27","21:00","19.0","","","M","","M","0.0","","33","","9","","","","98.82","","","","","","NA"
"-79.33","42.97","WELLAND-PELHAM","6139449","2021-09-27 22:00","2021","09","27","22:00","19.2","","","M","","M","0.0","","36","","9","","","","98.87","","","","","","NA"
"-79.33","42.97","WELLAND-PELHAM","6139449","2021-09-27 23:00","2021","09","27","23:00","17.7","","","M","","M","0.0","","2","","9","","","","98.90","","","","","","NA"
"-79.33","42.97","WELLAND-PELHAM","6139449","2021-09-28 00:00","2021","09","28","00:00","16.6","","","M","","M","0.0","","1","","5","","","","98.92","","","","","","NA"
"-79.33","42.97","WELLAND-PELHAM","6139449","2021-09-28 01:00","2021","09","28","01:00","15.8","","","M","","M","0.0","","34","","2","","","","98.94","","","","","","NA"
"-79.33","42.97","WELLAND-PELHAM","6139449","2021-09-28 02:00","2021","09","28","02:00","16.2","","","M","","M","0.0","","35","","3","","","","98.95","","","","","","NA"
"-79.33","42.97","WELLAND-PELHAM","6139449","2021-09-28 03:00","2021","09","28","03:00","16.1","","","M","","M","0.0","","34","","6","","","","98.94","","","","","","NA"
"-79.33","42.97","WELLAND-PELHAM","6139449","2021-09-28 04:00","2021","09","28","04:00","15.9","","","M","","M","0.0","","36","","12","","","","98.98","","","","","","NA"
"-79.33","42.97","WELLAND-PELHAM","6139449","2021-09-28 05:00","2021","09","28","05:00","15.6","","","M","","M","0.0","","36","","15","","","","99.01","","","","","","NA"
"-79.33","42.97","WELLAND-PELHAM","6139449","2021-09-28 06:00","2021","09","28","06:00","14.8","","","M","","M","0.0","","4","","19","","","","99.13","","","","","","NA"
"-79.33","42.97","WELLAND-PELHAM","6139449","2021-09-28 07:00","2021","09","28","07:00","13.7","","","M","","M","0.0","","3","","14","","","","99.26","","","","","","NA"
"-79.33","42.97","WELLAND-PELHAM","6139449","2021-09-28 08:00","2021","09","28","08:00","14.6","","","M","","M","0.0","","3","","19","","","","99.32","","","","","","NA"
"-79.33","42.97","WELLAND-PELHAM","6139449","2021-09-28 09:00","2021","09","28","09:00","15.3","","","M","","M","0.0","","4","","16","","","","99.35","","","","","","NA"
"-79.33","42.97","WELLAND-PELHAM","6139449","2021-09-28 10:00","2021","09","28","10:00","15.9","","","M","","M","0.0","","2","","17","","","","99.40","","","","","","NA"
"-79.33","42.97","WELLAND-PELHAM","6139449","2021-09-28 11:00","2021","09","28","11:00","16.5","","","M","","M","0.0","","1","","14","","","","99.40","","","","","","NA"
"-79.33","42.97","WELLAND-PELHAM","6139449","2021-09-28 12:00","2021","09","28","12:00","16.7","","","M","","M","0.0","","1","","16","","","","99.43","","","","","","NA"
"-79.33","42.97","WELLAND-PELHAM","6139449","2021-09-28 13:00","2021","09","28","13:00","15.9","","","M","","M","0.0","","1","","16","","","","99.43","","","","","","NA"
"-79.33","42.97","WELLAND-PELHAM","6139449","2021-09-28 14:00","2021","09","28","14:00","16.3","","","M","","M","0.0","","36","","16","","","","99.45","","","","","","NA"
"-79.33","42.97","WELLAND-PELHAM","6139449","2021-09-28 15:00","2021","09","28","15:00","15.8","","","M","","M","0.0","","35","","16","","","","99.43","","","","","","NA"
"-79.33","42.97","WELLAND-PELHAM","6139449","2021-09-28 16:00","2021","09","28","16:00","16.0","","","M","","M","0.0","","1","","13","","","","99.41","","","","","","NA"
"-79.33","42.97","WELLAND-PELHAM","6139449","2021-09-28 17:00","2021","09","28","17:00","15.4","","","M","","M","0.0","","36","","9","","","","99.43","","","","","","NA"
"-79.33","42.97","WELLAND-PELHAM","6139449","2021-09-28 18:00","2021","09","28","18:00","14.0","","","M","","M","0.0","","35","","4","","","","99.46","","","","","","NA"
"-79.33","42.97","WELLAND-PELHAM","6139449","2021-09-28 19:00","2021","09","28","19:00","11.0","","","M","","M","0.0","","30","","1","","","","99.49","","","","","","NA"
"-79.33","42.97","WELLAND-PELHAM","6139449","2021-09-28 20:00","2021","09","28","20:00","10.3","","","M","","M","0.0","","32","","2","","","","99.51","","","","","","NA"
"-79.33","42.97","WELLAND-PELHAM","6139449","2021-09-28 21:00","2021","09","28","21:00","11.4","","","M","","M","0.0","","1","","7","","","","99.53","","","","","","NA"
"-79.33","42.97","WELLAND-PELHAM","6139449","2021-09-28 22:00","2021","09","28","22:00","9.3","","","M","","M","0.0","","27","","3","","","","99.59","","","","","","NA"
"-79.33","42.97","WELLAND-PELHAM","6139449","2021-09-28 23:00","2021","09","28","23:00","8.3","","","M","","M","0.0","","","","0","","","","99.61","","","","","","NA"
"-79.33","42.97","WELLAND-PELHAM","6139449","2021-09-29 00:00","2021","09","29","00:00","8.0","","","M","","M","0.0","","","","0","","","","99.62","","","","","","NA"
"-79.33","42.97","WELLAND-PELHAM","6139449","2021-09-29 01:00","2021","09","29","01:00","8.1","","","M","","M","0.0","","29","","3","","","","99.62","","","","","","NA"
"-79.33","42.97","WELLAND-PELHAM","6139449","2021-09-29 02:00","2021","09","29","02:00","7.5","","","M","","M","0.0","","28","","2","","","","99.63","","","","","","NA"
"-79.33","42.97","WELLAND-PELHAM","6139449","2021-09-29 03:00","2021","09","29","03:00","7.1","","","M","","M","0.0","","0","","1","","","","99.63","","","","","","NA"
"-79.33","42.97","WELLAND-PELHAM","6139449","2021-09-29 04:00","2021","09","29","04:00","7.0","","","M","","M","0.0","","","","0","","","","99.68","","","","","","NA"
"-79.33","42.97","WELLAND-PELHAM","6139449","2021-09-29 05:00","2021","09","29","05:00","7.5","","","M","","M","0.0","","29","","5","","","","99.73","","","","","","NA"
"-79.33","42.97","WELLAND-PELHAM","6139449","2021-09-29 06:00","2021","09","29","06:00","7.6","","","M","","M","0.0","","31","","2","","","","99.75","","","","","","NA"
"-79.33","42.97","WELLAND-PELHAM","6139449","2021-09-29 07:00","2021","09","29","07:00","8.3","","","M","","M","0.0","","29","","3","","","","99.77","","","","","","NA"
"-79.33","42.97","WELLAND-PELHAM","6139449","2021-09-29 08:00","2021","09","29","08:00","11.9","","","M","","M","0.0","","31","","5","","","","99.81","","","","","","NA"
"-79.33","42.97","WELLAND-PELHAM","6139449","2021-09-29 09:00","2021","09","29","09:00"
"-79.33","42.97","WELLAND-PELHAM","6139449","2021-09-29 10:00","2021","09","29","10:00"
"-79.33","42.97","WELLAND-PELHAM","6139449","2021-09-29 11:00","2021","09","29","11:00"
"-79.33","42.97","WELLAND-PELHAM","6139449","2021-09-29 12:00","2021","09","29","12:00","18.8","","","M","","M","0.0","","30","","9","","","","99.79","","","","","","NA"
"-79.33","42.97","WELLAND-PELHAM","6139449","2021-09-29 13:00","2021","09","29","13:00","19.1","","","M","","M","0.0","","33","","10","","","","99.73","","","","","","NA"
"-79.33","42.97","WELLAND-PELHAM","6139449","2021-09-29 14:00","2021","09","29","14:00","19.2","","","M","","M","0.0","","32","","8","","","","99.69","","","","","","NA"
"-79.33","42.97","WELLAND-PELHAM","6139449","2021-09-29 15:00","2021","09","29","15:00","19.5","","","M","","M","0.0","","32","","9","","","","99.67","","","","","","NA"
"-79.33","42.97","WELLAND-PELHAM","6139449","2021-09-29 16:00","2021","09","29","16:00","18.9","","","M","","M","0.0","","19","","13","","","","99.66","","","","","","NA"
"-79.33","42.97","WELLAND-PELHAM","6139449","2021-09-29 17:00","2021","09","29","17:00","18.2","","","M","","M","0.0","","23","","6","","","","99.67","","","","","","NA"
"-79.33","42.97","WELLAND-PELHAM","6139449","2021-09-29 18:00","2021","09","29","18:00","16.3","","","M","","M","0.0","","23","","4","","","","99.71","","","","","","NA"
"-79.33","42.97","WELLAND-PELHAM","6139449","2021-09-29 19:00","2021","09","29","19:00","13.6","","","M","","M","0.0","","2","","4","","","","99.75","","","","","","NA"
"-79.33","42.97","WELLAND-PELHAM","6139449","2021-09-29 20:00","2021","09","29","20:00","13.8","","","M","","M","0.0","","2","","7","","","","99.80","","","","","","NA"
"-79.33","42.97","WELLAND-PELHAM","6139449","2021-09-29 21:00","2021","09","29","21:00","12.7","","","M","","M","0.0","","35","","8","","","","99.83","","","","","","NA"
"-79.33","42.97","WELLAND-PELHAM","6139449","2021-09-29 22:00","2021","09","29","22:00","12.4","","","M","","M","0.0","","34","","6","","","","99.89","","","","","","NA"
"-79.33","42.97","WELLAND-PELHAM","6139449","2021-09-29 23:00","2021","09","29","23:00","12.4","","","M","","M","0.0","","1","","5","","","","99.94","","","","","","NA"
"-79.33","42.97","WELLAND-PELHAM","6139449","2021-09-30 00:00","2021","09","30","00:00","11.7","","","M","","M","0.0","","2","","10","","","","99.93","","","","","","NA"
"-79.33","42.97","WELLAND-PELHAM","6139449","2021-09-30 01:00","2021","09","30","01:00","9.6","","","M","","M","0.0","","34","","3","","","","99.97","","","","","","NA"
"-79.33","42.97","WELLAND-PELHAM","6139449","2021-09-30 02:00","2021","09","30","02:00","9.4","","","M","","M","0.0","","2","","3","","","","99.99","","","","","","NA"
"-79.33","42.97","WELLAND-PELHAM","6139449","2021-09-30 03:00","2021","09","30","03:00","10.0","","","M","","M","0.0","","","","0","","","","100.01","","","","","","NA"
"-79.33","42.97","WELLAND-PELHAM","6139449","2021-09-30 04:00","2021","09","30","04:00","10.9","","","M","","M","0.0","","29","","4","","","","100.03","","","","","","NA"
"-79.33","42.97","WELLAND-PELHAM","6139449","2021-09-30 05:00","2021","09","30","05:00","10.4","","","M","","M","0.0","","27","","4","","","","100.06","","","","","","NA"
"-79.33","42.97","WELLAND-PELHAM","6139449","2021-09-30 06:00","2021","09","30","06:00","9.5","","","M","","M","0.0","","27","","3","","","","100.08","","","","","","NA"
"-79.33","42.97","WELLAND-PELHAM","6139449","2021-09-30 07:00","2021","09","30","07:00","10.8","","","M","","M","0.0","","34","","4","","","","100.18","","","","","","NA"
"-79.33","42.97","WELLAND-PELHAM","6139449","2021-09-30 08:00","2021","09","30","08:00","12.0","","","M","","M","0.0","","34","","6","","","","100.20","","","","","","NA"
"-79.33","42.97","WELLAND-PELHAM","6139449","2021-09-30 09:00","2021","09","30","09:00","12.6","","","M","","M","0.0","","31","","9","","","","100.21","","","","","","NA"
"-79.33","42.97","WELLAND-PELHAM","6139449","2021-09-30 10:00","2021","09","30","10:00","13.1","","","M","","M","0.0","","35","","10","","","","100.22","","","","","","NA"
"-79.33","42.97","WELLAND-PELHAM","6139449","2021-09-30 11:00","2021","09","30","11:00","13.8","","","M","","M","0.0","","36","","8","","","","100.23","","","","","","NA"
"-79.33","42.97","WELLAND-PELHAM","6139449","2021-09-30 12:00","2021","09","30","12:00","14.1","","","M","","M","0.0","","31","","12","","","","100.20","","","","","","NA"
"-79.33","42.97","WELLAND-PELHAM","6139449","2021-09-30 13:00","2021","09","30","13:00","14.1","","","M","","M","0.0","","33","","9","","","","100.20","","","","","","NA"
"-79.33","42.97","WELLAND-PELHAM","6139449","2021-09-30 14:00","2021","09","30","14:00","14.8","","","M","","M","0.0","","1","","10","","","","100.17","","","","","","NA"
"-79.33","42.97","WELLAND-PELHAM","6139449","2021-09-30 15:00","2021","09","30","15:00","14.6","","","M","","M","0.0","","32","","11","","","","100.20","","","","","","NA"
"-79.33","42.97","WELLAND-PELHAM","6139449","2021-09-30 16:00","2021","09","30","16:00","14.7","","","M","","M","0.0","","35","","9","","","","100.23","","","","","","NA"
"-79.33","42.97","WELLAND-PELHAM","6139449","2021-09-30 17:00","2021","09","30","17:00","13.9","","","M","","M","0.0","","1","","5","","","","100.25","","","","","","NA"
"-79.33","42.97","WELLAND-PELHAM","6139449","2021-09-30 18:00","2021","09","30","18:00","13.1","","","M","","M","0.0","","2","","3","","","","100.27","","","","","","NA"
"-79.33","42.97","WELLAND-PELHAM","6139449","2021-09-30 19:00","2021","09","30","19:00","12.5","","","M","","M","0.0","","35","","2","","","","100.28","","","","","","NA"
"-79.33","42.97","WELLAND-PELHAM","6139449","2021-09-30 20:00","2021","09","30","20:00","11.2","","","M","","M","0.0","","2","","2","","","","100.32","","","","","","NA"
"-79.33","42.97","WELLAND-PELHAM","6139449","2021-09-30 21:00","2021","09","30","21:00","11.2","","","M","","M","0.0","","","","0","","","","100.34","","","","","","NA"
"-79.33","42.97","WELLAND-PELHAM","6139449","2021-09-30 22:00","2021","09","30","22:00","10.8","","","M","","M","0.0","","","","0","","","","100.35","","","","","","NA"
"-79.33","42.97","WELLAND-PELHAM","6139449","2021-09-30 23:00","2021","09","30","23:00","9.1","","","M","","M","0.0","","35","","2","","","","100.34","","","","","","NA"
