"Longitude (x)","Latitude (y)","Station Name","Climate ID","Date/Time (LST)","Year","Month","Day","Time (LST)","Temp (°C)","Temp Flag","Dew Point Temp (°C)","Dew Point Temp Flag","Rel Hum (%)","Rel Hum Flag","Precip. Amount (mm)","Precip. Amount Flag","Wind Dir (10s deg)","Wind Dir Flag","Wind Spd (km/h)","Wind Spd Flag","Visibility (km)","Visibility Flag","Stn Press (kPa)","Stn Press Flag","Hmdx","Hmdx Flag","Wind Chill","Wind Chill Flag","Weather"
"-79.33","42.97","WELLAND-PELHAM","6139449","2021-08-01 00:00","2021","08","01","00:00","17.9","","17.9","","100","","0.0","","18","","7","","","","99.01","","","","","","NA"
"-79.33","42.97","WELLAND-PELHAM","6139449","2021-08-01 01:00","2021","08","01","01:00","17.8","","17.7","","100","","0.0","","19","","3","","","","98.95","","","","","","NA"
"-79.33","42.97","WELLAND-PELHAM","6139449","2021-08-01 02:00","2021","08","01","02:00","16.2","","16.2","","100","","0.0","","16","","3","","","","98.87","","","","","","NA"
"-79.33","42.97","WELLAND-PELHAM","6139449","2021-08-01 03:00","2021","08","01","03:00","15.2","","15.2","","100","","0.0","","20","","2","","","","98.87","","","","","","NA"
"-79.33","42.97","WELLAND-PELHAM","6139449","2021-08-01 04:00","2021","08","01","04:00","15.8","","15.7","","100","","0.0","","31","","2","","","","98.84","","","","","","NA"
"-79.33","42.97","WELLAND-PELHAM","6139449","2021-08-01 05:00","2021","08","01","05:00","18.2","","18.1","","100","","0.0","","26","","4","","","","98.89","","","","","","NA"
"-79.33","42.97","WELLAND-PELHAM","6139449","2021-08-01 06:00","2021","08","01","06:00","17.6","","17.5","","100","","0.0","","31","","5","","","","98.88","","","","","","NA"
"-79.33","42.97","WELLAND-PELHAM","6139449","2021-08-01 07:00","2021","08","01","07:00","17.9","","17.8","","100","","0.0","","34","","5","","","","98.90","","","","","","NA"
"-79.33","42.97","WELLAND-PELHAM","6139449","2021-08-01 08:00","2021","08","01","08:00","16.9","","16.9","","100","","0.0","","34","","11","","","","98.90","","","","","","NA"
"-79.33","42.97","WELLAND-PELHAM","6139449","2021-08-01 09:00","2021","08","01","09:00","16.3","","16.3","","100","","1.1","","29","","7","","","","98.94","","","","","","NA"
"-79.33","42.97","WELLAND-PELHAM","6139449","2021-08-01 10:00","2021","08","01","10:00","17.1","","17.1","","100","","0.6","","36","","4","","","","98.98","","","","","","NA"
"-79.33","42.97","WELLAND-PELHAM","6139449","2021-08-01 11:00","2021","08","01","11:00","19.0","","17.2","","89","","0.0","","33","","9","","","","98.98","","","","","","NA"
"-79.33","42.97","WELLAND-PELHAM","6139449","2021-08-01 12:00","2021","08","01","12:00","19.0","","17.2","","89","","0.0","","1","","4","","","","98.95","","","","","","NA"
"-79.33","42.97","WELLAND-PELHAM","6139449","2021-08-01 13:00","2021","08","01","13:00","19.3","","15.8","","80","","0.0","","36","","9","","","","99.00","","","","","","NA"
"-79.33","42.97","WELLAND-PELHAM","6139449","2021-08-01 14:00","2021","08","01","14:00","20.7","","14.4","","67","","0.0","","32","","7","","","","99.01","","","","","","NA"
"-79.33","42.97","WELLAND-PELHAM","6139449","2021-08-01 15:00","2021","08","01","15:00","20.1","","15.0","","72","","0.0","","31","","10","","","","98.99","","","","","","NA"
"-79.33","42.97","WELLAND-PELHAM","6139449","2021-08-01 16:00","2021","08","01","16:00","21.0","","15.0","","69","","0.0","","26","","8","","","","99.00","","25","","","","NA"
"-79.33","42.97","WELLAND-PELHAM","6139449","2021-08-01 17:00","2021","08","01","17:00","18.4","","18.3","","100","","0.0","","31","","13","","","","99.09","","","","","","NA"
"-79.33","42.97","WELLAND-PELHAM","6139449","2021-08-01 18:00","2021","08","01","18:00","18.1","","18.1","","100","","0.6","","33","","9","","","","99.09","","","","","","NA"
"-79.33","42.97","WELLAND-PELHAM","6139449","2021-08-01 19:00","2021","08","01","19:00","16.8","","16.8","","100","","0.0","","30","","8","","","","99.14","","","","","","NA"
"-79.33","42.97","WELLAND-PELHAM","6139449","2021-08-01 20:00","2021","08","01","20:00","16.2","","16.2","","100","","0.0","","34","","4","","","","99.24","","","","","","NA"
"-79.33","42.97","WELLAND-PELHAM","6139449","2021-08-01 21:00","2021","08","01","21:00","15.6","","15.6","","100","","14.5","","3","","17","","","","99.35","","","","","","NA"
"-79.33","42.97","WELLAND-PELHAM","6139449","2021-08-01 22:00","2021","08","01","22:00","16.0","","16.0","","100","","7.4","","33","","6","","","","99.36","","","","","","NA"
"-79.33","42.97","WELLAND-PELHAM","6139449","2021-08-01 23:00","2021","08","01","23:00","14.5","","14.5","","100","","0.0","","33","","6","","","","99.38","","","","","","NA"
"-79.33","42.97","WELLAND-PELHAM","6139449","2021-08-02 00:00","2021","08","02","00:00","13.4","","13.4","","100","","0.0","","32","","8","","","","99.42","","","","","","NA"
"-79.33","42.97","WELLAND-PELHAM","6139449","2021-08-02 01:00","2021","08","02","01:00","13.9","","13.9","","100","","0.0","","30","","11","","","","99.44","","","","","","NA"
"-79.33","42.97","WELLAND-PELHAM","6139449","2021-08-02 02:00","2021","08","02","02:00","13.7","","13.6","","100","","0.0","","29","","12","","","","99.45","","","","","","NA"
"-79.33","42.97","WELLAND-PELHAM","6139449","2021-08-02 03:00","2021","08","02","03:00","12.8","","12.8","","100","","0.0","","30","","9","","","","99.48","","","","","","NA"
"-79.33","42.97","WELLAND-PELHAM","6139449","2021-08-02 04:00","2021","08","02","04:00","12.0","","12.0","","100","","0.0","","29","","8","","","","99.53","","","","","","NA"
"-79.33","42.97","WELLAND-PELHAM","6139449","2021-08-02 05:00","2021","08","02","05:00","11.6","","11.6","","100","","0.0","","28","","3","","","","99.58","","","","","","NA"
"-79.33","42.97","WELLAND-PELHAM","6139449","2021-08-02 06:00","2021","08","02","06:00","12.1","","12.1","","100","","0.0","","29","","6","","","","99.63","","","","","","NA"
"-79.33","42.97","WELLAND-PELHAM","6139449","2021-08-02 07:00","2021","08","02","07:00","14.3","","14.3","","100","","0.0","","30","","9","","","","99.69","","","","","","NA"
"-79.33","42.97","WELLAND-PELHAM","6139449","2021-08-02 08:00","2021","08","02","08:00","17.1","","17.1","","100","","0.0","","32","","9","","","","99.73","","","","","","NA"
"-79.33","42.97","WELLAND-PELHAM","6139449","2021-08-02 09:00","2021","08","02","09:00","18.9","","16.4","","85","","0.0","","33","","6","","","","99.77","","","","","","NA"
"-79.33","42.97","WELLAND-PELHAM","6139449","2021-08-02 10:00","2021","08","02","10:00","20.5","","14.4","","68","","0.0","","33","","8","","","","99.81","","","","","","NA"
"-79.33","42.97","WELLAND-PELHAM","6139449","2021-08-02 11:00","2021","08","02","11:00","21.3","","12.9","","59","","0.0","","36","","10","","","","99.84","","","","","","NA"
"-79.33","42.97","WELLAND-PELHAM","6139449","2021-08-02 12:00","2021","08","02","12:00","21.6","","9.3","","46","","0.0","","36","","12","","","","99.83","","","","","","NA"
"-79.33","42.97","WELLAND-PELHAM","6139449","2021-08-02 13:00","2021","08","02","13:00","22.1","","10.2","","47","","0.0","","1","","9","","","","99.82","","","","","","NA"
"-79.33","42.97","WELLAND-PELHAM","6139449","2021-08-02 14:00","2021","08","02","14:00","22.3","","7.9","","40","","0.0","","36","","9","","","","99.79","","","","","","NA"
"-79.33","42.97","WELLAND-PELHAM","6139449","2021-08-02 15:00","2021","08","02","15:00","22.7","","7.5","","38","","0.0","","33","","10","","","","99.77","","","","","","NA"
"-79.33","42.97","WELLAND-PELHAM","6139449","2021-08-02 16:00","2021","08","02","16:00","23.1","","8.0","","38","","0.0","","32","","6","","","","99.75","","","","","","NA"
"-79.33","42.97","WELLAND-PELHAM","6139449","2021-08-02 17:00","2021","08","02","17:00","23.5","","9.5","","41","","0.0","","28","","3","","","","99.73","","25","","","","NA"
"-79.33","42.97","WELLAND-PELHAM","6139449","2021-08-02 18:00","2021","08","02","18:00","21.4","","12.3","","56","","0.0","","20","","9","","","","99.73","","","","","","NA"
"-79.33","42.97","WELLAND-PELHAM","6139449","2021-08-02 19:00","2021","08","02","19:00","20.3","","12.2","","60","","0.0","","20","","7","","","","99.74","","","","","","NA"
"-79.33","42.97","WELLAND-PELHAM","6139449","2021-08-02 20:00","2021","08","02","20:00","18.5","","12.6","","68","","0.0","","20","","4","","","","99.77","","","","","","NA"
"-79.33","42.97","WELLAND-PELHAM","6139449","2021-08-02 21:00","2021","08","02","21:00","17.4","","13.4","","77","","0.0","","20","","4","","","","99.78","","","","","","NA"
"-79.33","42.97","WELLAND-PELHAM","6139449","2021-08-02 22:00","2021","08","02","22:00","15.3","","13.6","","90","","0.0","","","","0","","","","99.79","","","","","","NA"
"-79.33","42.97","WELLAND-PELHAM","6139449","2021-08-02 23:00","2021","08","02","23:00","14.1","","14.1","","100","","0.0","","","","0","","","","99.81","","","","","","NA"
"-79.33","42.97","WELLAND-PELHAM","6139449","2021-08-03 00:00","2021","08","03","00:00","13.5","","13.4","","100","","0.0","","","","0","","","","99.86","","","","","","NA"
"-79.33","42.97","WELLAND-PELHAM","6139449","2021-08-03 01:00","2021","08","03","01:00","13.1","","13.1","","100","","0.0","","","","0","","","","99.84","","","","","","NA"
"-79.33","42.97","WELLAND-PELHAM","6139449","2021-08-03 02:00","2021","08","03","02:00","12.8","","12.8","","100","","0.0","","0","","1","","","","99.80","","","","","","NA"
"-79.33","42.97","WELLAND-PELHAM","6139449","2021-08-03 03:00","2021","08","03","03:00","11.6","","11.6","","100","","0.0","","","","0","","","","99.81","","","","","","NA"
"-79.33","42.97","WELLAND-PELHAM","6139449","2021-08-03 04:00","2021","08","03","04:00","11.6","","11.6","","100","","0.0","","","","0","","","","99.82","","","","","","NA"
"-79.33","42.97","WELLAND-PELHAM","6139449","2021-08-03 05:00","2021","08","03","05:00","11.1","","11.1","","100","","0.0","","","","0","","","","99.82","","","","","","NA"
"-79.33","42.97","WELLAND-PELHAM","6139449","2021-08-03 06:00","2021","08","03","06:00","12.4","","12.4","","100","","0.0","","","","0","","","","99.84","","","","","","NA"
"-79.33","42.97","WELLAND-PELHAM","6139449","2021-08-03 07:00","2021","08","03","07:00","16.4","","16.4","","100","","0.0","","","","0","","","","99.85","","","","","","NA"
"-79.33","42.97","WELLAND-PELHAM","6139449","2021-08-03 08:00","2021","08","03","08:00","19.0","","15.4","","80","","0.0","","16","","2","","","","99.88","","","","","","NA"
"-79.33","42.97","WELLAND-PELHAM","6139449","2021-08-03 09:00","2021","08","03","09:00","21.5","","16.9","","75","","0.0","","25","","4","","","","99.90","","27","","","","NA"
"-79.33","42.97","WELLAND-PELHAM","6139449","2021-08-03 10:00","2021","08","03","10:00","22.0","","15.1","","65","","0.0","","27","","10","","","","99.91","","26","","","","NA"
"-79.33","42.97","WELLAND-PELHAM","6139449","2021-08-03 11:00","2021","08","03","11:00","23.1","","14.4","","58","","0.0","","27","","8","","","","99.88","","27","","","","NA"
"-79.33","42.97","WELLAND-PELHAM","6139449","2021-08-03 12:00","2021","08","03","12:00","23.1","","17.2","","69","","0.0","","21","","6","","","","99.84","","29","","","","NA"
"-79.33","42.97","WELLAND-PELHAM","6139449","2021-08-03 13:00","2021","08","03","13:00","22.6","","16.7","","69","","0.0","","20","","15","","","","99.80","","28","","","","NA"
"-79.33","42.97","WELLAND-PELHAM","6139449","2021-08-03 14:00","2021","08","03","14:00","23.3","","15.0","","60","","0.0","","21","","12","","","","99.77","","27","","","","NA"
"-79.33","42.97","WELLAND-PELHAM","6139449","2021-08-03 15:00","2021","08","03","15:00","23.9","","14.5","","55","","0.0","","20","","10","","","","99.73","","28","","","","NA"
"-79.33","42.97","WELLAND-PELHAM","6139449","2021-08-03 16:00","2021","08","03","16:00","24.3","","15.1","","57","","0.0","","26","","9","","","","99.72","","28","","","","NA"
"-79.33","42.97","WELLAND-PELHAM","6139449","2021-08-03 17:00","2021","08","03","17:00","23.8","","13.7","","53","","0.0","","25","","7","","","","99.72","","27","","","","NA"
"-79.33","42.97","WELLAND-PELHAM","6139449","2021-08-03 18:00","2021","08","03","18:00","23.3","","14.5","","57","","0.0","","26","","6","","","","99.70","","27","","","","NA"
"-79.33","42.97","WELLAND-PELHAM","6139449","2021-08-03 19:00","2021","08","03","19:00","22.0","","15.4","","66","","0.0","","0","","1","","","","99.71","","26","","","","NA"
"-79.33","42.97","WELLAND-PELHAM","6139449","2021-08-03 20:00","2021","08","03","20:00","19.6","","15.8","","79","","0.0","","20","","5","","","","99.76","","","","","","NA"
"-79.33","42.97","WELLAND-PELHAM","6139449","2021-08-03 21:00","2021","08","03","21:00","19.1","","14.9","","77","","0.0","","22","","5","","","","99.80","","","","","","NA"
"-79.33","42.97","WELLAND-PELHAM","6139449","2021-08-03 22:00","2021","08","03","22:00","16.4","","16.4","","100","","0.0","","29","","1","","","","99.81","","","","","","NA"
"-79.33","42.97","WELLAND-PELHAM","6139449","2021-08-03 23:00","2021","08","03","23:00","14.9","","14.8","","100","","0.0","","8","","2","","","","99.80","","","","","","NA"
"-79.33","42.97","WELLAND-PELHAM","6139449","2021-08-04 00:00","2021","08","04","00:00","14.0","","14.0","","100","","0.0","","","","0","","","","99.78","","","","","","NA"
"-79.33","42.97","WELLAND-PELHAM","6139449","2021-08-04 01:00","2021","08","04","01:00","13.6","","13.6","","100","","0.0","","15","","2","","","","99.75","","","","","","NA"
"-79.33","42.97","WELLAND-PELHAM","6139449","2021-08-04 02:00","2021","08","04","02:00","13.5","","13.4","","100","","0.0","","","","0","","","","99.78","","","","","","NA"
"-79.33","42.97","WELLAND-PELHAM","6139449","2021-08-04 03:00","2021","08","04","03:00","12.9","","12.9","","100","","0.0","","","","0","","","","99.78","","","","","","NA"
"-79.33","42.97","WELLAND-PELHAM","6139449","2021-08-04 04:00","2021","08","04","04:00","12.9","","12.9","","100","","0.0","","32","","1","","","","99.81","","","","","","NA"
"-79.33","42.97","WELLAND-PELHAM","6139449","2021-08-04 05:00","2021","08","04","05:00","12.6","","12.6","","100","","0.0","","0","","1","","","","99.86","","","","","","NA"
"-79.33","42.97","WELLAND-PELHAM","6139449","2021-08-04 06:00","2021","08","04","06:00","13.5","","13.5","","100","","0.0","","","","0","","","","99.90","","","","","","NA"
"-79.33","42.97","WELLAND-PELHAM","6139449","2021-08-04 07:00","2021","08","04","07:00","16.6","","16.6","","100","","0.0","","30","","2","","","","99.93","","","","","","NA"
"-79.33","42.97","WELLAND-PELHAM","6139449","2021-08-04 08:00","2021","08","04","08:00","20.8","","17.7","","82","","0.0","","0","","1","","","","99.96","","27","","","","NA"
"-79.33","42.97","WELLAND-PELHAM","6139449","2021-08-04 09:00","2021","08","04","09:00","22.6","","15.2","","63","","0.0","","31","","3","","","","99.98","","27","","","","NA"
"-79.33","42.97","WELLAND-PELHAM","6139449","2021-08-04 10:00","2021","08","04","10:00","23.8","","15.4","","59","","0.0","","25","","2","","","","99.97","","28","","","","NA"
"-79.33","42.97","WELLAND-PELHAM","6139449","2021-08-04 11:00","2021","08","04","11:00","24.5","","14.0","","52","","0.0","","31","","4","","","","99.96","","28","","","","NA"
"-79.33","42.97","WELLAND-PELHAM","6139449","2021-08-04 12:00","2021","08","04","12:00","25.6","","12.0","","43","","0.0","","2","","5","","","","99.94","","28","","","","NA"
"-79.33","42.97","WELLAND-PELHAM","6139449","2021-08-04 13:00","2021","08","04","13:00","25.6","","12.3","","44","","0.0","","2","","4","","","","99.92","","28","","","","NA"
"-79.33","42.97","WELLAND-PELHAM","6139449","2021-08-04 14:00","2021","08","04","14:00","25.4","","13.1","","46","","0.0","","8","","5","","","","99.88","","28","","","","NA"
"-79.33","42.97","WELLAND-PELHAM","6139449","2021-08-04 15:00","2021","08","04","15:00","26.5","","15.4","","51","","0.0","","35","","7","","","","99.84","","31","","","","NA"
"-79.33","42.97","WELLAND-PELHAM","6139449","2021-08-04 16:00","2021","08","04","16:00","25.9","","14.3","","49","","0.0","","36","","14","","","","99.82","","29","","","","NA"
"-79.33","42.97","WELLAND-PELHAM","6139449","2021-08-04 17:00","2021","08","04","17:00","25.7","","14.4","","49","","0.0","","2","","12","","","","99.81","","29","","","","NA"
"-79.33","42.97","WELLAND-PELHAM","6139449","2021-08-04 18:00","2021","08","04","18:00","24.9","","12.5","","46","","0.0","","4","","11","","","","99.80","","27","","","","NA"
"-79.33","42.97","WELLAND-PELHAM","6139449","2021-08-04 19:00","2021","08","04","19:00","23.2","","12.1","","50","","0.0","","3","","8","","","","99.82","","26","","","","NA"
"-79.33","42.97","WELLAND-PELHAM","6139449","2021-08-04 20:00","2021","08","04","20:00","21.1","","13.3","","61","","0.0","","4","","5","","","","99.85","","","","","","NA"
"-79.33","42.97","WELLAND-PELHAM","6139449","2021-08-04 21:00","2021","08","04","21:00","18.7","","15.5","","82","","0.0","","0","","1","","","","99.89","","","","","","NA"
"-79.33","42.97","WELLAND-PELHAM","6139449","2021-08-04 22:00","2021","08","04","22:00","17.2","","16.1","","93","","0.0","","","","0","","","","99.89","","","","","","NA"
"-79.33","42.97","WELLAND-PELHAM","6139449","2021-08-04 23:00","2021","08","04","23:00","16.6","","16.6","","100","","0.0","","","","0","","","","99.89","","","","","","NA"
"-79.33","42.97","WELLAND-PELHAM","6139449","2021-08-05 00:00","2021","08","05","00:00","16.3","","16.2","","100","","0.0","","","","0","","","","99.89","","","","","","NA"
"-79.33","42.97","WELLAND-PELHAM","6139449","2021-08-05 01:00","2021","08","05","01:00","15.7","","15.7","","100","","0.0","","","","0","","","","99.85","","","","","","NA"
"-79.33","42.97","WELLAND-PELHAM","6139449","2021-08-05 02:00","2021","08","05","02:00","15.0","","14.9","","100","","0.0","","36","","2","","","","99.83","","","","","","NA"
"-79.33","42.97","WELLAND-PELHAM","6139449","2021-08-05 03:00","2021","08","05","03:00","14.3","","14.3","","100","","0.0","","","","0","","","","99.80","","","","","","NA"
"-79.33","42.97","WELLAND-PELHAM","6139449","2021-08-05 04:00","2021","08","05","04:00","14.6","","14.6","","100","","0.0","","28","","1","","","","99.82","","","","","","NA"
"-79.33","42.97","WELLAND-PELHAM","6139449","2021-08-05 05:00","2021","08","05","05:00","14.3","","14.3","","100","","0.0","","0","","1","","","","99.84","","","","","","NA"
"-79.33","42.97","WELLAND-PELHAM","6139449","2021-08-05 06:00","2021","08","05","06:00","15.1","","15.1","","100","","0.0","","16","","1","","","","99.89","","","","","","NA"
"-79.33","42.97","WELLAND-PELHAM","6139449","2021-08-05 07:00","2021","08","05","07:00","19.0","","18.7","","98","","0.0","","","","0","","","","99.90","","","","","","NA"
"-79.33","42.97","WELLAND-PELHAM","6139449","2021-08-05 08:00","2021","08","05","08:00","22.9","","19.4","","81","","0.0","","2","","2","","","","99.92","","30","","","","NA"
"-79.33","42.97","WELLAND-PELHAM","6139449","2021-08-05 09:00","2021","08","05","09:00","24.2","","16.8","","63","","0.0","","3","","4","","","","99.94","","29","","","","NA"
"-79.33","42.97","WELLAND-PELHAM","6139449","2021-08-05 10:00","2021","08","05","10:00","25.4","","17.5","","62","","0.0","","7","","6","","","","99.93","","31","","","","NA"
"-79.33","42.97","WELLAND-PELHAM","6139449","2021-08-05 11:00","2021","08","05","11:00","26.4","","15.5","","51","","0.0","","10","","5","","","","99.92","","31","","","","NA"
"-79.33","42.97","WELLAND-PELHAM","6139449","2021-08-05 12:00","2021","08","05","12:00","25.9","","15.5","","53","","0.0","","31","","4","","","","99.88","","30","","","","NA"
"-79.33","42.97","WELLAND-PELHAM","6139449","2021-08-05 13:00","2021","08","05","13:00","27.1","","16.7","","53","","0.0","","5","","7","","","","99.85","","32","","","","NA"
"-79.33","42.97","WELLAND-PELHAM","6139449","2021-08-05 14:00","2021","08","05","14:00","27.6","","15.5","","48","","0.0","","33","","3","","","","99.81","","32","","","","NA"
"-79.33","42.97","WELLAND-PELHAM","6139449","2021-08-05 15:00","2021","08","05","15:00","27.1","","15.5","","49","","0.0","","32","","7","","","","99.78","","31","","","","NA"
"-79.33","42.97","WELLAND-PELHAM","6139449","2021-08-05 16:00","2021","08","05","16:00","27.8","","14.6","","45","","0.0","","27","","6","","","","99.75","","32","","","","NA"
"-79.33","42.97","WELLAND-PELHAM","6139449","2021-08-05 17:00","2021","08","05","17:00","27.5","","14.4","","44","","0.0","","23","","4","","","","99.75","","31","","","","NA"
"-79.33","42.97","WELLAND-PELHAM","6139449","2021-08-05 18:00","2021","08","05","18:00","26.5","","14.7","","48","","0.0","","22","","5","","","","99.74","","30","","","","NA"
"-79.33","42.97","WELLAND-PELHAM","6139449","2021-08-05 19:00","2021","08","05","19:00","24.4","","15.0","","56","","0.0","","22","","4","","","","99.74","","28","","","","NA"
"-79.33","42.97","WELLAND-PELHAM","6139449","2021-08-05 20:00","2021","08","05","20:00","21.9","","17.3","","75","","0.0","","25","","2","","","","99.77","","27","","","","NA"
"-79.33","42.97","WELLAND-PELHAM","6139449","2021-08-05 21:00","2021","08","05","21:00","19.0","","18.9","","100","","0.0","","29","","3","","","","99.81","","","","","","NA"
"-79.33","42.97","WELLAND-PELHAM","6139449","2021-08-05 22:00","2021","08","05","22:00","20.7","","20.7","","100","","0.0","","21","","4","","","","99.82","","29","","","","NA"
"-79.33","42.97","WELLAND-PELHAM","6139449","2021-08-05 23:00","2021","08","05","23:00","20.5","","20.5","","100","","0.0","","17","","2","","","","99.82","","28","","","","NA"
"-79.33","42.97","WELLAND-PELHAM","6139449","2021-08-06 00:00","2021","08","06","00:00","18.6","","18.6","","100","","0.0","","","","0","","","","99.85","","","","","","NA"
"-79.33","42.97","WELLAND-PELHAM","6139449","2021-08-06 01:00","2021","08","06","01:00","17.4","","17.4","","100","","0.0","","","","0","","","","99.83","","","","","","NA"
"-79.33","42.97","WELLAND-PELHAM","6139449","2021-08-06 02:00","2021","08","06","02:00","15.9","","15.9","","100","","0.0","","0","","1","","","","99.84","","","","","","NA"
"-79.33","42.97","WELLAND-PELHAM","6139449","2021-08-06 03:00","2021","08","06","03:00","15.2","","15.2","","100","","0.0","","","","0","","","","99.82","","","","","","NA"
"-79.33","42.97","WELLAND-PELHAM","6139449","2021-08-06 04:00","2021","08","06","04:00","14.4","","14.4","","100","","0.0","","","","0","","","","99.84","","","","","","NA"
"-79.33","42.97","WELLAND-PELHAM","6139449","2021-08-06 05:00","2021","08","06","05:00","14.0","","14.0","","100","","0.0","","","","0","","","","99.85","","","","","","NA"
"-79.33","42.97","WELLAND-PELHAM","6139449","2021-08-06 06:00","2021","08","06","06:00","15.1","","15.1","","100","","0.0","","","","0","","","","99.86","","","","","","NA"
"-79.33","42.97","WELLAND-PELHAM","6139449","2021-08-06 07:00","2021","08","06","07:00","17.7","","17.7","","100","","0.0","","","","0","","","","99.87","","","","","","NA"
"-79.33","42.97","WELLAND-PELHAM","6139449","2021-08-06 08:00","2021","08","06","08:00","22.3","","22.3","","100","","0.0","","17","","9","","","","99.87","","32","","","","NA"
"-79.33","42.97","WELLAND-PELHAM","6139449","2021-08-06 09:00","2021","08","06","09:00","23.4","","19.9","","81","","0.0","","19","","11","","","","99.87","","31","","","","NA"
"-79.33","42.97","WELLAND-PELHAM","6139449","2021-08-06 10:00","2021","08","06","10:00","24.9","","16.7","","60","","0.0","","21","","10","","","","99.87","","30","","","","NA"
"-79.33","42.97","WELLAND-PELHAM","6139449","2021-08-06 11:00","2021","08","06","11:00","25.9","","16.6","","56","","0.0","","19","","12","","","","99.85","","31","","","","NA"
"-79.33","42.97","WELLAND-PELHAM","6139449","2021-08-06 12:00","2021","08","06","12:00","26.5","","15.3","","50","","0.0","","20","","13","","","","99.84","","31","","","","NA"
"-79.33","42.97","WELLAND-PELHAM","6139449","2021-08-06 13:00","2021","08","06","13:00","27.6","","15.1","","46","","0.0","","19","","13","","","","99.78","","32","","","","NA"
"-79.33","42.97","WELLAND-PELHAM","6139449","2021-08-06 14:00","2021","08","06","14:00","28.0","","17.8","","54","","0.0","","20","","10","","","","99.75","","34","","","","NA"
"-79.33","42.97","WELLAND-PELHAM","6139449","2021-08-06 15:00","2021","08","06","15:00","27.6","","17.1","","53","","0.0","","26","","12","","","","99.70","","33","","","","NA"
"-79.33","42.97","WELLAND-PELHAM","6139449","2021-08-06 16:00","2021","08","06","16:00","27.5","","17.8","","56","","0.0","","27","","11","","","","99.66","","33","","","","NA"
"-79.33","42.97","WELLAND-PELHAM","6139449","2021-08-06 17:00","2021","08","06","17:00","27.7","","17.4","","53","","0.0","","25","","8","","","","99.62","","33","","","","NA"
"-79.33","42.97","WELLAND-PELHAM","6139449","2021-08-06 18:00","2021","08","06","18:00","26.8","","17.2","","56","","0.0","","24","","7","","","","99.58","","32","","","","NA"
"-79.33","42.97","WELLAND-PELHAM","6139449","2021-08-06 19:00","2021","08","06","19:00","24.5","","19.2","","72","","0.0","","19","","7","","","","99.58","","31","","","","NA"
"-79.33","42.97","WELLAND-PELHAM","6139449","2021-08-06 20:00","2021","08","06","20:00","22.9","","21.2","","90","","0.0","","17","","8","","","","99.56","","31","","","","NA"
"-79.33","42.97","WELLAND-PELHAM","6139449","2021-08-06 21:00","2021","08","06","21:00","22.0","","21.4","","96","","0.0","","18","","6","","","","99.62","","31","","","","NA"
"-79.33","42.97","WELLAND-PELHAM","6139449","2021-08-06 22:00","2021","08","06","22:00","21.4","","21.4","","100","","0.0","","18","","5","","","","99.60","","30","","","","NA"
"-79.33","42.97","WELLAND-PELHAM","6139449","2021-08-06 23:00","2021","08","06","23:00","21.8","","21.8","","100","","0.0","","19","","5","","","","99.61","","31","","","","NA"
"-79.33","42.97","WELLAND-PELHAM","6139449","2021-08-07 00:00","2021","08","07","00:00","21.4","","21.4","","100","","0.0","","18","","5","","","","99.60","","30","","","","NA"
"-79.33","42.97","WELLAND-PELHAM","6139449","2021-08-07 01:00","2021","08","07","01:00","21.4","","21.4","","100","","0.0","","18","","4","","","","99.57","","30","","","","NA"
"-79.33","42.97","WELLAND-PELHAM","6139449","2021-08-07 02:00","2021","08","07","02:00","21.1","","21.1","","100","","0.0","","19","","6","","","","99.53","","30","","","","NA"
"-79.33","42.97","WELLAND-PELHAM","6139449","2021-08-07 03:00","2021","08","07","03:00","19.6","","19.6","","100","","0.0","","17","","2","","","","99.52","","","","","","NA"
"-79.33","42.97","WELLAND-PELHAM","6139449","2021-08-07 04:00","2021","08","07","04:00","18.0","","18.0","","100","","0.0","","9","","3","","","","99.51","","","","","","NA"
"-79.33","42.97","WELLAND-PELHAM","6139449","2021-08-07 05:00","2021","08","07","05:00","18.2","","18.2","","100","","0.0","","0","","1","","","","99.53","","","","","","NA"
"-79.33","42.97","WELLAND-PELHAM","6139449","2021-08-07 06:00","2021","08","07","06:00","18.6","","18.6","","100","","0.0","","20","","1","","","","99.55","","","","","","NA"
"-79.33","42.97","WELLAND-PELHAM","6139449","2021-08-07 07:00","2021","08","07","07:00","21.9","","21.9","","100","","0.0","","14","","2","","","","99.56","","31","","","","NA"
"-79.33","42.97","WELLAND-PELHAM","6139449","2021-08-07 08:00","2021","08","07","08:00","24.1","","23.4","","96","","0.0","","20","","7","","","","99.56","","35","","","","NA"
"-79.33","42.97","WELLAND-PELHAM","6139449","2021-08-07 09:00","2021","08","07","09:00","25.2","","22.0","","82","","0.0","","24","","10","","","","99.55","","35","","","","NA"
"-79.33","42.97","WELLAND-PELHAM","6139449","2021-08-07 10:00","2021","08","07","10:00","26.5","","22.2","","77","","0.0","","23","","8","","","","99.55","","36","","","","NA"
"-79.33","42.97","WELLAND-PELHAM","6139449","2021-08-07 11:00","2021","08","07","11:00","26.6","","21.3","","73","","0.0","","20","","10","","","","99.53","","35","","","","NA"
"-79.33","42.97","WELLAND-PELHAM","6139449","2021-08-07 12:00","2021","08","07","12:00","27.0","","18.5","","60","","0.0","","20","","11","","","","99.52","","33","","","","NA"
"-79.33","42.97","WELLAND-PELHAM","6139449","2021-08-07 13:00","2021","08","07","13:00","26.6","","19.0","","63","","0.0","","19","","14","","","","99.53","","33","","","","NA"
"-79.33","42.97","WELLAND-PELHAM","6139449","2021-08-07 14:00","2021","08","07","14:00","27.8","","19.4","","60","","0.0","","22","","8","","","","99.44","","35","","","","NA"
"-79.33","42.97","WELLAND-PELHAM","6139449","2021-08-07 15:00","2021","08","07","15:00","27.0","","18.2","","59","","0.0","","26","","10","","","","99.47","","33","","","","NA"
"-79.33","42.97","WELLAND-PELHAM","6139449","2021-08-07 16:00","2021","08","07","16:00","25.6","","20.1","","72","","0.0","","36","","13","","","","99.46","","33","","","","NA"
"-79.33","42.97","WELLAND-PELHAM","6139449","2021-08-07 17:00","2021","08","07","17:00","25.3","","19.6","","71","","0.0","","1","","4","","","","99.41","","33","","","","NA"
"-79.33","42.97","WELLAND-PELHAM","6139449","2021-08-07 18:00","2021","08","07","18:00","25.7","","20.1","","71","","0.0","","12","","6","","","","99.41","","33","","","","NA"
"-79.33","42.97","WELLAND-PELHAM","6139449","2021-08-07 19:00","2021","08","07","19:00","23.9","","22.5","","92","","0.0","","20","","7","","","","99.40","","34","","","","NA"
"-79.33","42.97","WELLAND-PELHAM","6139449","2021-08-07 20:00","2021","08","07","20:00","22.7","","22.7","","100","","0.0","","19","","5","","","","99.49","","33","","","","NA"
"-79.33","42.97","WELLAND-PELHAM","6139449","2021-08-07 21:00","2021","08","07","21:00","22.3","","22.3","","100","","0.0","","25","","2","","","","99.56","","32","","","","NA"
"-79.33","42.97","WELLAND-PELHAM","6139449","2021-08-07 22:00","2021","08","07","22:00","20.8","","20.8","","100","","0.0","","15","","1","","","","99.56","","29","","","","NA"
"-79.33","42.97","WELLAND-PELHAM","6139449","2021-08-07 23:00","2021","08","07","23:00","20.0","","20.0","","100","","0.0","","0","","1","","","","99.50","","28","","","","NA"
"-79.33","42.97","WELLAND-PELHAM","6139449","2021-08-08 00:00","2021","08","08","00:00","19.4","","19.4","","100","","0.0","","","","0","","","","99.46","","","","","","NA"
"-79.33","42.97","WELLAND-PELHAM","6139449","2021-08-08 01:00","2021","08","08","01:00","18.9","","18.9","","100","","0.0","","0","","1","","","","99.44","","","","","","NA"
"-79.33","42.97","WELLAND-PELHAM","6139449","2021-08-08 02:00","2021","08","08","02:00","18.5","","18.5","","100","","0.0","","36","","2","","","","99.40","","","","","","NA"
"-79.33","42.97","WELLAND-PELHAM","6139449","2021-08-08 03:00","2021","08","08","03:00","18.2","","18.2","","100","","0.0","","5","","2","","","","99.39","","","","","","NA"
"-79.33","42.97","WELLAND-PELHAM","6139449","2021-08-08 04:00","2021","08","08","04:00","17.9","","17.9","","100","","0.0","","13","","2","","","","99.37","","","","","","NA"
"-79.33","42.97","WELLAND-PELHAM","6139449","2021-08-08 05:00","2021","08","08","05:00","17.6","","17.6","","100","","0.0","","33","","2","","","","99.45","","","","","","NA"
"-79.33","42.97","WELLAND-PELHAM","6139449","2021-08-08 06:00","2021","08","08","06:00","18.2","","18.2","","100","","0.0","","16","","1","","","","99.52","","","","","","NA"
"-79.33","42.97","WELLAND-PELHAM","6139449","2021-08-08 07:00","2021","08","08","07:00","20.6","","20.6","","100","","0.0","","","","0","","","","99.59","","29","","","","NA"
"-79.33","42.97","WELLAND-PELHAM","6139449","2021-08-08 08:00","2021","08","08","08:00","23.6","","23.6","","100","","0.0","","21","","6","","","","99.62","","34","","","","NA"
"-79.33","42.97","WELLAND-PELHAM","6139449","2021-08-08 09:00","2021","08","08","09:00","24.9","","24.9","","100","","0.0","","18","","7","","","","99.64","","37","","","","NA"
"-79.33","42.97","WELLAND-PELHAM","6139449","2021-08-08 10:00","2021","08","08","10:00","25.5","","20.9","","76","","0.0","","19","","10","","","","99.66","","34","","","","NA"
"-79.33","42.97","WELLAND-PELHAM","6139449","2021-08-08 11:00","2021","08","08","11:00","25.3","","22.2","","83","","0.0","","20","","13","","","","99.67","","35","","","","NA"
"-79.33","42.97","WELLAND-PELHAM","6139449","2021-08-08 12:00","2021","08","08","12:00","25.8","","21.1","","75","","0.0","","18","","13","","","","99.65","","34","","","","NA"
"-79.33","42.97","WELLAND-PELHAM","6139449","2021-08-08 13:00","2021","08","08","13:00","26.0","","21.5","","76","","0.0","","21","","11","","","","99.64","","35","","","","NA"
"-79.33","42.97","WELLAND-PELHAM","6139449","2021-08-08 14:00","2021","08","08","14:00","26.1","","21.1","","74","","0.0","","24","","9","","","","99.64","","35","","","","NA"
"-79.33","42.97","WELLAND-PELHAM","6139449","2021-08-08 15:00","2021","08","08","15:00","25.2","","21.8","","81","","0.0","","26","","9","","","","99.66","","34","","","","NA"
"-79.33","42.97","WELLAND-PELHAM","6139449","2021-08-08 16:00","2021","08","08","16:00","25.4","","20.8","","75","","0.0","","25","","7","","","","99.62","","34","","","","NA"
"-79.33","42.97","WELLAND-PELHAM","6139449","2021-08-08 17:00","2021","08","08","17:00","26.1","","20.9","","73","","0.0","","27","","5","","","","99.59","","34","","","","NA"
"-79.33","42.97","WELLAND-PELHAM","6139449","2021-08-08 18:00","2021","08","08","18:00","25.4","","21.9","","81","","0.0","","19","","5","","","","99.52","","35","","","","NA"
"-79.33","42.97","WELLAND-PELHAM","6139449","2021-08-08 19:00","2021","08","08","19:00","24.3","","23.2","","94","","0.0","","17","","7","","","","99.50","","35","","","","NA"
"-79.33","42.97","WELLAND-PELHAM","6139449","2021-08-08 20:00","2021","08","08","20:00","23.3","","23.3","","100","","0.0","","16","","6","","","","99.51","","34","","","","NA"
"-79.33","42.97","WELLAND-PELHAM","6139449","2021-08-08 21:00","2021","08","08","21:00","22.0","","22.0","","100","","0.0","","","","0","","","","99.60","","31","","","","NA"
"-79.33","42.97","WELLAND-PELHAM","6139449","2021-08-08 22:00","2021","08","08","22:00","21.7","","21.7","","100","","0.0","","","","0","","","","99.63","","31","","","","NA"
"-79.33","42.97","WELLAND-PELHAM","6139449","2021-08-08 23:00","2021","08","08","23:00","21.5","","21.5","","100","","0.0","","0","","1","","","","99.66","","30","","","","NA"
"-79.33","42.97","WELLAND-PELHAM","6139449","2021-08-09 00:00","2021","08","09","00:00","20.7","","20.7","","100","","0.0","","10","","2","","","","99.65","","29","","","","NA"
"-79.33","42.97","WELLAND-PELHAM","6139449","2021-08-09 01:00","2021","08","09","01:00","19.9","","19.9","","100","","0.0","","11","","2","","","","99.64","","","","","","NA"
"-79.33","42.97","WELLAND-PELHAM","6139449","2021-08-09 02:00","2021","08","09","02:00","20.0","","20.0","","100","","0.0","","12","","3","","","","99.64","","28","","","","NA"
"-79.33","42.97","WELLAND-PELHAM","6139449","2021-08-09 03:00","2021","08","09","03:00","20.0","","20.0","","100","","0.0","","7","","2","","","","99.65","","28","","","","NA"
"-79.33","42.97","WELLAND-PELHAM","6139449","2021-08-09 04:00","2021","08","09","04:00","19.6","","19.6","","100","","0.0","","12","","2","","","","99.66","","","","","","NA"
"-79.33","42.97","WELLAND-PELHAM","6139449","2021-08-09 05:00","2021","08","09","05:00","19.7","","19.7","","100","","0.0","","13","","2","","","","99.70","","","","","","NA"
"-79.33","42.97","WELLAND-PELHAM","6139449","2021-08-09 06:00","2021","08","09","06:00","20.8","","20.8","","100","","0.0","","","","0","","","","99.71","","29","","","","NA"
"-79.33","42.97","WELLAND-PELHAM","6139449","2021-08-09 07:00","2021","08","09","07:00","22.9","","22.9","","100","","0.0","","12","","4","","","","99.77","","33","","","","NA"
"-79.33","42.97","WELLAND-PELHAM","6139449","2021-08-09 08:00","2021","08","09","08:00","24.8","","24.8","","100","","0.0","","18","","7","","","","99.78","","37","","","","NA"
"-79.33","42.97","WELLAND-PELHAM","6139449","2021-08-09 09:00","2021","08","09","09:00","26.4","","24.5","","89","","0.0","","18","","9","","","","99.74","","38","","","","NA"
"-79.33","42.97","WELLAND-PELHAM","6139449","2021-08-09 10:00","2021","08","09","10:00","27.7","","22.8","","75","","0.0","","20","","10","","","","99.76","","38","","","","NA"
"-79.33","42.97","WELLAND-PELHAM","6139449","2021-08-09 11:00","2021","08","09","11:00","28.6","","23.1","","72","","0.0","","22","","9","","","","99.73","","39","","","","NA"
"-79.33","42.97","WELLAND-PELHAM","6139449","2021-08-09 12:00","2021","08","09","12:00","29.0","","22.7","","69","","0.0","","21","","10","","","","99.72","","39","","","","NA"
"-79.33","42.97","WELLAND-PELHAM","6139449","2021-08-09 13:00","2021","08","09","13:00","29.5","","21.2","","61","","0.0","","20","","8","","","","99.67","","38","","","","NA"
"-79.33","42.97","WELLAND-PELHAM","6139449","2021-08-09 14:00","2021","08","09","14:00","29.9","","20.3","","56","","0.0","","24","","11","","","","99.63","","38","","","","NA"
"-79.33","42.97","WELLAND-PELHAM","6139449","2021-08-09 15:00","2021","08","09","15:00","30.3","","21.4","","59","","0.0","","21","","7","","","","99.56","","39","","","","NA"
"-79.33","42.97","WELLAND-PELHAM","6139449","2021-08-09 16:00","2021","08","09","16:00","30.3","","21.4","","59","","0.0","","18","","6","","","","99.51","","39","","","","NA"
"-79.33","42.97","WELLAND-PELHAM","6139449","2021-08-09 17:00","2021","08","09","17:00","31.0","","20.9","","55","","0.0","","19","","2","","","","99.51","","39","","","","NA"
"-79.33","42.97","WELLAND-PELHAM","6139449","2021-08-09 18:00","2021","08","09","18:00","29.9","","22.9","","66","","0.0","","28","","6","","","","99.51","","40","","","","NA"
"-79.33","42.97","WELLAND-PELHAM","6139449","2021-08-09 19:00","2021","08","09","19:00","26.8","","23.4","","82","","0.0","","","","0","","","","99.53","","37","","","","NA"
"-79.33","42.97","WELLAND-PELHAM","6139449","2021-08-09 20:00","2021","08","09","20:00","25.0","","25.0","","100","","0.0","","","","0","","","","99.55","","37","","","","NA"
"-79.33","42.97","WELLAND-PELHAM","6139449","2021-08-09 21:00","2021","08","09","21:00","23.3","","23.3","","100","","0.0","","9","","4","","","","99.55","","34","","","","NA"
"-79.33","42.97","WELLAND-PELHAM","6139449","2021-08-09 22:00","2021","08","09","22:00","22.9","","22.9","","100","","0.0","","0","","1","","","","99.53","","33","","","","NA"
"-79.33","42.97","WELLAND-PELHAM","6139449","2021-08-09 23:00","2021","08","09","23:00","24.5","","24.5","","100","","0.0","","14","","8","","","","99.52","","36","","","","NA"
"-79.33","42.97","WELLAND-PELHAM","6139449","2021-08-10 00:00","2021","08","10","00:00","25.7","","23.0","","85","","0.0","","19","","9","","","","99.54","","36","","","","NA"
"-79.33","42.97","WELLAND-PELHAM","6139449","2021-08-10 01:00","2021","08","10","01:00","24.8","","24.8","","100","","0.0","","18","","6","","","","99.50","","37","","","","NA"
"-79.33","42.97","WELLAND-PELHAM","6139449","2021-08-10 02:00","2021","08","10","02:00","24.7","","24.7","","100","","0.0","","17","","8","","","","99.49","","37","","","","NA"
"-79.33","42.97","WELLAND-PELHAM","6139449","2021-08-10 03:00","2021","08","10","03:00","24.3","","24.3","","100","","0.0","","18","","4","","","","99.46","","36","","","","NA"
"-79.33","42.97","WELLAND-PELHAM","6139449","2021-08-10 04:00","2021","08","10","04:00","24.7","","24.4","","98","","0.0","","17","","11","","","","99.44","","36","","","","NA"
"-79.33","42.97","WELLAND-PELHAM","6139449","2021-08-10 05:00","2021","08","10","05:00","24.3","","22.6","","90","","0.0","","17","","11","","","","99.41","","34","","","","NA"
"-79.33","42.97","WELLAND-PELHAM","6139449","2021-08-10 06:00","2021","08","10","06:00","23.8","","23.8","","100","","0.0","","20","","13","","","","99.47","","35","","","","NA"
"-79.33","42.97","WELLAND-PELHAM","6139449","2021-08-10 07:00","2021","08","10","07:00","24.2","","24.1","","99","","0.0","","20","","14","","","","99.47","","36","","","","NA"
"-79.33","42.97","WELLAND-PELHAM","6139449","2021-08-10 08:00","2021","08","10","08:00","24.1","","24.1","","100","","0.0","","21","","15","","","","99.47","","35","","","","NA"
"-79.33","42.97","WELLAND-PELHAM","6139449","2021-08-10 09:00","2021","08","10","09:00","23.8","","23.8","","100","","0.0","","19","","15","","","","99.41","","35","","","","NA"
"-79.33","42.97","WELLAND-PELHAM","6139449","2021-08-10 10:00","2021","08","10","10:00","24.5","","24.5","","100","","0.0","","20","","15","","","","99.41","","36","","","","NA"
"-79.33","42.97","WELLAND-PELHAM","6139449","2021-08-10 11:00","2021","08","10","11:00","24.7","","24.7","","100","","0.0","","19","","11","","","","99.36","","37","","","","NA"
"-79.33","42.97","WELLAND-PELHAM","6139449","2021-08-10 12:00","2021","08","10","12:00","26.3","","22.9","","82","","0.0","","20","","12","","","","99.30","","36","","","","NA"
"-79.33","42.97","WELLAND-PELHAM","6139449","2021-08-10 13:00","2021","08","10","13:00","27.0","","22.3","","76","","0.0","","20","","15","","","","99.31","","37","","","","NA"
"-79.33","42.97","WELLAND-PELHAM","6139449","2021-08-10 14:00","2021","08","10","14:00","26.7","","23.6","","83","","0.0","","23","","15","","","","99.27","","38","","","","NA"
"-79.33","42.97","WELLAND-PELHAM","6139449","2021-08-10 15:00","2021","08","10","15:00","26.0","","26.0","","100","","0.0","","21","","10","","","","99.23","","39","","","","NA"
"-79.33","42.97","WELLAND-PELHAM","6139449","2021-08-10 16:00","2021","08","10","16:00","27.2","","24.2","","84","","0.0","","21","","14","","","","99.15","","39","","","","NA"
"-79.33","42.97","WELLAND-PELHAM","6139449","2021-08-10 17:00","2021","08","10","17:00","26.8","","25.1","","90","","0.0","","21","","17","","","","99.12","","39","","","","NA"
"-79.33","42.97","WELLAND-PELHAM","6139449","2021-08-10 18:00","2021","08","10","18:00","26.2","","26.2","","100","","0.0","","21","","13","","","","99.10","","40","","","","NA"
"-79.33","42.97","WELLAND-PELHAM","6139449","2021-08-10 19:00","2021","08","10","19:00","26.1","","26.1","","100","","0.0","","22","","11","","","","99.12","","40","","","","NA"
"-79.33","42.97","WELLAND-PELHAM","6139449","2021-08-10 20:00","2021","08","10","20:00","25.5","","25.5","","100","","0.0","","20","","11","","","","99.11","","38","","","","NA"
"-79.33","42.97","WELLAND-PELHAM","6139449","2021-08-10 21:00","2021","08","10","21:00","25.6","","25.6","","100","","0.0","","23","","10","","","","99.20","","39","","","","NA"
"-79.33","42.97","WELLAND-PELHAM","6139449","2021-08-10 22:00","2021","08","10","22:00","25.3","","25.3","","100","","0.0","","22","","6","","","","99.21","","38","","","","NA"
"-79.33","42.97","WELLAND-PELHAM","6139449","2021-08-10 23:00","2021","08","10","23:00","25.0","","25.0","","100","","0.0","","24","","7","","","","99.19","","37","","","","NA"
"-79.33","42.97","WELLAND-PELHAM","6139449","2021-08-11 00:00","2021","08","11","00:00","25.1","","25.1","","100","","0.0","","24","","7","","","","99.23","","38","","","","NA"
"-79.33","42.97","WELLAND-PELHAM","6139449","2021-08-11 01:00","2021","08","11","01:00","25.3","","25.3","","100","","0.0","","24","","7","","","","99.18","","38","","","","NA"
"-79.33","42.97","WELLAND-PELHAM","6139449","2021-08-11 02:00","2021","08","11","02:00","25.1","","25.1","","100","","0.0","","22","","9","","","","99.14","","38","","","","NA"
"-79.33","42.97","WELLAND-PELHAM","6139449","2021-08-11 03:00","2021","08","11","03:00","24.9","","24.9","","100","","0.0","","24","","8","","","","99.13","","37","","","","NA"
"-79.33","42.97","WELLAND-PELHAM","6139449","2021-08-11 04:00","2021","08","11","04:00","25.0","","25.0","","100","","0.0","","23","","8","","","","99.17","","37","","","","NA"
"-79.33","42.97","WELLAND-PELHAM","6139449","2021-08-11 05:00","2021","08","11","05:00","25.3","","25.3","","100","","0.0","","25","","10","","","","99.15","","38","","","","NA"
"-79.33","42.97","WELLAND-PELHAM","6139449","2021-08-11 06:00","2021","08","11","06:00","23.0","","23.0","","100","","0.0","","27","","27","","","","99.42","","33","","","","NA"
"-79.33","42.97","WELLAND-PELHAM","6139449","2021-08-11 07:00","2021","08","11","07:00","21.8","","21.8","","100","","1.5","","13","","11","","","","99.14","","31","","","","NA"
"-79.33","42.97","WELLAND-PELHAM","6139449","2021-08-11 08:00","2021","08","11","08:00","22.8","","22.8","","100","","0.5","","21","","14","","","","99.23","","33","","","","NA"
"-79.33","42.97","WELLAND-PELHAM","6139449","2021-08-11 09:00","2021","08","11","09:00","25.7","","25.7","","100","","0.0","","21","","14","","","","99.21","","39","","","","NA"
"-79.33","42.97","WELLAND-PELHAM","6139449","2021-08-11 10:00","2021","08","11","10:00","26.1","","26.1","","100","","0.0","","22","","21","","","","99.19","","40","","","","NA"
"-79.33","42.97","WELLAND-PELHAM","6139449","2021-08-11 11:00","2021","08","11","11:00","26.8","","26.2","","97","","0.0","","24","","19","","","","99.23","","40","","","","NA"
"-79.33","42.97","WELLAND-PELHAM","6139449","2021-08-11 12:00","2021","08","11","12:00","27.2","","24.8","","86","","0.0","","24","","19","","","","99.25","","39","","","","NA"
"-79.33","42.97","WELLAND-PELHAM","6139449","2021-08-11 13:00","2021","08","11","13:00","27.4","","23.8","","81","","0.0","","24","","23","","","","99.27","","38","","","","NA"
"-79.33","42.97","WELLAND-PELHAM","6139449","2021-08-11 14:00","2021","08","11","14:00","26.6","","22.1","","76","","0.0","","24","","19","","","","99.21","","36","","","","NA"
"-79.33","42.97","WELLAND-PELHAM","6139449","2021-08-11 15:00","2021","08","11","15:00","28.6","","23.7","","75","","0.0","","25","","14","","","","99.13","","40","","","","NA"
"-79.33","42.97","WELLAND-PELHAM","6139449","2021-08-11 16:00","2021","08","11","16:00","27.9","","24.5","","81","","0.0","","24","","16","","","","99.14","","40","","","","NA"
"-79.33","42.97","WELLAND-PELHAM","6139449","2021-08-11 17:00","2021","08","11","17:00","26.6","","22.7","","79","","0.0","","22","","17","","","","99.11","","37","","","","NA"
"-79.33","42.97","WELLAND-PELHAM","6139449","2021-08-11 18:00","2021","08","11","18:00","25.4","","21.4","","79","","0.0","","22","","10","","","","99.14","","34","","","","NA"
"-79.33","42.97","WELLAND-PELHAM","6139449","2021-08-11 19:00","2021","08","11","19:00","25.1","","22.1","","84","","0.0","","21","","11","","","","99.11","","35","","","","NA"
"-79.33","42.97","WELLAND-PELHAM","6139449","2021-08-11 20:00","2021","08","11","20:00","22.7","","22.7","","100","","0.2","","21","","9","","","","99.07","","33","","","","NA"
"-79.33","42.97","WELLAND-PELHAM","6139449","2021-08-11 21:00","2021","08","11","21:00","22.4","","22.4","","100","","0.0","","20","","5","","","","99.08","","32","","","","NA"
"-79.33","42.97","WELLAND-PELHAM","6139449","2021-08-11 22:00","2021","08","11","22:00","23.1","","23.1","","100","","0.0","","21","","8","","","","99.14","","33","","","","NA"
"-79.33","42.97","WELLAND-PELHAM","6139449","2021-08-11 23:00","2021","08","11","23:00","23.0","","23.0","","100","","0.0","","22","","9","","","","99.23","","33","","","","NA"
"-79.33","42.97","WELLAND-PELHAM","6139449","2021-08-12 00:00","2021","08","12","00:00","23.0","","23.0","","100","","0.0","","21","","13","","","","99.24","","33","","","","NA"
"-79.33","42.97","WELLAND-PELHAM","6139449","2021-08-12 01:00","2021","08","12","01:00","23.1","","23.1","","100","","0.0","","21","","9","","","","99.14","","33","","","","NA"
"-79.33","42.97","WELLAND-PELHAM","6139449","2021-08-12 02:00","2021","08","12","02:00","23.4","","22.8","","96","","0.0","","19","","11","","","","99.03","","33","","","","NA"
"-79.33","42.97","WELLAND-PELHAM","6139449","2021-08-12 03:00","2021","08","12","03:00","25.0","","25.0","","100","","0.0","","21","","13","","","","99.00","","37","","","","NA"
"-79.33","42.97","WELLAND-PELHAM","6139449","2021-08-12 04:00","2021","08","12","04:00","24.8","","24.8","","100","","0.0","","24","","18","","","","99.06","","37","","","","NA"
"-79.33","42.97","WELLAND-PELHAM","6139449","2021-08-12 05:00","2021","08","12","05:00","24.5","","24.5","","100","","0.0","","24","","9","","","","99.10","","36","","","","NA"
"-79.33","42.97","WELLAND-PELHAM","6139449","2021-08-12 06:00","2021","08","12","06:00","23.5","","21.7","","90","","0.0","","23","","13","","","","99.13","","33","","","","NA"
"-79.33","42.97","WELLAND-PELHAM","6139449","2021-08-12 07:00","2021","08","12","07:00","21.9","","21.9","","100","","0.5","","23","","10","","","","99.20","","31","","","","NA"
"-79.33","42.97","WELLAND-PELHAM","6139449","2021-08-12 08:00","2021","08","12","08:00","23.0","","23.0","","100","","0.0","","20","","10","","","","99.11","","33","","","","NA"
"-79.33","42.97","WELLAND-PELHAM","6139449","2021-08-12 09:00","2021","08","12","09:00","23.7","","23.7","","100","","0.0","","20","","13","","","","99.19","","35","","","","NA"
"-79.33","42.97","WELLAND-PELHAM","6139449","2021-08-12 10:00","2021","08","12","10:00","24.1","","23.7","","98","","0.0","","21","","14","","","","99.32","","35","","","","NA"
"-79.33","42.97","WELLAND-PELHAM","6139449","2021-08-12 11:00","2021","08","12","11:00","26.2","","23.4","","85","","0.0","","20","","14","","","","99.32","","37","","","","NA"
"-79.33","42.97","WELLAND-PELHAM","6139449","2021-08-12 12:00","2021","08","12","12:00","26.7","","22.7","","79","","0.0","","26","","15","","","","99.31","","37","","","","NA"
"-79.33","42.97","WELLAND-PELHAM","6139449","2021-08-12 13:00","2021","08","12","13:00","25.9","","22.2","","80","","0.0","","25","","17","","","","99.29","","35","","","","NA"
"-79.33","42.97","WELLAND-PELHAM","6139449","2021-08-12 14:00","2021","08","12","14:00","27.4","","23.1","","78","","0.0","","23","","14","","","","99.30","","38","","","","NA"
"-79.33","42.97","WELLAND-PELHAM","6139449","2021-08-12 15:00","2021","08","12","15:00","27.0","","23.8","","83","","0.0","","24","","16","","","","99.32","","38","","","","NA"
"-79.33","42.97","WELLAND-PELHAM","6139449","2021-08-12 16:00","2021","08","12","16:00","26.9","","24.9","","89","","0.0","","23","","13","","","","99.31","","39","","","","NA"
"-79.33","42.97","WELLAND-PELHAM","6139449","2021-08-12 17:00","2021","08","12","17:00","27.8","","23.8","","78","","0.0","","25","","12","","","","99.25","","39","","","","NA"
"-79.33","42.97","WELLAND-PELHAM","6139449","2021-08-12 18:00","2021","08","12","18:00","27.6","","22.6","","74","","0.0","","25","","9","","","","99.20","","37","","","","NA"
"-79.33","42.97","WELLAND-PELHAM","6139449","2021-08-12 19:00","2021","08","12","19:00","24.5","","24.5","","100","","0.0","","19","","6","","","","99.28","","36","","","","NA"
"-79.33","42.97","WELLAND-PELHAM","6139449","2021-08-12 20:00","2021","08","12","20:00","23.8","","23.8","","100","","0.0","","20","","7","","","","99.33","","35","","","","NA"
"-79.33","42.97","WELLAND-PELHAM","6139449","2021-08-12 21:00","2021","08","12","21:00","23.6","","23.6","","100","","0.0","","19","","9","","","","99.35","","34","","","","NA"
"-79.33","42.97","WELLAND-PELHAM","6139449","2021-08-12 22:00","2021","08","12","22:00","23.7","","23.7","","100","","0.0","","22","","5","","","","99.38","","35","","","","NA"
"-79.33","42.97","WELLAND-PELHAM","6139449","2021-08-12 23:00","2021","08","12","23:00","23.2","","23.2","","100","","0.0","","22","","5","","","","99.42","","34","","","","NA"
"-79.33","42.97","WELLAND-PELHAM","6139449","2021-08-13 00:00","2021","08","13","00:00","23.5","","23.5","","100","","0.0","","21","","7","","","","99.42","","34","","","","NA"
"-79.33","42.97","WELLAND-PELHAM","6139449","2021-08-13 01:00","2021","08","13","01:00","23.2","","23.2","","100","","0.0","","19","","8","","","","99.41","","34","","","","NA"
"-79.33","42.97","WELLAND-PELHAM","6139449","2021-08-13 02:00","2021","08","13","02:00","23.3","","23.3","","100","","0.0","","20","","7","","","","99.35","","34","","","","NA"
"-79.33","42.97","WELLAND-PELHAM","6139449","2021-08-13 03:00","2021","08","13","03:00","23.3","","23.3","","100","","0.0","","20","","7","","","","99.36","","34","","","","NA"
"-79.33","42.97","WELLAND-PELHAM","6139449","2021-08-13 04:00","2021","08","13","04:00","23.1","","23.1","","100","","0.0","","20","","7","","","","99.34","","33","","","","NA"
"-79.33","42.97","WELLAND-PELHAM","6139449","2021-08-13 05:00","2021","08","13","05:00","23.1","","23.1","","100","","0.0","","21","","5","","","","99.38","","33","","","","NA"
"-79.33","42.97","WELLAND-PELHAM","6139449","2021-08-13 06:00","2021","08","13","06:00","23.9","","23.9","","100","","0.0","","20","","10","","","","99.43","","35","","","","NA"
"-79.33","42.97","WELLAND-PELHAM","6139449","2021-08-13 07:00","2021","08","13","07:00","24.3","","24.3","","100","","0.0","","22","","11","","","","99.49","","36","","","","NA"
"-79.33","42.97","WELLAND-PELHAM","6139449","2021-08-13 08:00","2021","08","13","08:00","24.8","","24.8","","100","","0.0","","24","","11","","","","99.53","","37","","","","NA"
"-79.33","42.97","WELLAND-PELHAM","6139449","2021-08-13 09:00","2021","08","13","09:00","25.1","","25.1","","100","","0.0","","24","","11","","","","99.54","","38","","","","NA"
"-79.33","42.97","WELLAND-PELHAM","6139449","2021-08-13 10:00","2021","08","13","10:00","25.8","","24.5","","93","","0.0","","25","","11","","","","99.55","","38","","","","NA"
"-79.33","42.97","WELLAND-PELHAM","6139449","2021-08-13 11:00","2021","08","13","11:00","25.2","","25.2","","100","","0.0","","24","","9","","","","99.57","","38","","","","NA"
"-79.33","42.97","WELLAND-PELHAM","6139449","2021-08-13 12:00","2021","08","13","12:00","24.7","","24.7","","100","","0.0","","24","","10","","","","99.60","","37","","","","NA"
"-79.33","42.97","WELLAND-PELHAM","6139449","2021-08-13 13:00","2021","08","13","13:00","24.9","","24.9","","100","","0.0","","23","","11","","","","99.58","","37","","","","NA"
"-79.33","42.97","WELLAND-PELHAM","6139449","2021-08-13 14:00","2021","08","13","14:00","25.6","","25.5","","99","","0.0","","23","","12","","","","99.55","","38","","","","NA"
"-79.33","42.97","WELLAND-PELHAM","6139449","2021-08-13 15:00","2021","08","13","15:00","25.8","","24.4","","92","","0.0","","25","","16","","","","99.50","","37","","","","NA"
"-79.33","42.97","WELLAND-PELHAM","6139449","2021-08-13 16:00","2021","08","13","16:00","26.4","","24.1","","87","","0.0","","24","","12","","","","99.44","","38","","","","NA"
"-79.33","42.97","WELLAND-PELHAM","6139449","2021-08-13 17:00","2021","08","13","17:00","25.5","","22.6","","84","","0.0","","24","","13","","","","99.45","","35","","","","NA"
"-79.33","42.97","WELLAND-PELHAM","6139449","2021-08-13 18:00","2021","08","13","18:00","24.9","","23.3","","91","","0.0","","22","","9","","","","99.46","","35","","","","NA"
"-79.33","42.97","WELLAND-PELHAM","6139449","2021-08-13 19:00","2021","08","13","19:00","24.0","","24.0","","100","","0.0","","19","","6","","","","99.45","","35","","","","NA"
"-79.33","42.97","WELLAND-PELHAM","6139449","2021-08-13 20:00","2021","08","13","20:00","23.7","","23.7","","100","","0.0","","25","","6","","","","99.55","","35","","","","NA"
"-79.33","42.97","WELLAND-PELHAM","6139449","2021-08-13 21:00","2021","08","13","21:00","23.3","","23.3","","100","","0.0","","27","","6","","","","99.59","","34","","","","NA"
"-79.33","42.97","WELLAND-PELHAM","6139449","2021-08-13 22:00","2021","08","13","22:00","23.2","","18.4","","75","","0.0","","36","","12","","","","99.62","","30","","","","NA"
"-79.33","42.97","WELLAND-PELHAM","6139449","2021-08-13 23:00","2021","08","13","23:00","21.5","","16.6","","74","","0.0","","36","","15","","","","99.66","","27","","","","NA"
"-79.33","42.97","WELLAND-PELHAM","6139449","2021-08-14 00:00","2021","08","14","00:00","21.1","","15.1","","68","","0.0","","1","","6","","","","99.72","","25","","","","NA"
"-79.33","42.97","WELLAND-PELHAM","6139449","2021-08-14 01:00","2021","08","14","01:00","20.9","","13.3","","62","","0.0","","3","","6","","","","99.73","","","","","","NA"
"-79.33","42.97","WELLAND-PELHAM","6139449","2021-08-14 02:00","2021","08","14","02:00","20.0","","13.9","","68","","0.0","","4","","7","","","","99.73","","","","","","NA"
"-79.33","42.97","WELLAND-PELHAM","6139449","2021-08-14 03:00","2021","08","14","03:00","19.1","","18.3","","95","","0.0","","15","","5","","","","99.77","","","","","","NA"
"-79.33","42.97","WELLAND-PELHAM","6139449","2021-08-14 04:00","2021","08","14","04:00","17.8","","17.8","","100","","0.0","","15","","3","","","","99.81","","","","","","NA"
"-79.33","42.97","WELLAND-PELHAM","6139449","2021-08-14 05:00","2021","08","14","05:00","16.5","","16.5","","100","","0.0","","","","0","","","","99.88","","","","","","NA"
"-79.33","42.97","WELLAND-PELHAM","6139449","2021-08-14 06:00","2021","08","14","06:00","15.8","","15.8","","100","","0.0","","0","","1","","","","100.00","","","","","","NA"
"-79.33","42.97","WELLAND-PELHAM","6139449","2021-08-14 07:00","2021","08","14","07:00","18.3","","18.3","","100","","0.0","","32","","5","","","","100.04","","","","","","NA"
"-79.33","42.97","WELLAND-PELHAM","6139449","2021-08-14 08:00","2021","08","14","08:00","20.5","","14.8","","70","","0.0","","35","","9","","","","100.09","","","","","","NA"
"-79.33","42.97","WELLAND-PELHAM","6139449","2021-08-14 09:00","2021","08","14","09:00","22.2","","15.1","","64","","0.0","","1","","8","","","","100.11","","26","","","","NA"
"-79.33","42.97","WELLAND-PELHAM","6139449","2021-08-14 10:00","2021","08","14","10:00","22.5","","12.8","","54","","0.0","","36","","11","","","","100.17","","25","","","","NA"
"-79.33","42.97","WELLAND-PELHAM","6139449","2021-08-14 11:00","2021","08","14","11:00","23.6","","12.7","","50","","0.0","","33","","13","","","","100.21","","26","","","","NA"
"-79.33","42.97","WELLAND-PELHAM","6139449","2021-08-14 12:00","2021","08","14","12:00","23.1","","10.4","","44","","0.0","","35","","11","","","","100.19","","25","","","","NA"
"-79.33","42.97","WELLAND-PELHAM","6139449","2021-08-14 13:00","2021","08","14","13:00","23.8","","12.0","","48","","0.0","","32","","11","","","","100.18","","26","","","","NA"
"-79.33","42.97","WELLAND-PELHAM","6139449","2021-08-14 14:00","2021","08","14","14:00","23.6","","12.1","","49","","0.0","","29","","14","","","","100.17","","26","","","","NA"
"-79.33","42.97","WELLAND-PELHAM","6139449","2021-08-14 15:00","2021","08","14","15:00","23.7","","12.9","","51","","0.0","","29","","14","","","","100.16","","26","","","","NA"
"-79.33","42.97","WELLAND-PELHAM","6139449","2021-08-14 16:00","2021","08","14","16:00","24.6","","12.5","","47","","0.0","","29","","13","","","","100.16","","27","","","","NA"
"-79.33","42.97","WELLAND-PELHAM","6139449","2021-08-14 17:00","2021","08","14","17:00","24.1","","11.9","","46","","0.0","","29","","14","","","","100.13","","26","","","","NA"
"-79.33","42.97","WELLAND-PELHAM","6139449","2021-08-14 18:00","2021","08","14","18:00","23.1","","10.1","","44","","0.0","","35","","8","","","","100.11","","","","","","NA"
"-79.33","42.97","WELLAND-PELHAM","6139449","2021-08-14 19:00","2021","08","14","19:00","20.9","","12.1","","57","","0.0","","34","","5","","","","100.12","","","","","","NA"
"-79.33","42.97","WELLAND-PELHAM","6139449","2021-08-14 20:00","2021","08","14","20:00","16.8","","14.3","","85","","0.0","","28","","5","","","","100.18","","","","","","NA"
"-79.33","42.97","WELLAND-PELHAM","6139449","2021-08-14 21:00","2021","08","14","21:00","15.9","","13.2","","84","","0.0","","31","","8","","","","100.26","","","","","","NA"
"-79.33","42.97","WELLAND-PELHAM","6139449","2021-08-14 22:00","2021","08","14","22:00","15.2","","12.7","","85","","0.0","","31","","12","","","","100.32","","","","","","NA"
"-79.33","42.97","WELLAND-PELHAM","6139449","2021-08-14 23:00","2021","08","14","23:00","15.5","","13.9","","90","","0.0","","33","","4","","","","100.36","","","","","","NA"
"-79.33","42.97","WELLAND-PELHAM","6139449","2021-08-15 00:00","2021","08","15","00:00","15.2","","14.8","","98","","0.0","","36","","5","","","","100.36","","","","","","NA"
"-79.33","42.97","WELLAND-PELHAM","6139449","2021-08-15 01:00","2021","08","15","01:00","14.3","","14.2","","100","","0.0","","35","","3","","","","100.35","","","","","","NA"
"-79.33","42.97","WELLAND-PELHAM","6139449","2021-08-15 02:00","2021","08","15","02:00","13.7","","13.7","","100","","0.0","","2","","3","","","","100.32","","","","","","NA"
"-79.33","42.97","WELLAND-PELHAM","6139449","2021-08-15 03:00","2021","08","15","03:00","12.3","","12.3","","100","","0.0","","19","","1","","","","100.32","","","","","","NA"
"-79.33","42.97","WELLAND-PELHAM","6139449","2021-08-15 04:00","2021","08","15","04:00","11.4","","11.4","","100","","0.0","","","","0","","","","100.33","","","","","","NA"
"-79.33","42.97","WELLAND-PELHAM","6139449","2021-08-15 05:00","2021","08","15","05:00","11.8","","11.8","","100","","0.0","","28","","5","","","","100.37","","","","","","NA"
"-79.33","42.97","WELLAND-PELHAM","6139449","2021-08-15 06:00","2021","08","15","06:00","11.8","","11.8","","100","","0.0","","30","","2","","","","100.43","","","","","","NA"
"-79.33","42.97","WELLAND-PELHAM","6139449","2021-08-15 07:00","2021","08","15","07:00","15.2","","14.5","","96","","0.0","","","","0","","","","100.44","","","","","","NA"
"-79.33","42.97","WELLAND-PELHAM","6139449","2021-08-15 08:00","2021","08","15","08:00","19.1","","13.1","","68","","0.0","","4","","10","","","","100.44","","","","","","NA"
"-79.33","42.97","WELLAND-PELHAM","6139449","2021-08-15 09:00","2021","08","15","09:00","20.3","","12.5","","61","","0.0","","4","","11","","","","100.45","","","","","","NA"
"-79.33","42.97","WELLAND-PELHAM","6139449","2021-08-15 10:00","2021","08","15","10:00","21.4","","13.2","","59","","0.0","","6","","10","","","","100.45","","","","","","NA"
"-79.33","42.97","WELLAND-PELHAM","6139449","2021-08-15 11:00","2021","08","15","11:00","22.6","","12.6","","53","","0.0","","10","","9","","","","100.41","","25","","","","NA"
"-79.33","42.97","WELLAND-PELHAM","6139449","2021-08-15 12:00","2021","08","15","12:00","22.8","","12.6","","53","","0.0","","11","","7","","","","100.37","","25","","","","NA"
"-79.33","42.97","WELLAND-PELHAM","6139449","2021-08-15 13:00","2021","08","15","13:00","23.1","","11.3","","47","","0.0","","16","","6","","","","100.34","","25","","","","NA"
"-79.33","42.97","WELLAND-PELHAM","6139449","2021-08-15 14:00","2021","08","15","14:00","22.9","","11.8","","50","","0.0","","33","","2","","","","100.30","","25","","","","NA"
"-79.33","42.97","WELLAND-PELHAM","6139449","2021-08-15 15:00","2021","08","15","15:00","23.4","","11.7","","48","","0.0","","1","","5","","","","100.25","","26","","","","NA"
"-79.33","42.97","WELLAND-PELHAM","6139449","2021-08-15 16:00","2021","08","15","16:00","23.3","","13.7","","55","","0.0","","35","","11","","","","100.22","","26","","","","NA"
"-79.33","42.97","WELLAND-PELHAM","6139449","2021-08-15 17:00","2021","08","15","17:00","22.7","","14.9","","61","","0.0","","1","","13","","","","100.17","","27","","","","NA"
"-79.33","42.97","WELLAND-PELHAM","6139449","2021-08-15 18:00","2021","08","15","18:00","21.9","","14.8","","64","","0.0","","3","","13","","","","100.13","","26","","","","NA"
"-79.33","42.97","WELLAND-PELHAM","6139449","2021-08-15 19:00","2021","08","15","19:00","20.2","","14.6","","70","","0.0","","3","","10","","","","100.12","","","","","","NA"
"-79.33","42.97","WELLAND-PELHAM","6139449","2021-08-15 20:00","2021","08","15","20:00","18.4","","14.5","","78","","0.0","","4","","9","","","","100.14","","","","","","NA"
"-79.33","42.97","WELLAND-PELHAM","6139449","2021-08-15 21:00","2021","08","15","21:00","16.2","","14.8","","91","","0.0","","6","","6","","","","100.16","","","","","","NA"
"-79.33","42.97","WELLAND-PELHAM","6139449","2021-08-15 22:00","2021","08","15","22:00","16.1","","14.2","","89","","0.0","","9","","9","","","","100.15","","","","","","NA"
"-79.33","42.97","WELLAND-PELHAM","6139449","2021-08-15 23:00","2021","08","15","23:00","15.3","","15.3","","100","","0.0","","8","","9","","","","100.13","","","","","","NA"
"-79.33","42.97","WELLAND-PELHAM","6139449","2021-08-16 00:00","2021","08","16","00:00","15.2","","14.8","","97","","0.0","","7","","7","","","","100.12","","","","","","NA"
"-79.33","42.97","WELLAND-PELHAM","6139449","2021-08-16 01:00","2021","08","16","01:00","13.5","","13.5","","100","","0.0","","6","","5","","","","100.07","","","","","","NA"
"-79.33","42.97","WELLAND-PELHAM","6139449","2021-08-16 02:00","2021","08","16","02:00","13.1","","13.1","","100","","0.0","","7","","6","","","","100.05","","","","","","NA"
"-79.33","42.97","WELLAND-PELHAM","6139449","2021-08-16 03:00","2021","08","16","03:00","13.4","","13.4","","100","","0.0","","5","","3","","","","100.03","","","","","","NA"
"-79.33","42.97","WELLAND-PELHAM","6139449","2021-08-16 04:00","2021","08","16","04:00","13.1","","13.0","","100","","0.0","","7","","6","","","","100.02","","","","","","NA"
"-79.33","42.97","WELLAND-PELHAM","6139449","2021-08-16 05:00","2021","08","16","05:00","13.8","","13.8","","100","","0.0","","6","","4","","","","100.04","","","","","","NA"
"-79.33","42.97","WELLAND-PELHAM","6139449","2021-08-16 06:00","2021","08","16","06:00","13.9","","13.9","","100","","0.0","","7","","6","","","","100.04","","","","","","NA"
"-79.33","42.97","WELLAND-PELHAM","6139449","2021-08-16 07:00","2021","08","16","07:00","16.8","","16.6","","99","","0.0","","6","","5","","","","100.05","","","","","","NA"
"-79.33","42.97","WELLAND-PELHAM","6139449","2021-08-16 08:00","2021","08","16","08:00","19.9","","16.6","","82","","0.0","","7","","6","","","","100.03","","","","","","NA"
"-79.33","42.97","WELLAND-PELHAM","6139449","2021-08-16 09:00","2021","08","16","09:00","22.7","","15.3","","63","","0.0","","7","","8","","","","100.01","","27","","","","NA"
"-79.33","42.97","WELLAND-PELHAM","6139449","2021-08-16 10:00","2021","08","16","10:00","24.3","","15.1","","57","","0.0","","7","","12","","","","100.03","","28","","","","NA"
"-79.33","42.97","WELLAND-PELHAM","6139449","2021-08-16 11:00","2021","08","16","11:00","25.2","","15.0","","53","","0.0","","8","","12","","","","100.01","","29","","","","NA"
"-79.33","42.97","WELLAND-PELHAM","6139449","2021-08-16 12:00","2021","08","16","12:00","25.2","","14.8","","53","","0.0","","11","","12","","","","99.96","","29","","","","NA"
"-79.33","42.97","WELLAND-PELHAM","6139449","2021-08-16 13:00","2021","08","16","13:00","25.3","","16.6","","58","","0.0","","9","","8","","","","99.93","","30","","","","NA"
"-79.33","42.97","WELLAND-PELHAM","6139449","2021-08-16 14:00","2021","08","16","14:00","24.8","","16.7","","61","","0.0","","6","","10","","","","99.90","","30","","","","NA"
"-79.33","42.97","WELLAND-PELHAM","6139449","2021-08-16 15:00","2021","08","16","15:00","24.2","","18.1","","69","","0.0","","4","","11","","","","99.86","","30","","","","NA"
"-79.33","42.97","WELLAND-PELHAM","6139449","2021-08-16 16:00","2021","08","16","16:00","24.2","","18.1","","69","","0.0","","3","","9","","","","99.83","","30","","","","NA"
"-79.33","42.97","WELLAND-PELHAM","6139449","2021-08-16 17:00","2021","08","16","17:00","23.6","","19.2","","76","","0.0","","4","","6","","","","99.78","","31","","","","NA"
"-79.33","42.97","WELLAND-PELHAM","6139449","2021-08-16 18:00","2021","08","16","18:00","23.2","","20.2","","83","","0.0","","4","","5","","","","99.74","","31","","","","NA"
"-79.33","42.97","WELLAND-PELHAM","6139449","2021-08-16 19:00","2021","08","16","19:00","23.0","","20.9","","88","","0.0","","2","","2","","","","99.72","","31","","","","NA"
"-79.33","42.97","WELLAND-PELHAM","6139449","2021-08-16 20:00","2021","08","16","20:00","22.2","","22.2","","100","","0.0","","","","0","","","","99.75","","32","","","","NA"
"-79.33","42.97","WELLAND-PELHAM","6139449","2021-08-16 21:00","2021","08","16","21:00","22.0","","22.0","","100","","0.0","","10","","3","","","","99.76","","31","","","","NA"
"-79.33","42.97","WELLAND-PELHAM","6139449","2021-08-16 22:00","2021","08","16","22:00","22.2","","22.2","","100","","0.0","","14","","4","","","","99.75","","32","","","","NA"
"-79.33","42.97","WELLAND-PELHAM","6139449","2021-08-16 23:00","2021","08","16","23:00","22.4","","22.4","","100","","0.0","","15","","8","","","","99.73","","32","","","","NA"
"-79.33","42.97","WELLAND-PELHAM","6139449","2021-08-17 00:00","2021","08","17","00:00","21.8","","21.8","","100","","0.0","","15","","6","","","","99.73","","31","","","","NA"
"-79.33","42.97","WELLAND-PELHAM","6139449","2021-08-17 01:00","2021","08","17","01:00","21.5","","21.5","","100","","0.0","","14","","5","","","","99.70","","30","","","","NA"
"-79.33","42.97","WELLAND-PELHAM","6139449","2021-08-17 02:00","2021","08","17","02:00","21.1","","21.1","","100","","0.0","","16","","6","","","","99.67","","30","","","","NA"
"-79.33","42.97","WELLAND-PELHAM","6139449","2021-08-17 03:00","2021","08","17","03:00","21.0","","21.0","","100","","0.2","","13","","4","","","","99.67","","29","","","","NA"
"-79.33","42.97","WELLAND-PELHAM","6139449","2021-08-17 04:00","2021","08","17","04:00","20.9","","20.9","","100","","0.1","","7","","2","","","","99.66","","29","","","","NA"
"-79.33","42.97","WELLAND-PELHAM","6139449","2021-08-17 05:00","2021","08","17","05:00","21.0","","21.0","","100","","0.0","","7","","2","","","","99.68","","29","","","","NA"
"-79.33","42.97","WELLAND-PELHAM","6139449","2021-08-17 06:00","2021","08","17","06:00","21.0","","21.0","","100","","0.0","","10","","2","","","","99.72","","29","","","","NA"
"-79.33","42.97","WELLAND-PELHAM","6139449","2021-08-17 07:00","2021","08","17","07:00","21.7","","21.7","","100","","0.0","","12","","3","","","","99.74","","31","","","","NA"
"-79.33","42.97","WELLAND-PELHAM","6139449","2021-08-17 08:00","2021","08","17","08:00","22.7","","22.7","","100","","0.0","","15","","2","","","","99.77","","33","","","","NA"
"-79.33","42.97","WELLAND-PELHAM","6139449","2021-08-17 09:00","2021","08","17","09:00","22.9","","22.9","","100","","0.0","","23","","3","","","","99.77","","33","","","","NA"
"-79.33","42.97","WELLAND-PELHAM","6139449","2021-08-17 10:00","2021","08","17","10:00","24.1","","24.1","","100","","2.1","","24","","4","","","","99.78","","35","","","","NA"
"-79.33","42.97","WELLAND-PELHAM","6139449","2021-08-17 11:00","2021","08","17","11:00","25.0","","24.5","","97","","0.0","","20","","10","","","","99.77","","37","","","","NA"
"-79.33","42.97","WELLAND-PELHAM","6139449","2021-08-17 12:00","2021","08","17","12:00","25.5","","24.6","","94","","0.0","","19","","13","","","","99.73","","37","","","","NA"
"-79.33","42.97","WELLAND-PELHAM","6139449","2021-08-17 13:00","2021","08","17","13:00","25.9","","25.1","","95","","0.0","","20","","9","","","","99.72","","38","","","","NA"
"-79.33","42.97","WELLAND-PELHAM","6139449","2021-08-17 14:00","2021","08","17","14:00","26.0","","22.4","","81","","0.0","","24","","11","","","","99.74","","36","","","","NA"
"-79.33","42.97","WELLAND-PELHAM","6139449","2021-08-17 15:00","2021","08","17","15:00","26.1","","22.8","","82","","0.0","","22","","8","","","","99.70","","36","","","","NA"
"-79.33","42.97","WELLAND-PELHAM","6139449","2021-08-17 16:00","2021","08","17","16:00","25.4","","21.7","","80","","0.0","","22","","9","","","","99.67","","34","","","","NA"
"-79.33","42.97","WELLAND-PELHAM","6139449","2021-08-17 17:00","2021","08","17","17:00","24.7","","22.4","","87","","0.0","","20","","7","","","","99.68","","34","","","","NA"
"-79.33","42.97","WELLAND-PELHAM","6139449","2021-08-17 18:00","2021","08","17","18:00","23.9","","23.9","","100","","0.0","","18","","8","","","","99.69","","35","","","","NA"
"-79.33","42.97","WELLAND-PELHAM","6139449","2021-08-17 19:00","2021","08","17","19:00","23.0","","23.0","","100","","0.0","","19","","6","","","","99.73","","33","","","","NA"
"-79.33","42.97","WELLAND-PELHAM","6139449","2021-08-17 20:00","2021","08","17","20:00","22.2","","22.2","","100","","0.0","","17","","5","","","","99.73","","32","","","","NA"
"-79.33","42.97","WELLAND-PELHAM","6139449","2021-08-17 21:00","2021","08","17","21:00","21.7","","21.7","","100","","0.0","","19","","7","","","","99.79","","31","","","","NA"
"-79.33","42.97","WELLAND-PELHAM","6139449","2021-08-17 22:00","2021","08","17","22:00","21.2","","21.2","","100","","0.0","","0","","1","","","","99.79","","30","","","","NA"
"-79.33","42.97","WELLAND-PELHAM","6139449","2021-08-17 23:00","2021","08","17","23:00","21.0","","21.0","","100","","0.0","","","","0","","","","99.81","","29","","","","NA"
"-79.33","42.97","WELLAND-PELHAM","6139449","2021-08-18 00:00","2021","08","18","00:00","20.2","","20.2","","100","","0.0","","","","0","","","","99.83","","28","","","","NA"
"-79.33","42.97","WELLAND-PELHAM","6139449","2021-08-18 01:00","2021","08","18","01:00","20.3","","20.3","","100","","0.0","","0","","1","","","","99.79","","28","","","","NA"
"-79.33","42.97","WELLAND-PELHAM","6139449","2021-08-18 02:00","2021","08","18","02:00","20.6","","20.6","","100","","0.0","","17","","3","","","","99.77","","29","","","","NA"
"-79.33","42.97","WELLAND-PELHAM","6139449","2021-08-18 03:00","2021","08","18","03:00","20.3","","20.3","","100","","0.0","","","","0","","","","99.78","","28","","","","NA"
"-79.33","42.97","WELLAND-PELHAM","6139449","2021-08-18 04:00","2021","08","18","04:00","20.4","","20.4","","100","","0.0","","7","","2","","","","99.78","","28","","","","NA"
"-79.33","42.97","WELLAND-PELHAM","6139449","2021-08-18 05:00","2021","08","18","05:00","20.7","","20.7","","100","","0.0","","0","","1","","","","99.81","","29","","","","NA"
"-79.33","42.97","WELLAND-PELHAM","6139449","2021-08-18 06:00","2021","08","18","06:00","20.7","","20.7","","100","","0.0","","7","","1","","","","99.88","","29","","","","NA"
"-79.33","42.97","WELLAND-PELHAM","6139449","2021-08-18 07:00","2021","08","18","07:00","21.3","","21.3","","100","","0.0","","10","","3","","","","99.91","","30","","","","NA"
"-79.33","42.97","WELLAND-PELHAM","6139449","2021-08-18 08:00","2021","08","18","08:00","22.7","","22.7","","100","","0.2","","15","","5","","","","99.91","","33","","","","NA"
"-79.33","42.97","WELLAND-PELHAM","6139449","2021-08-18 09:00","2021","08","18","09:00","23.4","","23.4","","100","","0.0","","15","","6","","","","99.91","","34","","","","NA"
"-79.33","42.97","WELLAND-PELHAM","6139449","2021-08-18 10:00","2021","08","18","10:00","23.6","","23.6","","100","","0.0","","13","","6","","","","99.91","","34","","","","NA"
"-79.33","42.97","WELLAND-PELHAM","6139449","2021-08-18 11:00","2021","08","18","11:00","23.9","","23.9","","100","","0.0","","9","","8","","","","99.88","","35","","","","NA"
"-79.33","42.97","WELLAND-PELHAM","6139449","2021-08-18 12:00","2021","08","18","12:00","23.7","","23.7","","100","","0.0","","10","","7","","","","99.85","","35","","","","NA"
"-79.33","42.97","WELLAND-PELHAM","6139449","2021-08-18 13:00","2021","08","18","13:00","23.7","","23.7","","100","","0.1","","10","","7","","","","99.82","","35","","","","NA"
"-79.33","42.97","WELLAND-PELHAM","6139449","2021-08-18 14:00","2021","08","18","14:00","23.9","","23.9","","100","","0.0","","8","","11","","","","99.77","","35","","","","NA"
"-79.33","42.97","WELLAND-PELHAM","6139449","2021-08-18 15:00","2021","08","18","15:00","24.4","","24.4","","100","","0.0","","5","","14","","","","99.69","","36","","","","NA"
"-79.33","42.97","WELLAND-PELHAM","6139449","2021-08-18 16:00","2021","08","18","16:00","24.3","","24.3","","100","","0.0","","7","","15","","","","99.68","","36","","","","NA"
"-79.33","42.97","WELLAND-PELHAM","6139449","2021-08-18 17:00","2021","08","18","17:00","24.7","","24.6","","100","","0.0","","5","","11","","","","99.64","","37","","","","NA"
"-79.33","42.97","WELLAND-PELHAM","6139449","2021-08-18 18:00","2021","08","18","18:00","23.9","","23.9","","100","","0.0","","4","","14","","","","99.64","","35","","","","NA"
"-79.33","42.97","WELLAND-PELHAM","6139449","2021-08-18 19:00","2021","08","18","19:00","23.5","","23.5","","100","","0.0","","4","","10","","","","99.63","","34","","","","NA"
"-79.33","42.97","WELLAND-PELHAM","6139449","2021-08-18 20:00","2021","08","18","20:00","22.9","","22.9","","100","","0.0","","3","","9","","","","99.67","","33","","","","NA"
"-79.33","42.97","WELLAND-PELHAM","6139449","2021-08-18 21:00","2021","08","18","21:00","22.5","","22.5","","100","","0.0","","3","","9","","","","99.65","","32","","","","NA"
"-79.33","42.97","WELLAND-PELHAM","6139449","2021-08-18 22:00","2021","08","18","22:00","22.2","","22.2","","100","","0.0","","1","","7","","","","99.65","","32","","","","NA"
"-79.33","42.97","WELLAND-PELHAM","6139449","2021-08-18 23:00","2021","08","18","23:00","21.8","","21.8","","100","","0.0","","3","","6","","","","99.66","","31","","","","NA"
"-79.33","42.97","WELLAND-PELHAM","6139449","2021-08-19 00:00","2021","08","19","00:00","21.6","","21.6","","100","","0.0","","35","","6","","","","99.66","","31","","","","NA"
"-79.33","42.97","WELLAND-PELHAM","6139449","2021-08-19 01:00","2021","08","19","01:00","21.5","","21.5","","100","","0.0","","1","","8","","","","99.63","","30","","","","NA"
"-79.33","42.97","WELLAND-PELHAM","6139449","2021-08-19 02:00","2021","08","19","02:00","21.6","","21.6","","100","","0.0","","34","","5","","","","99.63","","31","","","","NA"
"-79.33","42.97","WELLAND-PELHAM","6139449","2021-08-19 03:00","2021","08","19","03:00","21.8","","21.8","","100","","0.0","","33","","9","","","","99.63","","31","","","","NA"
"-79.33","42.97","WELLAND-PELHAM","6139449","2021-08-19 04:00","2021","08","19","04:00","21.9","","21.9","","100","","0.0","","35","","8","","","","99.64","","31","","","","NA"
"-79.33","42.97","WELLAND-PELHAM","6139449","2021-08-19 05:00","2021","08","19","05:00","20.5","","20.5","","100","","0.0","","32","","5","","","","99.63","","28","","","","NA"
"-79.33","42.97","WELLAND-PELHAM","6139449","2021-08-19 06:00","2021","08","19","06:00","21.1","","21.1","","100","","0.0","","30","","7","","","","99.64","","30","","","","NA"
"-79.33","42.97","WELLAND-PELHAM","6139449","2021-08-19 07:00","2021","08","19","07:00","21.7","","21.7","","100","","0.0","","29","","8","","","","99.65","","31","","","","NA"
"-79.33","42.97","WELLAND-PELHAM","6139449","2021-08-19 08:00","2021","08","19","08:00","22.4","","22.4","","100","","0.0","","31","","9","","","","99.68","","32","","","","NA"
"-79.33","42.97","WELLAND-PELHAM","6139449","2021-08-19 09:00","2021","08","19","09:00","24.3","","23.9","","98","","0.0","","32","","7","","","","99.68","","35","","","","NA"
"-79.33","42.97","WELLAND-PELHAM","6139449","2021-08-19 10:00","2021","08","19","10:00","24.9","","22.7","","87","","0.0","","1","","5","","","","99.69","","35","","","","NA"
"-79.33","42.97","WELLAND-PELHAM","6139449","2021-08-19 11:00","2021","08","19","11:00","26.7","","23.3","","81","","0.0","","33","","5","","","","99.66","","37","","","","NA"
"-79.33","42.97","WELLAND-PELHAM","6139449","2021-08-19 12:00","2021","08","19","12:00","27.0","","20.7","","69","","0.0","","31","","9","","","","99.64","","35","","","","NA"
"-79.33","42.97","WELLAND-PELHAM","6139449","2021-08-19 13:00","2021","08","19","13:00","28.0","","18.7","","57","","0.0","","36","","12","","","","99.61","","35","","","","NA"
"-79.33","42.97","WELLAND-PELHAM","6139449","2021-08-19 14:00","2021","08","19","14:00","27.5","","22.2","","73","","0.0","","19","","8","","","","99.59","","37","","","","NA"
"-79.33","42.97","WELLAND-PELHAM","6139449","2021-08-19 15:00","2021","08","19","15:00","27.1","","22.4","","75","","0.0","","19","","10","","","","99.55","","37","","","","NA"
"-79.33","42.97","WELLAND-PELHAM","6139449","2021-08-19 16:00","2021","08","19","16:00","27.0","","23.1","","79","","0.0","","20","","9","","","","99.51","","37","","","","NA"
"-79.33","42.97","WELLAND-PELHAM","6139449","2021-08-19 17:00","2021","08","19","17:00","25.5","","22.9","","86","","0.0","","22","","9","","","","99.50","","36","","","","NA"
"-79.33","42.97","WELLAND-PELHAM","6139449","2021-08-19 18:00","2021","08","19","18:00","24.9","","23.6","","93","","0.0","","25","","8","","","","99.45","","36","","","","NA"
"-79.33","42.97","WELLAND-PELHAM","6139449","2021-08-19 19:00","2021","08","19","19:00","24.1","","24.1","","100","","0.0","","24","","4","","","","99.44","","35","","","","NA"
"-79.33","42.97","WELLAND-PELHAM","6139449","2021-08-19 20:00","2021","08","19","20:00","23.3","","23.3","","100","","0.0","","23","","2","","","","99.45","","34","","","","NA"
"-79.33","42.97","WELLAND-PELHAM","6139449","2021-08-19 21:00","2021","08","19","21:00","22.3","","22.3","","100","","0.0","","19","","3","","","","99.48","","32","","","","NA"
"-79.33","42.97","WELLAND-PELHAM","6139449","2021-08-19 22:00","2021","08","19","22:00","22.0","","22.0","","100","","0.0","","21","","2","","","","99.49","","31","","","","NA"
"-79.33","42.97","WELLAND-PELHAM","6139449","2021-08-19 23:00","2021","08","19","23:00","20.0","","20.0","","100","","0.0","","26","","5","","","","99.46","","28","","","","NA"
"-79.33","42.97","WELLAND-PELHAM","6139449","2021-08-20 00:00","2021","08","20","00:00","19.2","","19.2","","100","","0.0","","32","","6","","","","99.45","","","","","","NA"
"-79.33","42.97","WELLAND-PELHAM","6139449","2021-08-20 01:00","2021","08","20","01:00","18.6","","18.6","","100","","0.0","","30","","4","","","","99.43","","","","","","NA"
"-79.33","42.97","WELLAND-PELHAM","6139449","2021-08-20 02:00","2021","08","20","02:00","17.4","","17.4","","100","","0.0","","29","","2","","","","99.40","","","","","","NA"
"-79.33","42.97","WELLAND-PELHAM","6139449","2021-08-20 03:00","2021","08","20","03:00","17.4","","17.4","","100","","0.0","","28","","4","","","","99.41","","","","","","NA"
"-79.33","42.97","WELLAND-PELHAM","6139449","2021-08-20 04:00","2021","08","20","04:00","16.4","","16.4","","100","","0.0","","31","","7","","","","99.41","","","","","","NA"
"-79.33","42.97","WELLAND-PELHAM","6139449","2021-08-20 05:00","2021","08","20","05:00","16.7","","16.7","","100","","0.0","","31","","7","","","","99.41","","","","","","NA"
"-79.33","42.97","WELLAND-PELHAM","6139449","2021-08-20 06:00","2021","08","20","06:00","16.8","","16.8","","100","","0.0","","30","","4","","","","99.44","","","","","","NA"
"-79.33","42.97","WELLAND-PELHAM","6139449","2021-08-20 07:00","2021","08","20","07:00","19.5","","19.5","","100","","0.0","","29","","3","","","","99.46","","","","","","NA"
"-79.33","42.97","WELLAND-PELHAM","6139449","2021-08-20 08:00","2021","08","20","08:00","22.1","","22.1","","100","","0.0","","29","","5","","","","99.47","","32","","","","NA"
"-79.33","42.97","WELLAND-PELHAM","6139449","2021-08-20 09:00","2021","08","20","09:00","24.5","","21.5","","84","","0.0","","27","","2","","","","99.46","","33","","","","NA"
"-79.33","42.97","WELLAND-PELHAM","6139449","2021-08-20 10:00","2021","08","20","10:00","26.1","","19.9","","69","","0.0","","30","","3","","","","99.48","","34","","","","NA"
"-79.33","42.97","WELLAND-PELHAM","6139449","2021-08-20 11:00","2021","08","20","11:00","27.0","","18.9","","61","","0.0","","35","","4","","","","99.45","","34","","","","NA"
"-79.33","42.97","WELLAND-PELHAM","6139449","2021-08-20 12:00","2021","08","20","12:00","27.7","","18.3","","57","","0.0","","36","","7","","","","99.42","","34","","","","NA"
"-79.33","42.97","WELLAND-PELHAM","6139449","2021-08-20 13:00","2021","08","20","13:00","28.3","","17.7","","53","","0.0","","2","","7","","","","99.39","","34","","","","NA"
"-79.33","42.97","WELLAND-PELHAM","6139449","2021-08-20 14:00","2021","08","20","14:00","28.8","","16.9","","48","","0.0","","1","","6","","","","99.37","","34","","","","NA"
"-79.33","42.97","WELLAND-PELHAM","6139449","2021-08-20 15:00","2021","08","20","15:00","28.0","","20.2","","63","","0.0","","18","","9","","","","99.31","","36","","","","NA"
"-79.33","42.97","WELLAND-PELHAM","6139449","2021-08-20 16:00","2021","08","20","16:00","28.5","","20.6","","62","","0.0","","25","","6","","","","99.27","","37","","","","NA"
"-79.33","42.97","WELLAND-PELHAM","6139449","2021-08-20 17:00","2021","08","20","17:00","27.4","","20.3","","65","","0.0","","26","","8","","","","99.25","","35","","","","NA"
"-79.33","42.97","WELLAND-PELHAM","6139449","2021-08-20 18:00","2021","08","20","18:00","27.0","","20.8","","69","","0.0","","30","","3","","","","99.23","","35","","","","NA"
"-79.33","42.97","WELLAND-PELHAM","6139449","2021-08-20 19:00","2021","08","20","19:00","25.0","","22.1","","84","","0.0","","21","","5","","","","99.24","","34","","","","NA"
"-79.33","42.97","WELLAND-PELHAM","6139449","2021-08-20 20:00","2021","08","20","20:00","22.0","","22.0","","100","","0.0","","","","0","","","","99.25","","31","","","","NA"
"-79.33","42.97","WELLAND-PELHAM","6139449","2021-08-20 21:00","2021","08","20","21:00","21.8","","21.8","","100","","0.0","","","","0","","","","99.26","","31","","","","NA"
"-79.33","42.97","WELLAND-PELHAM","6139449","2021-08-20 22:00","2021","08","20","22:00","21.6","","21.6","","100","","0.0","","","","0","","","","99.27","","31","","","","NA"
"-79.33","42.97","WELLAND-PELHAM","6139449","2021-08-20 23:00","2021","08","20","23:00","21.4","","21.4","","100","","0.0","","","","0","","","","99.30","","30","","","","NA"
"-79.33","42.97","WELLAND-PELHAM","6139449","2021-08-21 00:00","2021","08","21","00:00","21.0","","21.0","","100","","0.0","","","","0","","","","99.28","","29","","","","NA"
"-79.33","42.97","WELLAND-PELHAM","6139449","2021-08-21 01:00","2021","08","21","01:00","21.3","","21.3","","100","","0.0","","18","","2","","","","99.25","","30","","","","NA"
"-79.33","42.97","WELLAND-PELHAM","6139449","2021-08-21 02:00","2021","08","21","02:00","21.1","","21.1","","100","","0.0","","","","0","","","","99.25","","30","","","","NA"
"-79.33","42.97","WELLAND-PELHAM","6139449","2021-08-21 03:00","2021","08","21","03:00","20.6","","20.6","","100","","0.0","","","","0","","","","99.25","","29","","","","NA"
"-79.33","42.97","WELLAND-PELHAM","6139449","2021-08-21 04:00","2021","08","21","04:00","20.5","","20.5","","100","","0.0","","","","0","","","","99.24","","28","","","","NA"
"-79.33","42.97","WELLAND-PELHAM","6139449","2021-08-21 05:00","2021","08","21","05:00","20.4","","20.4","","100","","0.0","","1","","2","","","","99.26","","28","","","","NA"
"-79.33","42.97","WELLAND-PELHAM","6139449","2021-08-21 06:00","2021","08","21","06:00","20.1","","20.1","","100","","0.0","","3","","2","","","","99.26","","28","","","","NA"
"-79.33","42.97","WELLAND-PELHAM","6139449","2021-08-21 07:00","2021","08","21","07:00","21.6","","21.6","","100","","0.0","","13","","3","","","","99.27","","31","","","","NA"
"-79.33","42.97","WELLAND-PELHAM","6139449","2021-08-21 08:00","2021","08","21","08:00","23.6","","23.6","","100","","0.0","","18","","3","","","","99.27","","34","","","","NA"
"-79.33","42.97","WELLAND-PELHAM","6139449","2021-08-21 09:00","2021","08","21","09:00","24.7","","23.9","","96","","0.0","","27","","3","","","","99.22","","36","","","","NA"
"-79.33","42.97","WELLAND-PELHAM","6139449","2021-08-21 10:00","2021","08","21","10:00","27.1","","21.1","","70","","0.0","","17","","5","","","","99.23","","36","","","","NA"
"-79.33","42.97","WELLAND-PELHAM","6139449","2021-08-21 11:00","2021","08","21","11:00","27.9","","19.8","","61","","0.0","","14","","6","","","","99.22","","35","","","","NA"
"-79.33","42.97","WELLAND-PELHAM","6139449","2021-08-21 12:00","2021","08","21","12:00","27.8","","21.2","","67","","0.0","","11","","9","","","","99.18","","36","","","","NA"
"-79.33","42.97","WELLAND-PELHAM","6139449","2021-08-21 13:00","2021","08","21","13:00","28.0","","20.0","","62","","0.0","","18","","10","","","","99.14","","36","","","","NA"
"-79.33","42.97","WELLAND-PELHAM","6139449","2021-08-21 14:00","2021","08","21","14:00","27.9","","18.7","","57","","0.0","","19","","11","","","","99.13","","34","","","","NA"
"-79.33","42.97","WELLAND-PELHAM","6139449","2021-08-21 15:00","2021","08","21","15:00","29.3","","18.2","","51","","0.0","","13","","7","","","","99.05","","35","","","","NA"
"-79.33","42.97","WELLAND-PELHAM","6139449","2021-08-21 16:00","2021","08","21","16:00","27.5","","20.4","","65","","0.0","","10","","8","","","","99.02","","35","","","","NA"
"-79.33","42.97","WELLAND-PELHAM","6139449","2021-08-21 17:00","2021","08","21","17:00","28.0","","19.4","","60","","0.0","","7","","10","","","","99.02","","35","","","","NA"
"-79.33","42.97","WELLAND-PELHAM","6139449","2021-08-21 18:00","2021","08","21","18:00","27.0","","21.9","","74","","0.0","","0","","1","","","","99.06","","36","","","","NA"
"-79.33","42.97","WELLAND-PELHAM","6139449","2021-08-21 19:00","2021","08","21","19:00","25.8","","18.6","","65","","0.0","","20","","4","","","","99.08","","32","","","","NA"
"-79.33","42.97","WELLAND-PELHAM","6139449","2021-08-21 20:00","2021","08","21","20:00","23.0","","21.4","","91","","0.0","","17","","2","","","","99.09","","32","","","","NA"
"-79.33","42.97","WELLAND-PELHAM","6139449","2021-08-21 21:00","2021","08","21","21:00","21.7","","21.7","","100","","0.0","","0","","1","","","","99.10","","31","","","","NA"
"-79.33","42.97","WELLAND-PELHAM","6139449","2021-08-21 22:00","2021","08","21","22:00","20.7","","20.7","","100","","0.0","","","","0","","","","99.09","","29","","","","NA"
"-79.33","42.97","WELLAND-PELHAM","6139449","2021-08-21 23:00","2021","08","21","23:00","21.0","","21.0","","100","","0.0","","26","","5","","","","99.12","","29","","","","NA"
"-79.33","42.97","WELLAND-PELHAM","6139449","2021-08-22 00:00","2021","08","22","00:00","20.2","","20.2","","100","","0.0","","32","","2","","","","99.12","","28","","","","NA"
"-79.33","42.97","WELLAND-PELHAM","6139449","2021-08-22 01:00","2021","08","22","01:00","19.7","","19.7","","100","","0.0","","26","","4","","","","99.14","","","","","","NA"
"-79.33","42.97","WELLAND-PELHAM","6139449","2021-08-22 02:00","2021","08","22","02:00","19.9","","19.9","","100","","0.0","","0","","1","","","","99.13","","","","","","NA"
"-79.33","42.97","WELLAND-PELHAM","6139449","2021-08-22 03:00","2021","08","22","03:00","19.2","","19.2","","100","","0.0","","","","0","","","","99.14","","","","","","NA"
"-79.33","42.97","WELLAND-PELHAM","6139449","2021-08-22 04:00","2021","08","22","04:00","19.3","","19.3","","100","","0.0","","27","","5","","","","99.16","","","","","","NA"
"-79.33","42.97","WELLAND-PELHAM","6139449","2021-08-22 05:00","2021","08","22","05:00","19.7","","19.7","","100","","0.0","","","","0","","","","99.21","","","","","","NA"
"-79.33","42.97","WELLAND-PELHAM","6139449","2021-08-22 06:00","2021","08","22","06:00","19.9","","19.9","","100","","0.0","","30","","5","","","","99.27","","","","","","NA"
"-79.33","42.97","WELLAND-PELHAM","6139449","2021-08-22 07:00","2021","08","22","07:00","20.8","","20.8","","100","","0.0","","28","","6","","","","99.31","","29","","","","NA"
"-79.33","42.97","WELLAND-PELHAM","6139449","2021-08-22 08:00","2021","08","22","08:00","22.4","","22.4","","100","","0.0","","31","","3","","","","99.29","","32","","","","NA"
"-79.33","42.97","WELLAND-PELHAM","6139449","2021-08-22 09:00","2021","08","22","09:00","25.9","","22.3","","80","","0.0","","33","","4","","","","99.29","","36","","","","NA"
"-79.33","42.97","WELLAND-PELHAM","6139449","2021-08-22 10:00","2021","08","22","10:00","27.4","","20.9","","68","","0.0","","33","","10","","","","99.28","","36","","","","NA"
"-79.33","42.97","WELLAND-PELHAM","6139449","2021-08-22 11:00","2021","08","22","11:00","28.4","","19.6","","59","","0.0","","35","","8","","","","99.26","","36","","","","NA"
"-79.33","42.97","WELLAND-PELHAM","6139449","2021-08-22 12:00","2021","08","22","12:00","28.6","","19.0","","56","","0.0","","3","","10","","","","99.23","","35","","","","NA"
"-79.33","42.97","WELLAND-PELHAM","6139449","2021-08-22 13:00","2021","08","22","13:00","27.9","","21.7","","69","","0.0","","33","","7","","","","99.24","","37","","","","NA"
"-79.33","42.97","WELLAND-PELHAM","6139449","2021-08-22 14:00","2021","08","22","14:00","28.3","","23.1","","73","","0.0","","18","","12","","","","99.19","","39","","","","NA"
"-79.33","42.97","WELLAND-PELHAM","6139449","2021-08-22 15:00","2021","08","22","15:00","27.6","","22.7","","75","","0.0","","25","","8","","","","99.17","","38","","","","NA"
"-79.33","42.97","WELLAND-PELHAM","6139449","2021-08-22 16:00","2021","08","22","16:00","27.7","","22.9","","75","","0.0","","24","","7","","","","99.14","","38","","","","NA"
"-79.33","42.97","WELLAND-PELHAM","6139449","2021-08-22 17:00","2021","08","22","17:00","28.7","","22.0","","67","","0.0","","25","","6","","","","99.13","","38","","","","NA"
"-79.33","42.97","WELLAND-PELHAM","6139449","2021-08-22 18:00","2021","08","22","18:00","26.6","","24.2","","86","","0.0","","24","","8","","","","99.13","","38","","","","NA"
"-79.33","42.97","WELLAND-PELHAM","6139449","2021-08-22 19:00","2021","08","22","19:00","25.5","","24.3","","93","","0.0","","25","","4","","","","99.14","","37","","","","NA"
"-79.33","42.97","WELLAND-PELHAM","6139449","2021-08-22 20:00","2021","08","22","20:00","24.6","","24.6","","100","","0.0","","25","","4","","","","99.14","","37","","","","NA"
"-79.33","42.97","WELLAND-PELHAM","6139449","2021-08-22 21:00","2021","08","22","21:00","22.9","","22.9","","100","","0.0","","","","0","","","","99.11","","33","","","","NA"
"-79.33","42.97","WELLAND-PELHAM","6139449","2021-08-22 22:00","2021","08","22","22:00","22.1","","22.1","","100","","0.0","","29","","4","","","","99.12","","32","","","","NA"
"-79.33","42.97","WELLAND-PELHAM","6139449","2021-08-22 23:00","2021","08","22","23:00","22.0","","22.0","","100","","0.0","","30","","8","","","","99.11","","31","","","","NA"
"-79.33","42.97","WELLAND-PELHAM","6139449","2021-08-23 00:00","2021","08","23","00:00","23.7","","23.7","","100","","0.0","","34","","7","","","","99.12","","35","","","","NA"
"-79.33","42.97","WELLAND-PELHAM","6139449","2021-08-23 01:00","2021","08","23","01:00","23.2","","23.2","","100","","0.0","","34","","4","","","","99.11","","34","","","","NA"
"-79.33","42.97","WELLAND-PELHAM","6139449","2021-08-23 02:00","2021","08","23","02:00","23.4","","23.3","","100","","0.0","","34","","4","","","","99.07","","34","","","","NA"
"-79.33","42.97","WELLAND-PELHAM","6139449","2021-08-23 03:00","2021","08","23","03:00","22.4","","22.4","","100","","0.0","","30","","7","","","","99.10","","32","","","","NA"
"-79.33","42.97","WELLAND-PELHAM","6139449","2021-08-23 04:00","2021","08","23","04:00","21.4","","21.4","","100","","0.0","","30","","9","","","","99.08","","30","","","","NA"
"-79.33","42.97","WELLAND-PELHAM","6139449","2021-08-23 05:00","2021","08","23","05:00","20.8","","20.8","","100","","0.0","","29","","6","","","","99.08","","29","","","","NA"
"-79.33","42.97","WELLAND-PELHAM","6139449","2021-08-23 06:00","2021","08","23","06:00","20.2","","20.2","","100","","0.0","","28","","4","","","","99.13","","28","","","","NA"
"-79.33","42.97","WELLAND-PELHAM","6139449","2021-08-23 07:00","2021","08","23","07:00","21.6","","21.6","","100","","0.0","","30","","5","","","","99.15","","31","","","","NA"
"-79.33","42.97","WELLAND-PELHAM","6139449","2021-08-23 08:00","2021","08","23","08:00","24.2","","24.2","","100","","0.0","","31","","8","","","","99.14","","36","","","","NA"
"-79.33","42.97","WELLAND-PELHAM","6139449","2021-08-23 09:00","2021","08","23","09:00","26.0","","23.8","","88","","0.0","","30","","8","","","","99.14","","37","","","","NA"
"-79.33","42.97","WELLAND-PELHAM","6139449","2021-08-23 10:00","2021","08","23","10:00","28.0","","24.6","","82","","0.0","","27","","9","","","","99.15","","40","","","","NA"
"-79.33","42.97","WELLAND-PELHAM","6139449","2021-08-23 11:00","2021","08","23","11:00","29.2","","21.8","","64","","0.0","","30","","8","","","","99.15","","38","","","","NA"
"-79.33","42.97","WELLAND-PELHAM","6139449","2021-08-23 12:00","2021","08","23","12:00","28.5","","21.1","","64","","0.0","","33","","8","","","","99.13","","37","","","","NA"
"-79.33","42.97","WELLAND-PELHAM","6139449","2021-08-23 13:00","2021","08","23","13:00","29.1","","20.3","","59","","0.0","","31","","5","","","","99.10","","37","","","","NA"
"-79.33","42.97","WELLAND-PELHAM","6139449","2021-08-23 14:00","2021","08","23","14:00","29.1","","23.5","","72","","0.0","","21","","11","","","","99.08","","40","","","","NA"
"-79.33","42.97","WELLAND-PELHAM","6139449","2021-08-23 15:00","2021","08","23","15:00","29.9","","22.9","","66","","0.0","","25","","15","","","","99.05","","40","","","","NA"
"-79.33","42.97","WELLAND-PELHAM","6139449","2021-08-23 16:00","2021","08","23","16:00","29.4","","22.0","","64","","0.0","","27","","15","","","","99.06","","39","","","","NA"
"-79.33","42.97","WELLAND-PELHAM","6139449","2021-08-23 17:00","2021","08","23","17:00","28.6","","22.0","","68","","0.0","","26","","15","","","","99.05","","38","","","","NA"
"-79.33","42.97","WELLAND-PELHAM","6139449","2021-08-23 18:00","2021","08","23","18:00","27.8","","23.7","","78","","0.0","","25","","6","","","","99.06","","39","","","","NA"
"-79.33","42.97","WELLAND-PELHAM","6139449","2021-08-23 19:00","2021","08","23","19:00","25.9","","23.8","","88","","0.0","","24","","4","","","","99.09","","37","","","","NA"
"-79.33","42.97","WELLAND-PELHAM","6139449","2021-08-23 20:00","2021","08","23","20:00","24.6","","24.6","","100","","0.0","","25","","6","","","","99.14","","37","","","","NA"
"-79.33","42.97","WELLAND-PELHAM","6139449","2021-08-23 21:00","2021","08","23","21:00","22.5","","22.5","","100","","0.0","","28","","6","","","","99.20","","32","","","","NA"
"-79.33","42.97","WELLAND-PELHAM","6139449","2021-08-23 22:00","2021","08","23","22:00","21.9","","21.9","","100","","0.0","","28","","8","","","","99.23","","31","","","","NA"
"-79.33","42.97","WELLAND-PELHAM","6139449","2021-08-23 23:00","2021","08","23","23:00","21.1","","21.1","","100","","0.0","","28","","7","","","","99.29","","30","","","","NA"
"-79.33","42.97","WELLAND-PELHAM","6139449","2021-08-24 00:00","2021","08","24","00:00","19.2","","19.2","","100","","0.0","","27","","4","","","","99.33","","","","","","NA"
"-79.33","42.97","WELLAND-PELHAM","6139449","2021-08-24 01:00","2021","08","24","01:00","19.0","","19.0","","100","","0.0","","27","","6","","","","99.33","","","","","","NA"
"-79.33","42.97","WELLAND-PELHAM","6139449","2021-08-24 02:00","2021","08","24","02:00","18.0","","18.0","","100","","0.0","","26","","2","","","","99.35","","","","","","NA"
"-79.33","42.97","WELLAND-PELHAM","6139449","2021-08-24 03:00","2021","08","24","03:00","18.0","","18.0","","100","","0.0","","","","0","","","","99.37","","","","","","NA"
"-79.33","42.97","WELLAND-PELHAM","6139449","2021-08-24 04:00","2021","08","24","04:00","17.4","","17.4","","100","","0.0","","","","0","","","","99.35","","","","","","NA"
"-79.33","42.97","WELLAND-PELHAM","6139449","2021-08-24 05:00","2021","08","24","05:00","16.8","","16.8","","100","","0.0","","","","0","","","","99.39","","","","","","NA"
"-79.33","42.97","WELLAND-PELHAM","6139449","2021-08-24 06:00","2021","08","24","06:00","16.6","","16.6","","100","","0.0","","0","","1","","","","99.45","","","","","","NA"
"-79.33","42.97","WELLAND-PELHAM","6139449","2021-08-24 07:00","2021","08","24","07:00","19.2","","19.2","","100","","0.0","","29","","4","","","","99.49","","","","","","NA"
"-79.33","42.97","WELLAND-PELHAM","6139449","2021-08-24 08:00","2021","08","24","08:00","23.2","","23.2","","100","","0.0","","30","","2","","","","99.52","","34","","","","NA"
"-79.33","42.97","WELLAND-PELHAM","6139449","2021-08-24 09:00","2021","08","24","09:00","25.4","","20.4","","74","","0.0","","25","","5","","","","99.53","","33","","","","NA"
"-79.33","42.97","WELLAND-PELHAM","6139449","2021-08-24 10:00","2021","08","24","10:00","27.0","","20.6","","68","","0.0","","20","","6","","","","99.50","","35","","","","NA"
"-79.33","42.97","WELLAND-PELHAM","6139449","2021-08-24 11:00","2021","08","24","11:00","27.9","","22.5","","72","","0.0","","21","","8","","","","99.53","","38","","","","NA"
"-79.33","42.97","WELLAND-PELHAM","6139449","2021-08-24 12:00","2021","08","24","12:00","28.1","","19.9","","61","","0.0","","20","","11","","","","99.54","","36","","","","NA"
"-79.33","42.97","WELLAND-PELHAM","6139449","2021-08-24 13:00","2021","08","24","13:00","28.5","","20.5","","62","","0.0","","26","","13","","","","99.56","","36","","","","NA"
"-79.33","42.97","WELLAND-PELHAM","6139449","2021-08-24 14:00","2021","08","24","14:00","28.6","","19.9","","59","","0.0","","24","","13","","","","99.55","","36","","","","NA"
"-79.33","42.97","WELLAND-PELHAM","6139449","2021-08-24 15:00","2021","08","24","15:00","28.9","","15.0","","43","","0.0","","23","","13","","","","99.52","","33","","","","NA"
"-79.33","42.97","WELLAND-PELHAM","6139449","2021-08-24 16:00","2021","08","24","16:00","28.6","","17.5","","51","","0.0","","22","","11","","","","99.46","","34","","","","NA"
"-79.33","42.97","WELLAND-PELHAM","6139449","2021-08-24 17:00","2021","08","24","17:00","27.9","","18.4","","56","","0.0","","22","","9","","","","99.49","","34","","","","NA"
"-79.33","42.97","WELLAND-PELHAM","6139449","2021-08-24 18:00","2021","08","24","18:00","26.8","","19.4","","64","","0.0","","23","","5","","","","99.48","","34","","","","NA"
"-79.33","42.97","WELLAND-PELHAM","6139449","2021-08-24 19:00","2021","08","24","19:00","24.4","","23.1","","92","","0.0","","18","","5","","","","99.48","","35","","","","NA"
"-79.33","42.97","WELLAND-PELHAM","6139449","2021-08-24 20:00","2021","08","24","20:00","23.6","","23.6","","100","","0.0","","19","","4","","","","99.54","","34","","","","NA"
"-79.33","42.97","WELLAND-PELHAM","6139449","2021-08-24 21:00","2021","08","24","21:00","22.8","","22.8","","100","","0.0","","21","","2","","","","99.58","","33","","","","NA"
"-79.33","42.97","WELLAND-PELHAM","6139449","2021-08-24 22:00","2021","08","24","22:00","22.2","","22.1","","100","","0.0","","18","","2","","","","99.57","","32","","","","NA"
"-79.33","42.97","WELLAND-PELHAM","6139449","2021-08-24 23:00","2021","08","24","23:00","21.0","","21.0","","100","","0.0","","18","","2","","","","99.63","","29","","","","NA"
"-79.33","42.97","WELLAND-PELHAM","6139449","2021-08-25 00:00","2021","08","25","00:00","20.8","","20.8","","100","","0.0","","12","","2","","","","99.60","","29","","","","NA"
"-79.33","42.97","WELLAND-PELHAM","6139449","2021-08-25 01:00","2021","08","25","01:00","21.5","","21.5","","100","","0.0","","29","","4","","","","99.63","","30","","","","NA"
"-79.33","42.97","WELLAND-PELHAM","6139449","2021-08-25 02:00","2021","08","25","02:00","20.6","","20.6","","100","","0.0","","13","","4","","","","99.58","","29","","","","NA"
"-79.33","42.97","WELLAND-PELHAM","6139449","2021-08-25 03:00","2021","08","25","03:00","20.5","","20.5","","100","","0.0","","0","","1","","","","99.63","","28","","","","NA"
"-79.33","42.97","WELLAND-PELHAM","6139449","2021-08-25 04:00","2021","08","25","04:00","19.4","","19.3","","100","","0.0","","12","","2","","","","99.65","","","","","","NA"
"-79.33","42.97","WELLAND-PELHAM","6139449","2021-08-25 05:00","2021","08","25","05:00","19.4","","19.4","","100","","0.0","","0","","1","","","","99.67","","","","","","NA"
"-79.33","42.97","WELLAND-PELHAM","6139449","2021-08-25 06:00","2021","08","25","06:00","19.7","","19.7","","100","","0.0","","14","","2","","","","99.69","","","","","","NA"
"-79.33","42.97","WELLAND-PELHAM","6139449","2021-08-25 07:00","2021","08","25","07:00","23.4","","23.4","","100","","0.0","","14","","6","","","","99.68","","34","","","","NA"
"-79.33","42.97","WELLAND-PELHAM","6139449","2021-08-25 08:00","2021","08","25","08:00","25.5","","25.5","","100","","0.0","","19","","8","","","","99.74","","38","","","","NA"
"-79.33","42.97","WELLAND-PELHAM","6139449","2021-08-25 09:00","2021","08","25","09:00","27.0","","26.3","","96","","0.0","","19","","10","","","","99.75","","41","","","","NA"
"-79.33","42.97","WELLAND-PELHAM","6139449","2021-08-25 10:00","2021","08","25","10:00","28.1","","27.3","","95","","0.0","","25","","11","","","","99.82","","43","","","","NA"
"-79.33","42.97","WELLAND-PELHAM","6139449","2021-08-25 11:00","2021","08","25","11:00","28.7","","23.1","","71","","0.0","","28","","18","","","","99.82","","39","","","","NA"
"-79.33","42.97","WELLAND-PELHAM","6139449","2021-08-25 12:00","2021","08","25","12:00","28.6","","22.3","","69","","0.0","","18","","4","","","","99.74","","38","","","","NA"
"-79.33","42.97","WELLAND-PELHAM","6139449","2021-08-25 13:00","2021","08","25","13:00","28.0","","26.2","","90","","0.0","","20","","14","","","","99.73","","42","","","","NA"
"-79.33","42.97","WELLAND-PELHAM","6139449","2021-08-25 14:00","2021","08","25","14:00","27.2","","25.8","","93","","0.0","","20","","14","","","","99.76","","40","","","","NA"
"-79.33","42.97","WELLAND-PELHAM","6139449","2021-08-25 15:00","2021","08","25","15:00","27.0","","27.0","","100","","0.0","","24","","9","","","","99.75","","42","","","","NA"
"-79.33","42.97","WELLAND-PELHAM","6139449","2021-08-25 16:00","2021","08","25","16:00","27.1","","25.2","","89","","0.0","","25","","7","","","","99.73","","40","","","","NA"
"-79.33","42.97","WELLAND-PELHAM","6139449","2021-08-25 17:00","2021","08","25","17:00","26.9","","23.5","","82","","0.0","","23","","7","","","","99.71","","38","","","","NA"
"-79.33","42.97","WELLAND-PELHAM","6139449","2021-08-25 18:00","2021","08","25","18:00","26.5","","23.6","","84","","0.0","","25","","7","","","","99.69","","37","","","","NA"
"-79.33","42.97","WELLAND-PELHAM","6139449","2021-08-25 19:00","2021","08","25","19:00","25.6","","25.6","","100","","0.0","","20","","3","","","","99.69","","39","","","","NA"
"-79.33","42.97","WELLAND-PELHAM","6139449","2021-08-25 20:00","2021","08","25","20:00","24.6","","24.6","","100","","0.0","","19","","5","","","","99.71","","37","","","","NA"
"-79.33","42.97","WELLAND-PELHAM","6139449","2021-08-25 21:00","2021","08","25","21:00","24.1","","24.1","","100","","0.0","","20","","3","","","","99.75","","35","","","","NA"
"-79.33","42.97","WELLAND-PELHAM","6139449","2021-08-25 22:00","2021","08","25","22:00","24.3","","24.3","","100","","0.0","","20","","8","","","","99.76","","36","","","","NA"
"-79.33","42.97","WELLAND-PELHAM","6139449","2021-08-25 23:00","2021","08","25","23:00","24.2","","24.2","","100","","0.0","","20","","6","","","","99.79","","36","","","","NA"
"-79.33","42.97","WELLAND-PELHAM","6139449","2021-08-26 00:00","2021","08","26","00:00","24.0","","24.0","","100","","0.0","","25","","4","","","","99.81","","35","","","","NA"
"-79.33","42.97","WELLAND-PELHAM","6139449","2021-08-26 01:00","2021","08","26","01:00","23.5","","23.5","","100","","0.0","","26","","3","","","","99.83","","34","","","","NA"
"-79.33","42.97","WELLAND-PELHAM","6139449","2021-08-26 02:00","2021","08","26","02:00","23.2","","23.2","","100","","0.0","","23","","3","","","","99.83","","34","","","","NA"
"-79.33","42.97","WELLAND-PELHAM","6139449","2021-08-26 03:00","2021","08","26","03:00","22.5","","22.5","","100","","0.0","","0","","1","","","","99.83","","32","","","","NA"
"-79.33","42.97","WELLAND-PELHAM","6139449","2021-08-26 04:00","2021","08","26","04:00","21.5","","21.5","","100","","0.0","","","","0","","","","99.84","","30","","","","NA"
"-79.33","42.97","WELLAND-PELHAM","6139449","2021-08-26 05:00","2021","08","26","05:00","21.9","","21.9","","100","","0.0","","22","","2","","","","99.87","","31","","","","NA"
"-79.33","42.97","WELLAND-PELHAM","6139449","2021-08-26 06:00","2021","08","26","06:00","22.2","","22.2","","100","","0.0","","17","","2","","","","99.90","","32","","","","NA"
"-79.33","42.97","WELLAND-PELHAM","6139449","2021-08-26 07:00","2021","08","26","07:00","23.4","","23.4","","100","","0.0","","0","","1","","","","99.94","","34","","","","NA"
"-79.33","42.97","WELLAND-PELHAM","6139449","2021-08-26 08:00","2021","08","26","08:00","25.1","","25.1","","100","","0.0","","28","","8","","","","99.96","","38","","","","NA"
"-79.33","42.97","WELLAND-PELHAM","6139449","2021-08-26 09:00","2021","08","26","09:00","26.5","","25.0","","91","","0.0","","28","","8","","","","99.94","","39","","","","NA"
"-79.33","42.97","WELLAND-PELHAM","6139449","2021-08-26 10:00","2021","08","26","10:00","28.1","","24.6","","81","","0.0","","23","","6","","","","99.92","","40","","","","NA"
"-79.33","42.97","WELLAND-PELHAM","6139449","2021-08-26 11:00","2021","08","26","11:00","28.4","","26.7","","91","","0.0","","19","","10","","","","99.91","","43","","","","NA"
"-79.33","42.97","WELLAND-PELHAM","6139449","2021-08-26 12:00","2021","08","26","12:00","27.7","","26.8","","95","","0.0","","18","","14","","","","99.91","","42","","","","NA"
"-79.33","42.97","WELLAND-PELHAM","6139449","2021-08-26 13:00","2021","08","26","13:00","28.8","","25.1","","80","","0.0","","23","","8","","","","99.88","","41","","","","NA"
"-79.33","42.97","WELLAND-PELHAM","6139449","2021-08-26 14:00","2021","08","26","14:00","29.4","","26.0","","82","","0.0","","20","","10","","","","99.82","","43","","","","NA"
"-79.33","42.97","WELLAND-PELHAM","6139449","2021-08-26 15:00","2021","08","26","15:00","29.8","","25.8","","79","","0.0","","21","","9","","","","99.76","","43","","","","NA"
"-79.33","42.97","WELLAND-PELHAM","6139449","2021-08-26 16:00","2021","08","26","16:00","29.1","","24.9","","78","","0.0","","20","","10","","","","99.73","","41","","","","NA"
"-79.33","42.97","WELLAND-PELHAM","6139449","2021-08-26 17:00","2021","08","26","17:00","28.6","","25.1","","81","","0.0","","19","","8","","","","99.75","","41","","","","NA"
"-79.33","42.97","WELLAND-PELHAM","6139449","2021-08-26 18:00","2021","08","26","18:00","27.1","","25.7","","93","","0.0","","25","","4","","","","99.76","","40","","","","NA"
"-79.33","42.97","WELLAND-PELHAM","6139449","2021-08-26 19:00","2021","08","26","19:00","25.8","","25.8","","100","","0.0","","28","","8","","","","99.87","","39","","","","NA"
"-79.33","42.97","WELLAND-PELHAM","6139449","2021-08-26 20:00","2021","08","26","20:00","23.7","","20.9","","84","","0.0","","8","","5","","","","99.80","","32","","","","NA"
"-79.33","42.97","WELLAND-PELHAM","6139449","2021-08-26 21:00","2021","08","26","21:00","24.0","","19.0","","74","","0.0","","34","","16","","","","99.86","","31","","","","NA"
"-79.33","42.97","WELLAND-PELHAM","6139449","2021-08-26 22:00","2021","08","26","22:00","21.3","","21.3","","100","","0.0","","13","","1","","","","99.86","","30","","","","NA"
"-79.33","42.97","WELLAND-PELHAM","6139449","2021-08-26 23:00","2021","08","26","23:00","19.6","","19.6","","100","","0.0","","33","","4","","","","99.85","","","","","","NA"
"-79.33","42.97","WELLAND-PELHAM","6139449","2021-08-27 00:00","2021","08","27","00:00","20.0","","20.0","","100","","0.0","","","","0","","","","99.90","","28","","","","NA"
"-79.33","42.97","WELLAND-PELHAM","6139449","2021-08-27 01:00","2021","08","27","01:00","19.4","","19.4","","100","","0.0","","31","","3","","","","99.90","","","","","","NA"
"-79.33","42.97","WELLAND-PELHAM","6139449","2021-08-27 02:00","2021","08","27","02:00","18.8","","18.8","","100","","0.0","","27","","2","","","","99.85","","","","","","NA"
"-79.33","42.97","WELLAND-PELHAM","6139449","2021-08-27 03:00","2021","08","27","03:00","18.8","","18.8","","100","","0.0","","29","","3","","","","99.83","","","","","","NA"
"-79.33","42.97","WELLAND-PELHAM","6139449","2021-08-27 04:00","2021","08","27","04:00","19.3","","19.3","","100","","0.0","","1","","2","","","","99.86","","","","","","NA"
"-79.33","42.97","WELLAND-PELHAM","6139449","2021-08-27 05:00","2021","08","27","05:00","19.2","","19.2","","100","","0.0","","0","","1","","","","99.84","","","","","","NA"
"-79.33","42.97","WELLAND-PELHAM","6139449","2021-08-27 06:00","2021","08","27","06:00","21.0","","21.0","","100","","0.0","","4","","6","","","","99.87","","29","","","","NA"
"-79.33","42.97","WELLAND-PELHAM","6139449","2021-08-27 07:00","2021","08","27","07:00","22.6","","22.6","","100","","0.0","","7","","11","","","","99.88","","32","","","","NA"
"-79.33","42.97","WELLAND-PELHAM","6139449","2021-08-27 08:00","2021","08","27","08:00","24.0","","22.2","","90","","0.0","","6","","15","","","","99.94","","34","","","","NA"
"-79.33","42.97","WELLAND-PELHAM","6139449","2021-08-27 09:00","2021","08","27","09:00","24.9","","20.6","","77","","0.0","","5","","14","","","","99.97","","33","","","","NA"
"-79.33","42.97","WELLAND-PELHAM","6139449","2021-08-27 10:00","2021","08","27","10:00","25.9","","20.9","","74","","0.0","","5","","14","","","","99.99","","34","","","","NA"
"-79.33","42.97","WELLAND-PELHAM","6139449","2021-08-27 11:00","2021","08","27","11:00","26.2","","20.6","","71","","0.0","","5","","16","","","","100.02","","34","","","","NA"
"-79.33","42.97","WELLAND-PELHAM","6139449","2021-08-27 12:00","2021","08","27","12:00","27.2","","20.6","","67","","0.0","","7","","13","","","","99.99","","35","","","","NA"
"-79.33","42.97","WELLAND-PELHAM","6139449","2021-08-27 13:00","2021","08","27","13:00","27.8","","21.1","","67","","0.0","","7","","18","","","","99.94","","36","","","","NA"
"-79.33","42.97","WELLAND-PELHAM","6139449","2021-08-27 14:00","2021","08","27","14:00","27.5","","19.7","","63","","0.0","","7","","19","","","","99.90","","35","","","","NA"
"-79.33","42.97","WELLAND-PELHAM","6139449","2021-08-27 15:00","2021","08","27","15:00","27.4","","19.3","","61","","0.0","","7","","18","","","","99.87","","34","","","","NA"
"-79.33","42.97","WELLAND-PELHAM","6139449","2021-08-27 16:00","2021","08","27","16:00","27.3","","18.5","","59","","0.0","","8","","15","","","","99.92","","34","","","","NA"
"-79.33","42.97","WELLAND-PELHAM","6139449","2021-08-27 17:00","2021","08","27","17:00","25.8","","18.3","","63","","0.0","","7","","12","","","","99.90","","32","","","","NA"
"-79.33","42.97","WELLAND-PELHAM","6139449","2021-08-27 18:00","2021","08","27","18:00","24.9","","16.9","","61","","0.0","","6","","12","","","","99.90","","30","","","","NA"
"-79.33","42.97","WELLAND-PELHAM","6139449","2021-08-27 19:00","2021","08","27","19:00","23.8","","16.6","","64","","0.0","","7","","15","","","","99.93","","29","","","","NA"
"-79.33","42.97","WELLAND-PELHAM","6139449","2021-08-27 20:00","2021","08","27","20:00","22.7","","16.5","","68","","0.0","","8","","16","","","","100.02","","28","","","","NA"
"-79.33","42.97","WELLAND-PELHAM","6139449","2021-08-27 21:00","2021","08","27","21:00","22.0","","17.6","","76","","0.0","","9","","15","","","","100.07","","28","","","","NA"
"-79.33","42.97","WELLAND-PELHAM","6139449","2021-08-27 22:00","2021","08","27","22:00","21.4","","18.2","","82","","0.0","","9","","13","","","","100.05","","28","","","","NA"
"-79.33","42.97","WELLAND-PELHAM","6139449","2021-08-27 23:00","2021","08","27","23:00","21.3","","18.0","","82","","0.0","","9","","14","","","","100.05","","27","","","","NA"
"-79.33","42.97","WELLAND-PELHAM","6139449","2021-08-28 00:00","2021","08","28","00:00","20.8","","17.5","","82","","0.0","","8","","13","","","","100.03","","26","","","","NA"
"-79.33","42.97","WELLAND-PELHAM","6139449","2021-08-28 01:00","2021","08","28","01:00","20.4","","17.4","","83","","0.0","","9","","11","","","","100.01","","26","","","","NA"
"-79.33","42.97","WELLAND-PELHAM","6139449","2021-08-28 02:00","2021","08","28","02:00","19.8","","17.6","","87","","0.0","","8","","10","","","","99.97","","","","","","NA"
"-79.33","42.97","WELLAND-PELHAM","6139449","2021-08-28 03:00","2021","08","28","03:00","19.5","","17.7","","89","","0.0","","6","","7","","","","100.00","","","","","","NA"
"-79.33","42.97","WELLAND-PELHAM","6139449","2021-08-28 04:00","2021","08","28","04:00","18.4","","18.4","","100","","0.0","","7","","7","","","","99.96","","","","","","NA"
"-79.33","42.97","WELLAND-PELHAM","6139449","2021-08-28 05:00","2021","08","28","05:00","18.3","","18.3","","100","","0.0","","8","","6","","","","99.98","","","","","","NA"
"-79.33","42.97","WELLAND-PELHAM","6139449","2021-08-28 06:00","2021","08","28","06:00","18.5","","","M","","M","0.0","","7","","4","","","","100.02","","","","","","NA"
"-79.33","42.97","WELLAND-PELHAM","6139449","2021-08-28 07:00","2021","08","28","07:00","20.3","","19.7","","96","","0.0","","8","","6","","","","100.07","","28","","","","NA"
"-79.33","42.97","WELLAND-PELHAM","6139449","2021-08-28 08:00","2021","08","28","08:00","22.3","","17.6","","75","","0.0","","9","","3","","","","100.07","","28","","","","NA"
"-79.33","42.97","WELLAND-PELHAM","6139449","2021-08-28 09:00","2021","08","28","09:00","24.4","","20.0","","77","","0.0","","33","","1","","","","100.09","","32","","","","NA"
"-79.33","42.97","WELLAND-PELHAM","6139449","2021-08-28 10:00","2021","08","28","10:00","26.2","","20.5","","71","","0.0","","5","","2","","","","100.07","","34","","","","NA"
"-79.33","42.97","WELLAND-PELHAM","6139449","2021-08-28 11:00","2021","08","28","11:00","28.0","","20.9","","65","","0.0","","17","","4","","","","100.03","","36","","","","NA"
"-79.33","42.97","WELLAND-PELHAM","6139449","2021-08-28 12:00","2021","08","28","12:00","29.5","","22.3","","65","","0.0","","20","","7","","","","99.97","","39","","","","NA"
"-79.33","42.97","WELLAND-PELHAM","6139449","2021-08-28 13:00","2021","08","28","13:00","30.6","","23.3","","65","","0.0","","20","","7","","","","99.96","","41","","","","NA"
"-79.33","42.97","WELLAND-PELHAM","6139449","2021-08-28 14:00","2021","08","28","14:00","30.4","","21.8","","60","","0.0","","18","","7","","","","99.92","","40","","","","NA"
"-79.33","42.97","WELLAND-PELHAM","6139449","2021-08-28 15:00","2021","08","28","15:00","30.6","","21.0","","56","","0.0","","24","","11","","","","99.89","","39","","","","NA"
"-79.33","42.97","WELLAND-PELHAM","6139449","2021-08-28 16:00","2021","08","28","16:00","30.1","","21.7","","61","","0.0","","20","","11","","","","99.85","","39","","","","NA"
"-79.33","42.97","WELLAND-PELHAM","6139449","2021-08-28 17:00","2021","08","28","17:00","29.1","","21.5","","63","","0.0","","19","","9","","","","99.85","","38","","","","NA"
"-79.33","42.97","WELLAND-PELHAM","6139449","2021-08-28 18:00","2021","08","28","18:00","27.4","","22.6","","75","","0.0","","20","","2","","","","99.90","","37","","","","NA"
"-79.33","42.97","WELLAND-PELHAM","6139449","2021-08-28 19:00","2021","08","28","19:00","26.0","","26.0","","100","","0.0","","9","","3","","","","99.93","","39","","","","NA"
"-79.33","42.97","WELLAND-PELHAM","6139449","2021-08-28 20:00","2021","08","28","20:00","24.3","","","M","","M","0.0","","35","","5","","","","99.97","","","","","","NA"
"-79.33","42.97","WELLAND-PELHAM","6139449","2021-08-28 21:00","2021","08","28","21:00","22.4","","22.4","","100","","0.0","","24","","2","","","","99.90","","32","","","","NA"
"-79.33","42.97","WELLAND-PELHAM","6139449","2021-08-28 22:00","2021","08","28","22:00","22.1","","22.1","","100","","0.0","","32","","3","","","","99.93","","32","","","","NA"
"-79.33","42.97","WELLAND-PELHAM","6139449","2021-08-28 23:00","2021","08","28","23:00","21.2","","21.2","","100","","0.0","","","","0","","","","99.93","","30","","","","NA"
"-79.33","42.97","WELLAND-PELHAM","6139449","2021-08-29 00:00","2021","08","29","00:00","21.4","","21.4","","100","","0.0","","","","0","","","","99.91","","30","","","","NA"
"-79.33","42.97","WELLAND-PELHAM","6139449","2021-08-29 01:00","2021","08","29","01:00","23.0","","23.0","","100","","0.0","","30","","7","","","","99.86","","33","","","","NA"
"-79.33","42.97","WELLAND-PELHAM","6139449","2021-08-29 02:00","2021","08","29","02:00","22.1","","22.1","","100","","0.0","","13","","7","","","","99.78","","32","","","","NA"
"-79.33","42.97","WELLAND-PELHAM","6139449","2021-08-29 03:00","2021","08","29","03:00","22.4","","22.4","","100","","0.0","","19","","4","","","","99.70","","32","","","","NA"
"-79.33","42.97","WELLAND-PELHAM","6139449","2021-08-29 04:00","2021","08","29","04:00","23.1","","23.1","","100","","0.0","","21","","2","","","","99.76","","33","","","","NA"
"-79.33","42.97","WELLAND-PELHAM","6139449","2021-08-29 05:00","2021","08","29","05:00","23.4","","23.4","","100","","0.0","","18","","8","","","","99.75","","34","","","","NA"
"-79.33","42.97","WELLAND-PELHAM","6139449","2021-08-29 06:00","2021","08","29","06:00","23.6","","23.6","","100","","0.0","","18","","7","","","","99.80","","34","","","","NA"
"-79.33","42.97","WELLAND-PELHAM","6139449","2021-08-29 07:00","2021","08","29","07:00","24.7","","24.7","","100","","0.0","","20","","6","","","","99.83","","37","","","","NA"
"-79.33","42.97","WELLAND-PELHAM","6139449","2021-08-29 08:00","2021","08","29","08:00","26.0","","26.0","","100","","0.0","","19","","9","","","","99.82","","39","","","","NA"
"-79.33","42.97","WELLAND-PELHAM","6139449","2021-08-29 09:00","2021","08","29","09:00","27.0","","27.0","","100","","0.0","","21","","12","","","","99.79","","42","","","","NA"
"-79.33","42.97","WELLAND-PELHAM","6139449","2021-08-29 10:00","2021","08","29","10:00","28.4","","25.6","","85","","0.0","","22","","11","","","","99.75","","41","","","","NA"
"-79.33","42.97","WELLAND-PELHAM","6139449","2021-08-29 11:00","2021","08","29","11:00","28.4","","26.9","","92","","0.0","","21","","13","","","","99.69","","43","","","","NA"
"-79.33","42.97","WELLAND-PELHAM","6139449","2021-08-29 12:00","2021","08","29","12:00","25.8","","24.2","","91","","0.0","","31","","17","","","","99.66","","37","","","","NA"
"-79.33","42.97","WELLAND-PELHAM","6139449","2021-08-29 13:00","2021","08","29","13:00","27.8","","27.1","","96","","3.8","","21","","10","","","","99.52","","43","","","","NA"
"-79.33","42.97","WELLAND-PELHAM","6139449","2021-08-29 14:00","2021","08","29","14:00","28.1","","27.4","","96","","0.0","","21","","8","","","","99.52","","43","","","","NA"
"-79.33","42.97","WELLAND-PELHAM","6139449","2021-08-29 15:00","2021","08","29","15:00","28.4","","24.1","","78","","0.0","","20","","16","","","","99.43","","40","","","","NA"
"-79.33","42.97","WELLAND-PELHAM","6139449","2021-08-29 16:00","2021","08","29","16:00","28.1","","24.9","","83","","0.0","","19","","17","","","","99.36","","40","","","","NA"
"-79.33","42.97","WELLAND-PELHAM","6139449","2021-08-29 17:00","2021","08","29","17:00","28.0","","24.9","","84","","0.0","","20","","13","","","","99.32","","40","","","","NA"
"-79.33","42.97","WELLAND-PELHAM","6139449","2021-08-29 18:00","2021","08","29","18:00","27.9","","23.1","","75","","0.0","","21","","12","","","","99.31","","38","","","","NA"
"-79.33","42.97","WELLAND-PELHAM","6139449","2021-08-29 19:00","2021","08","29","19:00","26.5","","26.5","","100","","0.0","","20","","11","","","","99.32","","41","","","","NA"
"-79.33","42.97","WELLAND-PELHAM","6139449","2021-08-29 20:00","2021","08","29","20:00","26.0","","26.1","","100","","0.0","","19","","13","","","","99.30","","40","","","","NA"
"-79.33","42.97","WELLAND-PELHAM","6139449","2021-08-29 21:00","2021","08","29","21:00","25.6","","24.5","","94","","0.0","","20","","11","","","","99.26","","37","","","","NA"
"-79.33","42.97","WELLAND-PELHAM","6139449","2021-08-29 22:00","2021","08","29","22:00","23.7","","23.7","","100","","3.1","","25","","10","","","","99.30","","35","","","","NA"
"-79.33","42.97","WELLAND-PELHAM","6139449","2021-08-29 23:00","2021","08","29","23:00","21.2","","21.2","","100","","17.2","","26","","7","","","","99.22","","30","","","","NA"
"-79.33","42.97","WELLAND-PELHAM","6139449","2021-08-30 00:00","2021","08","30","00:00","21.4","","21.4","","100","","0.1","","19","","10","","","","99.26","","30","","","","NA"
"-79.33","42.97","WELLAND-PELHAM","6139449","2021-08-30 01:00","2021","08","30","01:00","21.8","","21.8","","100","","0.0","","20","","9","","","","99.22","","31","","","","NA"
"-79.33","42.97","WELLAND-PELHAM","6139449","2021-08-30 02:00","2021","08","30","02:00","21.7","","21.7","","100","","9.4","","19","","7","","","","99.19","","31","","","","NA"
"-79.33","42.97","WELLAND-PELHAM","6139449","2021-08-30 03:00","2021","08","30","03:00","22.8","","22.8","","100","","0.1","","22","","9","","","","99.17","","33","","","","NA"
"-79.33","42.97","WELLAND-PELHAM","6139449","2021-08-30 04:00","2021","08","30","04:00","23.0","","23.0","","100","","0.0","","26","","8","","","","99.13","","33","","","","NA"
"-79.33","42.97","WELLAND-PELHAM","6139449","2021-08-30 05:00","2021","08","30","05:00","22.5","","22.5","","100","","0.0","","24","","4","","","","99.15","","32","","","","NA"
"-79.33","42.97","WELLAND-PELHAM","6139449","2021-08-30 06:00","2021","08","30","06:00","22.4","","22.4","","100","","0.0","","27","","7","","","","99.19","","32","","","","NA"
"-79.33","42.97","WELLAND-PELHAM","6139449","2021-08-30 07:00","2021","08","30","07:00","22.5","","22.5","","100","","0.0","","28","","9","","","","99.21","","32","","","","NA"
"-79.33","42.97","WELLAND-PELHAM","6139449","2021-08-30 08:00","2021","08","30","08:00","23.4","","23.4","","100","","0.0","","29","","11","","","","99.20","","34","","","","NA"
"-79.33","42.97","WELLAND-PELHAM","6139449","2021-08-30 09:00","2021","08","30","09:00","24.5","","23.4","","93","","0.0","","31","","12","","","","99.19","","35","","","","NA"
"-79.33","42.97","WELLAND-PELHAM","6139449","2021-08-30 10:00","2021","08","30","10:00","25.6","","","M","","M","0.0","","31","","12","","","","99.18","","","","","","NA"
"-79.33","42.97","WELLAND-PELHAM","6139449","2021-08-30 11:00","2021","08","30","11:00","26.2","","","M","","M","0.0","","29","","14","","","","99.13","","","","","","NA"
"-79.33","42.97","WELLAND-PELHAM","6139449","2021-08-30 12:00","2021","08","30","12:00","26.6","","","M","","M","0.0","","26","","10","","","","99.10","","","","","","NA"
"-79.33","42.97","WELLAND-PELHAM","6139449","2021-08-30 13:00","2021","08","30","13:00","27.4","","","M","","M","0.0","","26","","14","","","","99.06","","","","","","NA"
"-79.33","42.97","WELLAND-PELHAM","6139449","2021-08-30 14:00","2021","08","30","14:00","26.3","","","M","","M","0.0","","26","","13","","","","99.00","","","","","","NA"
"-79.33","42.97","WELLAND-PELHAM","6139449","2021-08-30 15:00","2021","08","30","15:00","25.9","","","M","","M","0.0","","25","","11","","","","98.93","","","","","","NA"
"-79.33","42.97","WELLAND-PELHAM","6139449","2021-08-30 16:00","2021","08","30","16:00","26.8","","","M","","M","0.0","","23","","12","","","","98.92","","","","","","NA"
"-79.33","42.97","WELLAND-PELHAM","6139449","2021-08-30 17:00","2021","08","30","17:00","25.8","","","M","","M","0.0","","24","","9","","","","98.90","","","","","","NA"
"-79.33","42.97","WELLAND-PELHAM","6139449","2021-08-30 18:00","2021","08","30","18:00","25.5","","","M","","M","0.0","","24","","7","","","","98.91","","","","","","NA"
"-79.33","42.97","WELLAND-PELHAM","6139449","2021-08-30 19:00","2021","08","30","19:00","23.3","","","M","","M","0.0","","27","","6","","","","98.94","","","","","","NA"
"-79.33","42.97","WELLAND-PELHAM","6139449","2021-08-30 20:00","2021","08","30","20:00","20.3","","","M","","M","0.0","","28","","4","","","","98.99","","","","","","NA"
"-79.33","42.97","WELLAND-PELHAM","6139449","2021-08-30 21:00","2021","08","30","21:00","19.1","","","M","","M","0.0","","","","0","","","","99.01","","","","","","NA"
"-79.33","42.97","WELLAND-PELHAM","6139449","2021-08-30 22:00","2021","08","30","22:00","17.9","","","M","","M","0.0","","","","0","","","","99.00","","","","","","NA"
"-79.33","42.97","WELLAND-PELHAM","6139449","2021-08-30 23:00","2021","08","30","23:00","16.8","","","M","","M","0.0","","28","","3","","","","99.00","","","","","","NA"
"-79.33","42.97","WELLAND-PELHAM","6139449","2021-08-31 00:00","2021","08","31","00:00","16.8","","","M","","M","0.0","","","","0","","","","99.00","","","","","","NA"
"-79.33","42.97","WELLAND-PELHAM","6139449","2021-08-31 01:00","2021","08","31","01:00","16.0","","","M","","M","0.0","","","","0","","","","98.98","","","","","","NA"
"-79.33","42.97","WELLAND-PELHAM","6139449","2021-08-31 02:00","2021","08","31","02:00","15.7","","","M","","M","0.0","","33","","1","","","","98.96","","","","","","NA"
"-79.33","42.97","WELLAND-PELHAM","6139449","2021-08-31 03:00","2021","08","31","03:00","15.4","","","M","","M","0.0","","29","","4","","","","98.96","","","","","","NA"
"-79.33","42.97","WELLAND-PELHAM","6139449","2021-08-31 04:00","2021","08","31","04:00","16.7","","","M","","M","0.0","","26","","3","","","","98.97","","","","","","NA"
"-79.33","42.97","WELLAND-PELHAM","6139449","2021-08-31 05:00","2021","08","31","05:00","15.3","","","M","","M","0.0","","27","","2","","","","98.96","","","","","","NA"
"-79.33","42.97","WELLAND-PELHAM","6139449","2021-08-31 06:00","2021","08","31","06:00","15.6","","","M","","M","0.0","","0","","1","","","","98.97","","","","","","NA"
"-79.33","42.97","WELLAND-PELHAM","6139449","2021-08-31 07:00","2021","08","31","07:00","17.7","","","M","","M","0.0","","","","0","","","","98.98","","","","","","NA"
"-79.33","42.97","WELLAND-PELHAM","6139449","2021-08-31 08:00","2021","08","31","08:00","21.0","","","M","","M","0.0","","34","","11","","","","98.98","","","","","","NA"
"-79.33","42.97","WELLAND-PELHAM","6139449","2021-08-31 09:00","2021","08","31","09:00","22.2","","","M","","M","0.0","","35","","9","","","","99.00","","","","","","NA"
"-79.33","42.97","WELLAND-PELHAM","6139449","2021-08-31 10:00","2021","08","31","10:00","22.8","","","M","","M","0.0","","30","","8","","","","99.05","","","","","","NA"
"-79.33","42.97","WELLAND-PELHAM","6139449","2021-08-31 11:00","2021","08","31","11:00","23.8","","","M","","M","0.0","","29","","5","","","","99.02","","","","","","NA"
"-79.33","42.97","WELLAND-PELHAM","6139449","2021-08-31 12:00","2021","08","31","12:00","24.4","","","M","","M","0.0","","27","","7","","","","98.98","","","","","","NA"
"-79.33","42.97","WELLAND-PELHAM","6139449","2021-08-31 13:00","2021","08","31","13:00","25.1","","","M","","M","0.0","","30","","14","","","","98.93","","","","","","NA"
"-79.33","42.97","WELLAND-PELHAM","6139449","2021-08-31 14:00","2021","08","31","14:00","25.0","","","M","","M","0.0","","36","","8","","","","98.89","","","","","","NA"
"-79.33","42.97","WELLAND-PELHAM","6139449","2021-08-31 15:00","2021","08","31","15:00","23.9","","","M","","M","0.0","","34","","10","","","","98.88","","","","","","NA"
"-79.33","42.97","WELLAND-PELHAM","6139449","2021-08-31 16:00","2021","08","31","16:00","24.3","","","M","","M","0.0","","33","","9","","","","98.88","","","","","","NA"
"-79.33","42.97","WELLAND-PELHAM","6139449","2021-08-31 17:00","2021","08","31","17:00","24.0","","","M","","M","0.0","","36","","7","","","","98.85","","","","","","NA"
"-79.33","42.97","WELLAND-PELHAM","6139449","2021-08-31 18:00","2021","08","31","18:00","22.9","","","M","","M","0.0","","35","","5","","","","98.85","","","","","","NA"
"-79.33","42.97","WELLAND-PELHAM","6139449","2021-08-31 19:00","2021","08","31","19:00","20.7","","","M","","M","0.0","","2","","7","","","","98.87","","","","","","NA"
"-79.33","42.97","WELLAND-PELHAM","6139449","2021-08-31 20:00","2021","08","31","20:00","18.6","","","M","","M","0.0","","35","","6","","","","98.95","","","","","","NA"
"-79.33","42.97","WELLAND-PELHAM","6139449","2021-08-31 21:00","2021","08","31","21:00","19.2","","","M","","M","0.0","","1","","8","","","","98.97","","","","","","NA"
"-79.33","42.97","WELLAND-PELHAM","6139449","2021-08-31 22:00","2021","08","31","22:00","18.5","","","M","","M","0.0","","1","","7","","","","98.99","","","","","","NA"
"-79.33","42.97","WELLAND-PELHAM","6139449","2021-08-31 23:00","2021","08","31","23:00","17.9","","","M","","M","0.0","","36","","7","","","","98.99","","","","","","NA"
